SR.NO,RPID,SITE_NAME_3G,SITE_NAME,TECHNOLOGY,3G_TECH,LATITUDE,LONGITUDE,DHQ,DHQ_NAME,Mandal,ROUT,SHELTER,Mandal_Code,Address,MP_CONS,SDCA,PIN_CODE,BSNL_IP,IP_NAME,IP_ID,Tower_Type,2G_Tower_HT,2G_ Ant_HT,2G_Ant,2G_Ant_Make,2G_BTS,2G_Phase,2G_Commission,2G_Type,2G_SEC,2G_Conf,2G_Azimuth,2G_E1_NO,2G_Media,2G_OFC_E1,2G_FE_BW,2G_DMW,2G_DMW_Ant_DIA,2G_Far_end_RPID,2G_DMW_E1_FE,2G_DMW_E1_NO,2G_DMW_FE_BW,BSC,2G_MSC,3G_PH,3G_Commission,3G_Azimuth,3G_ID,3G_SEC,3G_ANT_HT,3G_ANT_TYPE,Field52,3G_MEDIA,3G_OFC_FE,3G_E1_NO,3G_FE_BW,3G_DMW,3G_DMW_DIA,3G_FAR_RPID,3G_E1_FE,Field61,3G_MSC,Field62,RNC,NSN_2G,NSN_3G,NSN_NEW_3G,NSN_4G,HUW_REDP,NSN_NEW_2G,NOR_IV5,NOR_IV,3G_HUW_FROM,3G_HUW_FROM_TYPE,DMW_SACFA,WORK_C,BW,BSC_PORT,WORK_2G,TOWN,WORK_2G1,TOWN1
1,CT2005,102_0110_Damalacheruvu_CT2005B,BSC68-40_Damalacheruvu_CT2005A,2G+3G,HUW,13.4803,79.04797,Rural,Damalacheruvu,Pakala,RC,Room,5396,"Damalcheruvu (v),pakala(M),Chittoor DT.",Chittoor,PAKALA,517152,NBSNL,BSNL Infra,CT2005,GBT,80,33,Mono,HIGH WAY,Nortel,I,4/8/2005,S8K_ID,3,4-4-4,100/140/320,1.0,OFC,E1,,,,,,,,60,Tirupati,VII +,3/1/2017,100/140/320,ID,3.0,33.0,Dual,MOBI (MD2F&3F-65-17&17DE10&8-2015),OFC,FE,,100 Mbps,,,,,,Tiruapti,,102.0,,,,,,,,CT2005,,,,,100 Mbps,0.0,,,,
2,CT2018,102_0171_Rayalpeta_CT2018B,BSC70-23_Rayalpeta_CT2018B,2G+3G,HUW,13.32749,78.72491,Rural,Rayalpeta,Peddapanjani,,Exchange,5416,"Rayalpeta(V),peddapanjani(M),Chittoor DT.",Rajampet,PUNGANUR,517419,BSNL,BSNL Infra,CT2018,GBT,30,30,Mono,KATHREIN,Nortel,IV,2/21/2006,S12K_OD,3,4-4-4,40/200/280,,DMW,,,HUAWEI,0.6m,BSC70-22_Pedapanjani_CT2152B,E1,1.0,,70,Tirupati,VII +,5/6/2017,40/200/280,id,3.0,29.0,Mono,MOBI (MB3F-65-18DE10+MBRET-RCU-003),OFC,FE,,20 Mbps,,,,,,Tiruapti,,102.0,,,,,,,,CT2018,,,2017265546@12/9/2017@,,20 Mbps,0.0,,,,
3,CT2026,102_0153_Gurramkonda_CT2026A,BSC68-19_Gurramkonda_CT2026A,2G+3G,HUW,13.78259,78.58524,Rural,Gurramkonda,Gurramkonda,SH,Exchange,5370,"Gurramkonda(V&M),Chittoor DT.",Rajampet,VAYALPADU,517297,BSNL,BSNL Infra,CT2026,GBT,40,40,Mono,KATHREIN,Nortel,IV,12/31/2005,S12K_ID,3,4-4-4,174/251/336,1.0,OFC,E1,,,,,,,,68,Tirupati,VII +,5/8/2017,174/251/336,ID,3.0,39.0,Mono,MOBI (MB3F-65-18DE10+MBRET-RCU-003),OFC,FE,,100 Mbps,,,,,,Tiruapti,,102.0,,,,,,,,CT2026,,,,,100 Mbps,0.0,,,,
4,CT2030,102_0172_Ramasamudram_CT2030C,BSC70-21_Ramasamudram_CT2030A,2G+3G,HUW,13.36484,78.42752,Rural,Ramasamudram,Ramasamudram,,Exchange,5414,"Ramsamdram(V&M),Chittoor DT.",Rajampet,PUNGANUR,517417,BSNL,BSNL Infra,CT2030,GBT,40,40,Mono,KATHREIN,Nortel,IV,1/28/2006,S12K_ID,3,4-4-4,88/167/280,1.0,OFC,E1,,,,,,,,70,Tirupati,VII +,5/6/2017,88/167/280,ID,3.0,39.0,Mono,MOBI (MB3F-65-18DE10+MBRET-RCU-003),OFC,FE,,45 Mbps,,,,,,Tiruapti,,102.0,,,,,,,,CT2030,,,,,45 Mbps,0.0,,,,
5,CT2043,102_0165_Burrakayalakota_CT2043,BSC68-14_Burakayalakta_CT2043A,2G+3G,HUW,13.72976,78.35275,Rural,Burakayalakota,B.Kothakota,SH,Exchange,5391,"Burrakayalakota,Bkotakota(M),Chittoor DT.",Rajampet,MADANAPALLI,517351,BSNL,BSNL Infra,CT2043,GBT,40,35,Dual,AGISSON,Nortel,IV,11/17/2005,S12K_ID,3,4-4-4,120/230/315,1.0,OFC,E1,,,,,,,,68,Tirupati,VIII,,,ID,,,,,OFC,FE,,100 Mbps,,,,,,Tiruapti,,102.0,,,,,CT2043,,,CT2043,BSC68-26_Valasapalle_CT2295B,ID,,,100 Mbps,0.0,,,,
6,CT2047,102_0176_Gudupalli_CT2047C,505_50471_Gudupalli_CT2047,2G+3G,HUW,12.79195,78.28014,Rural,Gudupalli,Gudupalle,,Room,5426,"Gudupalli(V&M),Chittoor DT.",Chittoor,KUPPAM,517425,BSNL,BSNL Infra,CT2047,GBT,40,40,Dual,XAHT,NSN,IV,3/3/2006,S12K_ID,3,4-4-4,0/70/240,1.0,OFC,E1,,,,,,,,70,Tirupati,VII +,5/23/2017,0/70/240,ID,3.0,39.0,Mono,MOBI (MB3F-65-18DE10+MBRET-RCU-003),OFC,FE,,45 Mbps,,,,,,Tiruapti,,102.0,CT2047,,,,,,,,,,,,45 Mbps,505.0,290818-YES-(E1+STR-MADM+STR-STM),STD,,
7,CT2048,102_0109_HorselyHills_CT2048B,BSC68-13_Horselyhills_CT2048B,2G+3G,HUW,13.64954,78.39674,Rural,Horsleyhills,B.Kothakota,TS,Room,5391,"horselyhills,B.kothakota(M),Chittoor DT.",Rajampet,MADANAPALLI,517352,BSNL,BSNL Infra,CT2048,GBT,40,36,Mono,HIGH WAY,Nortel,III,8/28/2004,S12K_ID,3,4-4-4,120/350/40,1.0,OFC,E1,,,,,,,,68,Tirupati,VII +,3/7/2017,120/350/40,ID,3.0,36.0,Dual,MOBI (MD2F&3F-65-17&17DE10&8-2015),OFC,FE,,100 Mbps,,,,,,Tiruapti,,102.0,,,,,,,,CT2048,,,,,100 Mbps,0.0,,,,
8,CT2052,102_0133_KARVETINAGAR_CT2052A,BSC70-41_Karvetinagarm_CT2052A,2G+3G,HUW,13.42286,79.44759,Rural,Karvetinagaram,Karvetinagar,NH,Shelter,5408,"kavetinagaram exge,&M,Chittoor DT.",Tirupati,PUTTUR,517582,BSNL,BSNL Infra,CT2052,GBT,60,52,Mono,KATHREIN,Nortel,IV,2/25/2006,S12K_ID,3,3-3-3,80/220/310,1.0,OFC,E1,,,,,,,,67,Tirupati,VII +,3/23/2017,80/220/310,ID,3.0,45.0,Dual,MOBI (MD2F&3F-65-17&17DE10&8-2015),OFC,FE,,45 Mbps,,,,,,Tiruapti,,102.0,,,,,,,,CT2052,,,,,45 Mbps,0.0,,,,
9,CT2057,102_0119_Mulakalacheruvu_CT2057B,BSC68-15_MulakalChervu_CT2057A,2G+3G,HUW,13.79387,78.27196,Rural,Mulakalacheruvu,Mulakalacheruvu,SH,Room,5367,"Mulakalacheruvu exge&(M),Chittoor DT.",Rajampet,MADANAPALLI,517350,BSNL,BSNL Infra,CT2057,GBT,40,40,Mono,KATHREIN,Nortel,III+,8/30/2004,S12K_ID,3,4-4-4,140/230/330,1.0,OFC,E1,,,,,,,,68,Tirupati,VII +,3/25/2017,140/230/330,ID,3.0,40.0,Mono,MOBI (MB3F-65-18DE10+MBRET-RCU-003),OFC,FE,,100 Mbps,,,,,,Tiruapti,,102.0,,,,,,,,CT2057,,,,,100 Mbps,0.0,,,,
10,CT2058,102_0157_NaraharipetTE_CT2058C,BSC70-15_NaraharipetTE_CT2058A,2G+3G,HUW,13.09352,79.13355,Rural,Naraharipeta,Gudipala,NH,Exchange,5431,"Naraharipeta xge,gudipala(M),Chittoor DT.",Chittoor,CHITTOOR,517132,BSNL,BSNL Infra,CT2058,GBT,60,37,Mono,HIGH WAY,Nortel,I,6/4/2004,S8K_ID,3,4-4-4,50/150/335,2.0,OFC,E1,,,,,,,,60,Tirupati,VII +,5/4/2017,50/150/335,ID,3.0,40.0,Mono,MOBI (MB3F-65-18DE10+MBRET-RCU-003),OFC,FE,,45 Mbps,,,,,,Tiruapti,,102.0,,,,,,,,CT2058,,,,,45 Mbps,0.0,,,,
11,CT2068,102_0149_SADUM_CT2068A,BSC70-37_Sodam-SDCA_CT2068A,2G+3G,HUW,13.54582,78.9014,Rural,Sodam,Sodam,SH,Exchange,5394,"Sodam-SDCA,Chittoor DT.",Tirupati,SODAM,517123,BSNL,BSNL Infra,CT2068,GBT,40,35,Mono,KATHREIN,Nortel,IV,9/28/2005,S8K_ID,3,4-4-4,0/93/230,1.0,OFC,E1,,,,,,,,70,Tirupati,VII +,4/26/2017,0/93/230,ID,3.0,34.0,Mono,MOBI (MB3F-65-18DE10+MBRET-RCU-003),OFC,FE,,50 Mbps,,,,,,Tiruapti,,102.0,,,,,,,,CT2068,,,,,50 Mbps,0.0,,,,
12,CT2080,102_0160_Yadamarri_CT2080B,BSC70-06_Yadamarri_CT2080A,2G+3G,HUW,13.16133,79.03875,Rural,Yadamarri,Yadamarri,SH,Exchange,5430,"Yadamarri(V&M),Chittoor DT.",Chittoor,CHITTOOR,517422,BSNL,BSNL Infra,CT2080,GBT,40,40,Mono,HIGH WAY,Nortel,IV,1/25/2006,S8K_ID,3,4-4-4,60/205/295,,DMW,,,HUAWEI,0.6m,BSC60-27_CTR_Santhpeta_CT2004B,E1,1.0,,60,Tirupati,VII +,5/6/2017,60/205/295,ID,3.0,39.0,Mono,MOBI (MB3F-65-18DE10+MBRET-RCU-003),OFC,FE,,40 Mbps,,,,,,Tiruapti,,102.0,,,,,,,,CT2080,,,,,40 Mbps,0.0,,,,
13,CT2082,102_0150_CHOWDEPALLE_CT2082B,BSC70-24_Chowdepalle_CT2082A,2G+3G,HUW,13.43348,78.68945,Rural,Chowdepalli,Chowdepalle,SH,Exchange,5413,"Chowdepalli(V&M),Chittoor DT.",Rajampet,PUNGANUR,517357,BSNL,BSNL Infra,CT2082,GBT,40,39,Dual,XAHT,Nortel,IV,5/22/2007,BTS18K_ID,3,4-4-4,10/100/210,2.0,OFC,E1,,,,,,,,70,Tirupati,VII +,4/26/2017,10/100/210,ID,3.0,37.0,Mono,MOBI (MB3F-65-18DE10+MBRET-RCU-003),OFC,FE,,100 Mbps,,,,,,Tiruapti,,102.0,,,,,,,,,,,,,100 Mbps,,,,,
14,CT2090,102_0158_Ramapuram_CT2090B,BSC70-07_Ramapuram_CT2090A,2G+3G,HUW,13.09917,79.18397,Rural,197Ramapuram,Gudipala,,Exchange,5431,"197 Ramapuram,Chittoor DT.",Chittoor,CHITTOOR,517403,BSNL,BSNL Infra,CT2090,GBT,40,38,Dual,XAHT,Nortel,IV.5,9/18/2008,BTS18K_ID,3,4-4-4,50/190/300,1.0,OFC,E1,,,,,,,,60,Tirupati,VII +,5/4/2017,50/190/300,ID,3.0,37.0,Mono,MOBI (MB3F-65-18DE10+MBRET-RCU-003),OFC,FE,,45 Mbps,,,,,,Tiruapti,,102.0,,,,,,,,,,,,,45 Mbps,,,,,
15,CT2096,102_0173_Byreddypalli_CT2096B,BSC70-57_Byreddypalli_CT2096A,2G+3G,HUW,13.09255,78.6142,Rural,Byreddipalle,Baireddipalle,NH,Exchange,5423,"Byreddypalli(V&M),Chittoor DT.",Chittoor,PALMANER,517415,BSNL,BSNL Infra,CT2096,GBT,40,34,Mono,HIGH WAY,Nortel,IV,2/12/2007,S8K_ID,3,4-4-4,75/250/350,1.0,OFC,E1,,,,,,,,70,Tirupati,VII +,5/25/2017,75/250/350,ID,3.0,32.0,Mono,MOBI (MB3F-65-18DE10+MBRET-RCU-003),OFC,FE,,100 Mbps,,,,,,Tiruapti,,102.0,,,,,,,,CT2096,,,,,100 Mbps,0.0,,,,
16,CT2115,102_01993_KVB_Puram_CT2115,BSC68-17_KVBPuram_CT2115B,2G+3G,HUW,13.53097,79.7388,Rural,KVBPuram,K.V.B.Puram,SH,Exchange,5382,"KVBPuram(V&M),Chittoor DT.",Tirupati,SRI KALAHASTHI,517643,BSNL,BSNL Infra,CT2115,GBT,40,38,Dual,Agisson,Nortel,IV.5,9/12/2008,BTS18K_ID,3,4-4-4,10/190/280,1.0,OFC,E1,,,,,,,,67,Tirupati,VIII.4,12/31/2019,,RRH,,,,,OFC,FE,,,,,,,,,,102.0,,,,,,,,,,,,,,0.0,,,,
17,CT2117,102_0155_Kalakada_CT2117B,BSC68-54_Kalakada_CT2117B,2G+3G,HUW,13.82792,78.79076,Rural,Kalakada,Kalakada,NH,Exchange,5371,"Kalakada(V&M),Chittoor DT.",Rajampet,VAYALPADU,517236,BSNL,BSNL Infra,CT2117,GBT,40,39,Dual,XAHT,Nortel,IV.5,9/8/2008,BTS18K_ID,3,4-4-4,0/170/230,1.0,OFC,E1,,,,,,,,68,Tirupati,VII +,5/12/2017,0/170/230,ID,3.0,37.0,Mono,MOBI (MB3F-65-18DE10+MBRET-RCU-003),OFC,FE,,45 Mbps,,,,,,Tiruapti,,102.0,,,,,,,,,,,,,45 Mbps,,,,,
18,CT2121,102_0127_Kalluru_CT2121B,BSC68-50_Kalluru_CT2121A,2G+3G,HUW,13.55863,78.99621,Rural,Kalluru,Pulicherla,NH,Exchange,5395,"Kalluru (V),Chittoor dt.",Chittoor,PAKALA,517113,NBSNL,BSNL Infra,CT2121,GBT,40,37,Dual,XAHT,Nortel,IV.5,2/17/2009,BTS18K_OD,3,4-4-4,40/140/260,1.0,OFC,E1,,,,,,,,60,Tirupati,VII +,3/9/2017,40/140/260,OD,3.0,36.0,Dual,MOBI (MD2F&3F-65-17&17DE10&8-2015),OFC,FE,,100 Mbps,,,,,,Tiruapti,,102.0,,,,,,,,,,,,,100 Mbps,,,,,
19,CT2125,102_0156_Kanduru_CT2125A,BSC70-59_Kanduru-USO_CT2125A,2G+3G,HUW,13.56297,78.77432,Rural,Kandur,Somala,,OD Plinth,5412,"Kanduru(V),Somla(M),Chittoor DT.",Rajampet,PILER,517224,NBSNL,BSNL Infra,CT2125,GBT,40,34,Dual,XAHT,Nortel,USO,11/25/2008,BTS18K_OD,3,3-3-3,50/120/210,1.0,OFC,E1,,,,,,,,70,Tirupati,VII +,5/1/2017,50/120/210,RRH,3.0,34.0,Mono,MOBI (MB3F-65-18DE10+MBRET-RCU-003),OFC,FE,,30 Mbps,,,,,,Tiruapti,,102.0,,,,,,,,,,,,,30 Mbps,,,,,
20,CT2127,102_0112_Kavetigaripalli_CT2127B,BSC68-51_K_GaripaliUSO_CT2127B,2G+3G,HUW,13.53136,79.0834,Rural,Kavetigaripalle,Pulicherla,,OD Plinth,5395,"USO Tower, KavetiGaripalli_USO, Pulicherla(M), Chittor dist, AP-517152.",Chittoor,PAKALA,517172,NBSNL,BSNL Infra,CT2127,GBT,40,34,Dual,XAHT,Nortel,USO,8/31/2008,BTS18K_OD,3,3-3-3,90/200/330,1.0,OFC,E1,,,,,,,,60,Tirupati,VII +,3/1/2017,90/200/330,OD,3.0,34.0,Dual,MOBI (MD2F&3F-65-17&17DE10&8-2015),OFC,FE,,60 Mbps,,,,,,Tiruapti,,102.0,,,,,,,,,,,,,60 Mbps,,,,,
21,CT2132,102_0122_Kurabalakota_CT2132B,BSC68-62_Kurabalakota_CT2132B,2G+3G,HUW,13.64649,78.48294,Rural,Kurabalakota,Kurabalakota,SH,Exchange,5389,"No 7-3, jangalavari palli , kurabalakota ,Kurabalakota(V&M),Chittoor DT.-517350",Rajampet,MADANAPALLI,517351,BSNL,BSNL Infra,CT2132,GBT,40,39,Dual,XAHT,Nortel,IV.5,9/18/2008,BTS18K_ID,3,4-4-4,10/150/270,1.0,OFC,E1,,,,,,,,68,Tirupati,VII +,3/7/2017,10/150/270,ID,3.0,38.0,Dual,MOBI (MD2F&3F-65-17&17DE10&8-2015),OFC,FE,,100 Mbps,,,,,,Tiruapti,,102.0,,,,,,,,,,,,,100 Mbps,,,,,
22,CT2139,102_0167_CT_Madireddypalle_USO_CT2139,BSC70-01_MReddypaleUSO_CT2139B,2G+3G,HUW,13.15161,78.99599,Rural,Madireddipalle,Yadamarri,,OD Plinth,5430,"USO TOWER, MADIREDDIPALLE, CHITTOOR DIST,AP-517422",Chittoor,CHITTOOR,517422,NBSNL,BSNL Infra,CT2139,GBT,40,34,Dual,XAHT,Nortel,USO,10/20/2008,BTS18K_OD,3,2-2-2,25/105/182,,DMW,,,NEW NEC(HFCL),0.6 m,BSC60-06_Yadamarri_CT2080A,E1,1.0,,60,Tirupati,VIII,,,RRH,,,,,DMW,E1,,30 Mbps,,,,,,,,102.0,,,,,CT2139,,,,BSC60-14_Kukalple_VIOM_CT5022A,RRH,2015812396@G/FXW/HYD/3156698/2016@K-19012-G/FVC/HYD2891034/2015-CFA DTD 9-12-16,,30 Mbps,,,,,
23,CT2145,102_0168_CT_Nampalle-USO_CT2145,BSC70-05_Nampalle-USO_CT2145B,2G+3G,HUW,13.41246,79.00166,Rural,Nampalle,Irala,,OD Plinth,5411,"Nampalle_USO,IRALA(M),Chittoor DT.",Chittoor,BANGARUPALYAM,517130,NBSNL,BSNL Infra,CT2145,GBT,40,34,Dual,XAHT,Nortel,USO,10/20/2008,BTS18K_OD,3,3-3-3,30/120/220,1.0,OFC,E1,,,,,,,,70,Tirupati,VIII,,,RRH,,,,,,,,45 Mbps,,,,,,,,102.0,,,,,CT2145,,,,BSC60-41_ThenepaliVIOM_CT5019B,RRH,,,45 Mbps,0.0,,,,
24,CT2146,102_01341_Nerabailu_CT2146,BSC68-05_Nerabailu_CT2146B,2G+3G,HUW,13.74879,79.16446,Rural,Nerabailu,Chinnagottigallu,,Room,5385,"Nerabailu,Bakarapet(M),Chittoor DT.",Rajampet,PILER,517194,BSNL,BSNL Infra,CT2146,GBT,40,40,Dual,Agisson,Nortel,IV,8/18/2006,BTS18K_ID,3,4-4-4,0/170/250,1.0,OFC,E1,,,,,,,,68,Tirupati,VIII.4,3/7/2020,,ID,,,,,,,,,,,,,,,,,,,,,,,,CT2146,,,,,,0.0,,,,
25,CT2150,102_0169_CT_PG_Palli_USO_CT2150,BSC70-50_PG_palli-USO_CT2150B,2G+3G,HUW,12.94962,78.4939,Rural,pamuganipalle,Venkatagirikota,,OD Plinth,5424,"Pamuganipalli(V),v.kota(M).,Chittoor DT.",Chittoor,V.KOTA,517424,NBSNL,BSNL Infra,CT2150,GBT,40,34,Dual,XAHT,Nortel,USO,11/30/2008,BTS18K_OD,3,3-3-3,0/90/240,,DMW,,,NEW NEC(HFCL),0.6 m,BSC70-56_VKota_CT2079A,E1,1.0,,70,Tirupati,VIII,,,RRH,,,,,DMW,E1,,6 Mbps,,,,,,,,102.0,,,,,CT2150,,,,BSC70-40_DravidaUniv_CT9005B,RRH,2015814064@G/FXW/HYD/3156776/2016@CLEARED ONLINE,,6 Mbps,,,,,
26,CT2152,102_0164_Peddapanjani_CT2152B,BSC70-22_Pedapanjani_CT2152B,2G+3G,HUW,13.29227,78.6816,Rural,Peddapanjani,Peddapanjani,NH,Shelter,5416,"peddapanjani(V&M),Chittoor DT.",Rajampet,PUNGANUR,517408,NBSNL,BSNL Infra,CT2152,GBT,40,38,Mono,HIGH WAY,Nortel,IV,12/2/2006,S8K_ID,3,4-4-4,110/200/280,,DMW,,,HUAWEI,0.6m,BSC70-81_Battamdoddi_CT5045B,E1,1.0,,70,Tirupati,VII +,5/6/2017,110/200/280,ID,3.0,37.0,Mono,MOBI (MB3F-65-18DE10+MBRET-RCU-003),OFC,FE,,20 Mbps,,,,,,Tiruapti,,102.0,,,,,,,,,,,2017265547@12/9/2017@,,20 Mbps,,,STD,,
27,CT2153,102_0170_CT_Peddaupparapalli_USO_CT2153,BSC70-18_PUparpalliUSO_CT2153B,2G+3G,HUW,13.38617,78.81911,Rural,Peddaupparapalli,Somala,,OD Plinth,5412,"Peddaupparapalli,Somala(M),Chittoor DT.",Rajampet,PILER,517257,NBSNL,BSNL Infra,CT2153,GBT,40,34,Dual,XAHT,Nortel,USO,11/30/2008,BTS18K_OD,3,3-3-3,0/180/270,1.0,OFC,E1,,,,,,,,70,Tirupati,VIII,,,RRH,,,,,OFC,E1,,30 Mbps,,,,,,,,102.0,,,,,CT2153,,,,BSC70-96_NgpalliATC_CT5032A,RRH,,,30 Mbps,,,,,
28,CT2156,102_0182_PTsamudram_CT2156,BSC68-65_PTsamudram_CT2156B,2G+3G,HUW,13.71318,78.2058,Rural,PTSamudram,Pedda Thippasamudram,,Exchange,5390,"Ptsamudram(V&M),Chittoor DT.",Rajampet,MADANAPALLI,517391,BSNL,BSNL Infra,CT2156,GBT,40,40,Dual,XAHT,Nortel,IV.5,9/23/2008,BTS18K_ID,3,4-4-4,0/95/240,1.0,OFC,E1,,,,,,,,68,Tirupati,VIII,,,ID,,,,,OFC,FE,,100 Mbps,,,,,,,,102.0,,,,,CT2156,,,,BSC68-47_Barlapalli_CT5041A,ID,,,100 Mbps,,,,,
29,CT2157,102_0118_Pulicherla_CT2157C,BSC68-52_Pulicherla_CT2157B,2G+3G,HUW,13.60013,79.0398,Rural,Pulicherla,Pulicherla,RC,Exchange,5395,"Pulicherla(V&M),Chittoor DT.",Chittoor,PAKALA,517172,BSNL,BSNL Infra,CT2157,GBT,40,38,Dual,XAHT,Nortel,IV.5,8/21/2008,BTS18K_ID,3,4-4-4,0/120/240,1.0,OFC,E1,,,,,,,,60,Tirupati,VII +,3/3/2017,0/120/240,ID,3.0,38.0,Dual,MOBI (MD2F&3F-65-17&17DE10&8-2015),OFC,FE,,35 Mbps,,,,,,Tiruapti,,102.0,,,,,,,,CT2157,,,,,35 Mbps,0.0,,,,
30,CT2164,102_0177_Santhipuram_CT2164B,BSC70-55_SanthiPuram_CT2164B,2G+3G,HUW,12.86738,78.40133,Rural,Santhipuram,Santhipuram,NH,OD Plinth,5425,"SanthiPuram(V&M),Chittoor DT.",Chittoor,KUPPAM,517423,NBSNL,BSNL Infra,CT2164,GBT,60,50,Mono,HIGH WAY,Nortel,IV.5,1/30/2009,BTS18K_OD,3,3-3-3,40/215/310,1.0,OFC,E1,,,,,,,,70,Tirupati,VII +,5/24/2017,40/215/310,RRH,3.0,50.0,Mono,MOBI (MB3F-65-18DE10+MBRET-RCU-003),OFC,FE,,45 Mbps,,,,,,Tiruapti,,102.0,,,,,,,,,,,,,45 Mbps,,,,,
31,CT2165,102_0151_SOMALA_CT2165B,BSC70-16_Somala_CT2165B,2G+3G,HUW,13.47745,78.81007,Rural,Somala,Somala,SH,Exchange,5412,"Somala(V&M),Chittoor DT.",Rajampet,PILER,517457,BSNL,BSNL Infra,CT2165,GBT,40,39,Dual,XAHT,Nortel,IV.5,8/21/2008,BTS18K_ID,3,4-4-4,90/210/300,1.0,OFC,E1,,,,,,,,70,Tirupati,VII +,4/26/2017,90/210/300,ID,3.0,36.0,Mono,MOBI (MB3F-65-18DE10+MBRET-RCU-003),OFC,FE,,30 Mbps,,,,,,Tiruapti,,102.0,,,,,,,,CT2165,,,,,30 Mbps,0.0,,,,
32,CT2174,102_0183_CT_ThungundrmUSO_CT2174,BSC70-30_ThungundrmUSO_CT2174B,2G+3G,HUW,13.18878,79.26383,Rural,Thungundram,Gangadhara Nellore,,OD Plinth,5420,"Thungundram,GDNellore(M),Chittoor DT.",Chittoor,CHITTOOR,517421,NBSNL,BSNL Infra,CT2174,GBT,40,34,Dual,XAHT,Nortel,USO,11/25/2008,BTS18K_OD,3,3-3-3,85/180/270,1.0,OFC,E1,,,,,,,,60,Tirupati,VIII,,,RRH,,,,,OFC,,,30 Mbps,,,,,,,,102.0,,,,,CT2174,,,,BSC60-78_CTR_Estate_CT5098,RRH,,,30 Mbps,,,,,
33,CT2182,102_0184_Varathuru_USO_CT2182,BSC70-26_Varathuru-USO_CT2182A,2G+3G,HUW,13.23054,79.26392,Rural,Varathur,Gangadhara Nellore,,OD Plinth,5420,VARATHURUSURVEY NO: 552/1B EAST SIDE OF PACHIGUNTA ROAD AND WEST SIDE OF CHAKALAVARI G PIN-517421,Chittoor,CHITTOOR,517128,NBSNL,BSNL Infra,CT2182,GBT,40,34,Dual,XAHT,Nortel,USO,10/17/2008,BTS18K_OD,3,3-3-3,60/140/320,,DMW,,,ZTE-VIOM,0.6 m,BSC60-04_VezzupalleUSO_CT2187B,E1,1.0,,60,Tirupati,VIII,,,RRH,3.0,,,,DMW,,,30 Mbps,,,,,,,,102.0,,,,,CT2182,,,,BSC60-34_Anupalli_CT2092A,RRH,2015812407@G/FXW/HYD/3156699/2016@K-19012/G/FXW/HYD/2670760/2016-CFA 9-12-16,,30 Mbps,,,,,
34,CT2183,102_0175_Vedurukuppam_CT2183B,BSC70-20_Vedurukuppam_CT2183B,2G+3G,HUW,13.44093,79.31511,Rural,Vedurukuppam,Vedurukuppam,SH,Shelter,5397,"Vedurukuppam(V&M),Chittoor DT.",Tirupati,PUTTUR,517569,NBSNL,BSNL Infra,CT2183,GBT,40,38,Dual,XAHT,Nortel,IV.5,9/30/2008,BTS18K_ID,3,4-4-4,130/250/350,1.0,OFC,E1,,,,,,,,67,Tirupati,VII +,5/16/2017,130/250/350,RRH,3.0,38.0,Mono,MOBI (MB3F-65-18DE10+MBRET-RCU-003),OFC,FE,,45 Mbps,,,,,,Tiruapti,,102.0,,,,,,,,,,,,,45 Mbps,,,,,
35,CT2187,102_0141_VezzupalleUSO_CT2187B,BSC70-28_VezzupalleUSO_CT2187B,2G+3G,HUW,13.29353,79.20853,Rural,Vezzupalle,Gangadhara Nellore,,OD Plinth,5420,"SY.NO:391/1 2 3 & 4 NEAR LAND LORD HOUSE,Vezzupalle,Chittor Dist,Andhra Pradesh-517167",Chittoor,CHITTOOR,517125,NBSNL,BSNL Infra,CT2187,GBT,40,34,Dual,XAHT,Nortel,USO,9/30/2008,BTS18K_OD,3,3-3-3,110/200/270,,DMW,,,NEW NEC(HFCL),0.6 m,BSC60-13_GDNellore_CT2046A,E1,1.0,,60,Tirupati,VII +,4/8/2017,110/200/270,RRH,3.0,34.0,Dual,MOBI (MD2F&3F-65-17&17DE10&8-2015),DMW,,,30 Mbps,NEW NEC,0.6 m,CT2046,FE,,Tiruapti,20Mbps,102.0,,,,,,,,,,,2016827307@G/FXW/HYD/3504388/2016@K-19012/G/FVC/HYD/1982154/2013-CFA DT 19/12/16,,30 Mbps,,,,,
36,CT2218,102_0178_Adivibaduguru_CT2218B,BSC70-83_Adivibaduguru_CT2218A,2G+3G,HUW,12.65496,78.43869,Rural,Adavibuduguru,kuppam,,Room,5427,"Adivibaduguru,kuppam(M),Chittoor DT.",Tirupati,KUPPAM,517425,BSNL,BSNL Infra,CT2218,GBT,40,35,Dual,Agisson,Nortel,V.1,12/31/2010,S12K_ID,3,4-4-4,20/100/290,1.0,OFC,E1,,,,,,,,70,Tirupati,VII +,5/23/2017,20/100/290,ID,3.0,35.0,Dual,Agisson,OFC,FE,,45 Mbps,,,,,,Tiruapti,,102.0,,,,,,,,,,,,,45 Mbps,,,STD,,
37,CT2223,102_0142_Beerakuppam_CT2223A,BSC68-77_Beerakuppam_CT2223B,2G+3G,HUW,13.4554,79.8454,Rural,Beerakuppam,Nagalapuram,,Exchange,5403,"Beerakuppam(V),nagalapuram(M),Chittoor DT.",Tirupati,SATYAVEDU,517589,BSNL,BSNL Infra,CT2223,GBT,40,39,Dual,Agisson,Nortel,V.1,3/31/2010,S8K_ID,3,4-4-4,0/120/240,1.0,OFC,E1,,,,,,,,67,Tirupati,VII +,4/24/2017,0/120/240,ID,3.0,39.0,Mono,MOBI (MB3F-65-18DE10+MBRET-RCU-003),OFC,FE,,60 Mbps,,,,,,Tiruapti,,102.0,,,,,,,,CT2223,,,,,60 Mbps,0.0,,,,
38,CT2232,102_01351_Chintalapalem_CT2232,BSC68-16_ChintalaPalem_CT2232B,2G+3G,HUW,13.80278,79.5834,Rural,Chinthalapalem,Yerpedu,SH,Exchange,5377,"ChintalaPalem,Yerpedu (M),Chittoor DT.",Tirupati,SRI KALAHASTHI,517619,BSNL,BSNL Infra,CT2232,GBT,40,37,Dual,XAHT,Nortel,V.1,3/31/2010,S8K_ID,3,4-4-4,30/120/290,1.0,OFC,E1,,,,,,,,67,Tirupati,VIII.4,3/2/2020,,ID,3.0,,,,,,,,,,,,,,,,,,,,,,,CT2232,,,,,,0.0,,,,
39,CT2234,102_0185_CT_CR_Kandriga_CT2234,BSC68-24_CR-Kandriga_CT2234B,2G+3G,HUW,13.36194,79.7669,Rural,CRKandriga,Pichatur,,Exchange,5401,"CR-Kandriga,Pitchatur (M),Chittoor DT.",Tirupati,SATYAVEDU,517167,BSNL,BSNL Infra,CT2234,GBT,40,37,Dual,Agisson,Nortel,V.1,4/22/2010,BTS18K_ID,3,4-4-4,0/120/240,1.0,OFC,E1,,,,,,,,67,Tirupati,VIII,,,ID,,,,,OFC,E1,,6 Mbps,,,,E1,,,,102.0,,,,,CT2234,,,,BSC67-53_Pitchatur_CT2064A,ID,,,6 Mbps,0.0,,,,
40,CT2246,102_0186_CT_Guttapalem_CT2246,BSC68-35_Guttapalem_CT2246B,2G+3G,HUW,13.60435,78.78455,Rural,Guttapalem,Kalikiri,,Room,5387,"Guttapalem,yallampalli,kalikiri(M),Chittoor DT.",Rajampet,VAYALPADU,517224,NBSNL,BSNL Infra,CT2246,GBT,40,37,Dual,Agisson,Nortel,V.1,10/22/2010,BTS18K_OD,3,4-4-4,0/90/260,1.0,OFC,E1,,,,,,,,68,Tirupati,VIII,,,ID,,,,,E1,E1,2.0,45 Mbps,,,,,,,,102.0,,,,,CT2246,,,,BSC58-34_Ithepalle_GTL_CT5013B,RRH,,,45 Mbps,,,,,
41,CT2247,102_0187_KBRPuram_CT2247,BSC70-92_KBRPuram_CT2247B,2G+3G,HUW,13.35418,79.51555,Rural,KBRPuram,Puttur,,Exchange,5407,"2/95-1,KBRPuram,puttur(M),Chittoor DT.",Tirupati,PUTTUR,517571,BSNL,BSNL Infra,CT2247,GBT,40,37,Dual,Agisson,Nortel,V.1,1/30/2010,BTS18K_ID,3,4-4-4,110/200/330,1.0,OFC,E1,,,,,,,,67,Tirupati,VIII,,,ID,3.0,,,,,,,60 Mbps,,,,,,,,102.0,,,,,CT2247,,,,BSC58-32_Gajulamandyam_CT2241A,ID,,,60 Mbps,0.0,,,,
42,CT2248,102_0162_Ugranampalle_CT2248B,BSC70-19_Ugranampalle_CT2248A,2G+3G,HUW,13.32299,79.18751,Rural,Ugranampalle,Gangadhara Nellore,,Exchange,5420,"Ugranampalle(V),Gdnellore(M),Chittoor DT.",Chittoor,CHITTOOR,517126,BSNL,BSNL Infra,CT2248,GBT,40,37,Dual,Agisson,Nortel,V.1,4/16/2010,S12K_ID,3,4-4-4,35/100/260,1.0,OFC,E1,,,,,,,,60,Tirupati,VII +,5/2/2017,35/100/260,ID,3.0,37.0,Dual,Agisson,OFC,FE,,100 Mbps,,,,,,Tiruapti,,102.0,,,,,,,,CT2248,,,,,100 Mbps,0.0,,,,
43,CT2256,102_0179_Krishnapuram_CT2256C,BSC70-91_KrishnaPuram_CT2256B,2G+3G,HUW,13.02236,78.51434,E-City,krishnapuram,Venkatagirikota,NH,Room,5424,"KrishnaPuram,V.Kota (M),Chittoor DT.",Chittoor,V.KOTA,517424,BSNL,BSNL Infra,CT2256,GBT,80,40,Dual,Agisson,Nortel,V.1,6/29/2011,S12K_ID,3,4-4-4,0/120/240,1.0,OFC,E1,,,,,,,,70,Tirupati,VII +,5/29/2017,0/120/240,ID,2.0,40.0,Dual,Agisson,OFC,FE,,45 Mbps,,,,,,Tiruapti,,102.0,,,,,,,,CT2256,,,,,45 Mbps,0.0,,,,
44,CT2258,102_0117_Mangalampeta_CT2258C,BSC68-32_Mangalampeta_CT2258B,2G+3G,HUW,13.57829,79.09571,Rural,Mangalampeta,Pulicherla,,Exchange,5395,"Mangalampeta,pulicherla(M),Chittoor DT.",Tirupati,PAKALA,517172,BSNL,BSNL Infra,CT2258,GBT,40,37,Dual,Agisson,Nortel,V.1,3/27/2010,S12K_ID,3,4-4-4,10/120/260,1.0,OFC,E1,,,,,,,,60,Tirupati,VII +,3/3/2017,10/120/260,ID,3.0,37.0,Dual,MOBI (MD2F&3F-65-17&17DE10&8-2015),OFC,FE,,35 Mbps,,,,,,Tiruapti,,102.0,,,,,,,,CT2258,,,,,35 Mbps,0.0,,,,
45,CT2260,102_0188_CT_MEDIKURTHY_CT2260,BSC68-68_Medikurthi_CT2260B,2G+3G,HUW,13.70779,78.77265,Rural,Medikurthi,Kalikiri,,Exchange,5387,"Medikurti, Kalikiri(M), Chittoor DT,AP-517237",Chittoor,VAYALPADU,517237,BSNL,BSNL Infra,CT2260,GBT,40,37,Dual,Agisson,Nortel,V.1,5/29/2010,S8K_ID,3,4-4-4,140/250/320,1.0,OFC,E1,,,,,,,,68,Tirupati,VIII,,,ID,,,,,,E1,2.0,45 Mbps,,,,,,,,102.0,,,,,CT2260,,,CT2260,BSC70-33_Talupulapalli_CT2281B,ID,,,45 Mbps,0.0,,,,
46,CT2272,102_0189_CT_Panatoor_CT2272B,BSC70-84_Panatoor_CT2272B,2G+3G,HUW,13.05485,79.13702,Rural,panatoor,Gudipala,NH,Room,5431,"Panatoor,Gudipala(M).,Chittoor DT.",Chittoor,CHITTOOR,517132,NBSNL,BSNL Infra,CT2272,GBT,40,38,Dual,Agisson,Nortel,V.1,12/31/2010,S12K_ID,3,4-4-4,0/180/270,,DMW,,,Huawei,0.6 m,BSC60-72_Nangamangalam_CT2266B,E1,1.0,,60,Tirupati,VIII,,,ID,,,,,,,,6 Mbps,,,,,,,,102.0,,,,,CT2272,,,CT2272,BSC60-60_PakalaBS_VIOM_CT5021A,ID,G/FVC/HYD/1466304/2011,,6 Mbps,0.0,,,,
47,CT2278,102_0190_Pengarakunta_CT2278,BSC70-47_Pengarakunta_CT2278A,2G+3G,HUW,13.16906,78.75671,Rural,Pengarakunta,Palamaner,,Room,5422,"pengaragunta ,palamaner mandal,Chittoor DT.",Chittoor,PALMANER,517408,NBSNL,BSNL Infra,CT2278,GBT,40,35,Dual,AGISSON,Nortel,V.1,9/23/2010,S12K_ID,3,4-4-4,330/120/240,1.0,OFC,E1,,,,,,,,70,Tirupati,viii,,,ID,,,,,,,,45 Mbps,,,,,,,,102.0,,,,,CT2278,,,CT2278,BSC70-19_Bangarupalem_CT2001A,ID,,,45 Mbps,0.0,,,,
48,CT2280,102_0163_SSSKonda_CT2280B,BSC70-62_SSSKonda_CT2280A,2G+3G,HUW,13.25771,79.26932,Rural,SSSkonda,Gangadhara Nellore,,Exchange,5420,"petamitta(V),SSSKonda(M),gd nallore (M),Chittoor DT.",Chittoor,CHITTOOR,517126,BSNL,BSNL Infra,CT2280,GBT,40,37,Dual,Agisson,Nortel,V.1,5/5/2010,BTS6K_OD_AC,3,4-4-4,0/120/240,1.0,OFC,E1,,,,,,,,60,Tirupati,VII +,5/2/2017,0/120/240,OD,3.0,37.0,Dual,Agisson,OFC,FE,,45 Mbps,,,,,,Tiruapti,,102.0,,,,,,,,,,,,,45 Mbps,,,,,
49,CT2287,102_0191_TC_Samudram_CT2287,BSC68-99_T_C_Samudram_CT2287B,2G+3G,HUW,13.86063,78.33599,Rural,Chowdasamudram,Mulakalacheruvu,,Exchange,5367,"T-Chowdasamudram,Mulakalacheruvu(M),Chittoor DT.",Rajampet,MADANAPALLI,517350,BSNL,BSNL Infra,CT2287,GBT,40,39,Dual,Agisson,Nortel,V.1,3/31/2010,S12K_ID,3,4-4-4,0/120/240,1.0,OFC,E1,,,,,,,,68,Tirupati,viii,,,ID,,,,,OFC,FE,,100 Mbps,,,,,,,,102.0,,,,,CT2287,,,CT2287,BSC68-52_CT-Samudram_CT2107A,ID,,,100 Mbps,0.0,,,,
50,CT2303,102_0192_CT_Yerravaripalem_CT2303,BSC68-60_Yeravaripalem_CT2303B,2G+3G,HUW,13.70581,79.13107,Rural,Yerravaripalem,Yerravaripalem,,Shelter,5374,"Yerravaripalem(V&M),Chittoor DT.",Tirupati,PILER,517194,NBSNL,BSNL Infra,CT2303,GBT,40,37,Dual,XAHT,Nortel,V.1,9/20/2010,BTS6K_OD_AC,3,4-4-4,0/100/280,1.0,OFC,E1,,,,,,,,68,Tirupati,VIII,,,ID,,,,,E1,E1,,100 Mbps,,,,,,,,102.0,,,,,CT2303,,,,BSC68-01_Bakarapeta_CT2041A,ID,,,100 Mbps,,,,,
51,CT2304,102_01981_Rangampeta_PTC_CT230,BSC68-53_Ret-PTC_CT2304C,2G+3G,HUW,13.64814,79.26938,DHQ,Rangampeta,Chandragiri,NH,Room,5384,"Rangampet_PTC,Rangampet,Chittoor DT.",Tirupati,CHANDRAGIRI,517102,NBSNL,BSNL Infra,CT2304,RTP,9,15,Dual,KATHREIN,Nortel,V.1,12/20/2010,BTS6K_OD_AC,3,4-4-4,25/155/230,1.0,OFC,E1,,,,,,,,58,Tirupati,,12/30/2020,,,3.0,,,,OFC,,,,,,,,,,,,,,,,,,,,,,,,,,,,,
52,CT2307,102_0193_NRPeta_CT2307,BSC70-93_NRPeta_CT2307A,2G+3G,HUW,13.17527,79.2078,Rural,NRPeta,Gudipala,SH,Exchange,5431,"Nrpeta exge,Chittoor rural.,Chittoor DT.",Chittoor,CHITTOOR,517419,BSNL,BSNL Infra,CT2307,GBT,40,35,Dual,XAHT,Nortel,V.1,8/28/2011,BTS18K_ID,3,4-4-4,50/180/280,1.0,OFC,E1,,,,,,,,70,Tirupati,VIII,,,ID,3.0,,,,OFC,FE,,100 Mbps,,,,,,Tiruapti,,102.0,,,,,CT2307,,,CT2307,BSC60-17_Putalapattu_CT2029A,ID,,,100 Mbps,0.0,,,,
53,CT5016,102_0101_SMANGAPURAM_GTL_CT5016A,504_40801_SMangapuram_GTL_CT5016,2G+3G,HUW,13.60566,79.33043,DHQ,Srinivasamangapuram,Chandragiri,NH,Shelter,5384,"S.Y.No:592-4A,Mr. SRINIVASULU, SRINIVASA RESIDENCY,SRINIVASA MANGAPURAM(V),CHANDRAGIRI(M), CHITTOOR (DT),PIN:517101. Mobile No: 9440376824",Tirupati,CHANDRAGIRI,517101,IP-GTL,GTL,APR/GBT/K/15248,GBT,40,40,Dual,MOBI (MB2F&3F-65-17&17DE10&8-2015),NSN,VII,4/2/2013,S12K_ID,3,4-4-4,140/270/340,,DMW,,,Huawei,0.6 m,BSC58-17_Chandragiri_CT2032A,E1,1.0,,58,Tirupati,VII +,10/26/2016,140/270/340,RRH,3.0,40.0,Dual,MOBI (MD2F&3F-65-17&17DE10&8-2015),DMW,,,100 Mbps,Huawei,0.6 m,CT2032,FE,,Tiruapti,50Mbps,102.0,CT5016,,,,,,,,,,2015812308@G/FXW/HYD/3156691/2016@K-19012-G/FVC/HYD2891034/2015-CFA DTD 9-12-16,,100 Mbps,504.0,300818-YES-(E1+STR-MADM+STR-STM),TRP,,
54,CT5025,102_0194_Mudupulvemula_CT5025,BSC68-58_Mudupulvemula_CT5025B,2G+3G,HUW,13.6992,78.91842,Rural,Mudupulavemula,Pileru,NH,Shelter,5386,"M.Gourisankaraiah, S/oKrishna Murthy Sy.No404, Mudupulavemula(V), Piler",Rajampet,PILER,517214,NBSNL,BSNL Infra,CT5025,GBT,40,38,Dual,MOBI (MB2F&3F-65-17&17DE10&8-2015),Nortel,VII,3/15/2014,S12K_ID,3,4-4-4,30/115/270,,,,,OFC,,,,,,68,Tirupati,VIII,,,ID,3.0,,,,,,,70 Mbps,,,,,,,,102.0,,,,,CT5025,,,CT5025,BSC68-06_Rompicherla_CT2162A,ID,2015813451@G/FXW/HYD/3156725/2016@K-19012-G/FVC/HYD2891034/2015-CFA DTD 9-12-16,,70 Mbps,0.0,,,,
55,CT5028,102_0195_CT_Gandrajupalli_CT5028,BSC70-97_Gandrajupalle_CT5028B,2G+3G,HUW,13.18812,78.5855,Rural,Gandrajupalle,Baireddipalle,NH,Shelter,5423,"Gandrajupalle_5682,G.Ramana Reddy, Thatireddygaripalli (V),Gandrajupalli (P), Baireddypalli (M)517432",Chittoor,PALMANER,517432,NBSNL,BSNL Infra,CT5028,GBT,40,38,Dual,MOBI (MB2F&3F-65-17&17DE10&8-2015),Nortel,VII,3/11/2014,S12K_ID,3,4-4-4,0/140/310,,DMW,,,NEW NEC(HFCL),0.6m,BSC70-69_Dandapalle_CT2235B,E1,1.0,,70,Tirupati,VIII,,,,,,,,E1,E1,,45 Mbps,,,,E1,,,,102.0,,,,,CT5028,,,CT5028,BSC70-12_G_K_Manchi_CT2111B,ID,,,45 Mbps,0.0,,,,
56,CT5031,102_0196_Kantevaripali_CT5031,BSC68-56_Kantevaripali_CT5031B,2G+3G,HUW,13.66332,78.44965,Rural,Kantevaripalle,Madanapalle,NH,Room,5392,"BSNL Tower, Kantevaripalle",Rajampet,MADANAPALLI,517325,NBSNL,BSNL Infra,CT5031,GBT,40,37,Dual,MOBI (MB2F&3F-65-17&17DE10&8-2015),Nortel,VII,2/15/2014,BTS18K_ID,3,4-4-4,0/110/290,1.0,OFC,E1,,,,,,,,68,Tirupati,VIII,,,ID,,,,,,,,100 Mbps,,,,,,,,102.0,,,,,CT5031,,,,BSC68-40_Arogyavaram_CT2255B,ID,,,100 Mbps,0.0,,,,
57,CT5061,102_0132_MANNAVARAM_CT5061B,BSC68-94_Mannavaram_CT5061C,2G+3G,HUW,13.89391,79.52686,Rural,Mannavaram,Yerpedu,,Room,5377,"BHEL project,via Yerpedu,Mannavarm(post).",Tirupati,SRI KALAHASTHI,517620,BSNL,BSNL Infra,CT5061,GBT,40,35,Dual,Agisson,Nortel,VII,6/27/2013,S12K_ID,3,4-4-4,70/200/290,,DMW,,,ZTE-VIOM(Huawei),1.2 m,BSC67-18_ChintalaPalem_CT2232B,E1,1.0,,67,Tirupati,VII +,3/16/2017,70/200/290,ID,3.0,35.0,Dual,Agisson,DMW,,,20 Mbps,ZTE-VIOM(Huawei),0.6 m,CT2232,FE,,Tiruapti,8Mbps,102.0,,,,,,,,CT5061,,,2015813449@G/FXW/HYD/3156723/2016@K-19012/G/FXW/HYD/3156337/201-CFA 26/2/16,,20 Mbps,0.0,,,,
