SR.NO,RPID,SITE_NAME,TECHNOLOGY,3G_TECH,SITE_NAME_3G,LATITUDE,LONGITUDE,DHQ,DHQ_NAME,Mandal,ROUT,SHELTER,Mandal_Code,Address,MP_CONS,SDCA,PIN_CODE,BSNL_IP,IP_NAME,IP_ID,Tower_Type,2G_Tower_HT,2G_ Ant_HT,2G_Ant,2G_Ant_Make,2G_BTS,2G_Phase,2G_Commission,2G_Type,2G_SEC,2G_Conf,2G_Azimuth,2G_E1_NO,2G_Media,2G_OFC_E1,2G_FE_BW,2G_DMW,2G_DMW_Ant_DIA,2G_Far_end_RPID,2G_DMW_E1_FE,2G_DMW_E1_NO,2G_DMW_FE_BW,BSC,2G_MSC,3G_PH,3G_Commission,3G_Azimuth,3G_ID,3G_SEC,3G_ANT_HT,3G_ANT_TYPE,Field52,3G_MEDIA,3G_OFC_FE,3G_E1_NO,3G_FE_BW,3G_DMW,3G_DMW_DIA,3G_FAR_RPID,3G_E1_FE,Field61,3G_MSC,Field62,RNC,NSN_2G,NSN_3G,NSN_NEW_3G,NSN_4G,HUW_REDP,NSN_NEW_2G,NOR_IV5,NOR_IV,3G_HUW_FROM,3G_HUW_FROM_TYPE,DMW_SACFA,WORK_C,BW,BSC_PORT,WORK_2G,TOWN,WORK_2G1,TOWN1
1,CT2001,505_50011_NH4_Bangarupalem_CT2001,2G+3G,NSN,553_35012_Bangarupalem_CT2001,13.2025,78.91376,Rural,Bangarupalem,Bangarupalem,NH,Exchange,5429.0,"Bangarupalem exge(v&M),Chittoor DT.",Chittoor,BANGARUPALYAM,517416.0,BSNL,BSNL Infra,CT2001,GBT,60.0,40.0,Mono,HIGH WAY,NSN,I,6/12/2004,BTS18K_ID,3.0,4-4-4,100/250/180,,DMW,,,NEW NEC(HFCL),0.91.2,BSC70-12_G_K_Manchi_CT2111,FE,,,70.0,Tirupati,VII +,4/21/2017,100/250/180,RRH,3.0,40.0,Mono,MOBI (MB3F-65-18DE10+MBRET-RCU-003),OFC,FE,,50 Mbps,,,,,,Tiruapti,,553.0,CT2001,CT2001,,,,,CT2001,,,,,230818-YES(FE+CTR(PTN)+CTR-DWDM+TRP(DWDM)+PE2(2-2-25),50 Mbps,505.0,230818-YES(FE+CTR(PTN)+CTR-DWDM+TRP(DWDM)+PE2(2-2-25),BAN,,
2,CT2002,505_50021_CTR_Greamspet_CT2002,2G+4G,NSN,4G_35023_Greamspet_CT2002,13.20171,79.09397,E-City,Chittoor,Chittoor,,Room,5421.0,"4-908,4-910,Old Collectorate Office Road,Greamspet ,Chittoor DT.",Chittoor,CHITTOOR,517002.0,NBSNL,BSNL Infra,CT2002,MARR,12.0,26.0,Dual,MOBI,NSN,I,6/4/2004,BTS18K_ID,3.0,6-6-6,170/260/350,2.0,OFC,E1,,,,,,,,60.0,Tirupati,V.1,3/18/2010,170/260/350,RRH,3.0,30.0,Mono,Agisson,OFC,FE,,100 Mbps,,,,,,Tiruapti,,4.0,CT2002,CT2002,,,,,CT2002,,,,,121018-YES(FE+CTR(CAR)-MADM)+CTR-DWDM+TRP(DWDM)+PE1(2-2-23),100 Mbps,505.0,121018-YES(FE+CTR(CAR)-MADM)+CTR-DWDM+TRP(DWDM)+PE1(2-2-23),CTR,,
3,CT2003,505_50031_CTR_Chittoor_OFC_CT2003,2G+4G,NSN,4G_35033_OFCStation_CT2003,13.21576,79.10481,E-City,Chittoor,Chittoor,SH,Room,5421.0,"Chittoor OFC stn,near fly over bridge ,Chittoor.,Chittoor DT.",Chittoor,CHITTOOR,517001.0,BSNL,BSNL Infra,CT2003,GBT,100.0,40.0,Dual,XAHT,NSN,I,6/4/2004,BTS18K_ID,3.0,6-6-6,10/120/270,2.0,OFC,E1,,,,,,,,60.0,Tirupati,V.1,7/14/2010,10/120/270,RRH,3.0,40.0,Mono,Agisson,OFC,Optical,,100 Mbps,,,,,,Tiruapti,,4.0,CT2003,CT2003,,,,,CT2003,,,,,200718-YES(FX+CTR(PTN)+CTR-DWDM+TRP(DWDM)+PE2(2-2-25),100 Mbps,505.0,200718-YES(FX+CTR(PTN)+CTR-DWDM+TRP(DWDM)+PE2(2-2-25),CTR,,
4,CT2004,505_50041_CTR_Santhapeta_CT2004,2G+4G,NSN,4G_35041_Santhapeta_CT2004,13.22933,79.09169,E-City,Chittoor,Chittoor,,Exchange,5421.0,"CTR_Santhapeta RSU,Chittoor,Chittoor DT.",Chittoor,CHITTOOR,517004.0,BSNL,BSNL Infra,CT2004,GBT,30.0,30.0,Mono,KATHREIN,NSN,I,6/4/2004,S12K_ID,3.0,4-4-4,20/160/230,1.0,OFC,E1,,,,,,,,60.0,Tirupati,V.1,3/18/2010,20/160/230,RRH,3.0,30.0,Mono,Agisson,OFC,FE,,100 Mbps,,,,,,Tiruapti,,4.0,CT2004,CT2004,,,,,,,,,,290618-YES(FX+CTR(PTN)+CTR-DWDM+TRP(DWDM)+PE2(2-2-25),100 Mbps,505.0,290618-YES(FX+CTR(PTN)+CTR-DWDM+TRP(DWDM)+PE2(2-2-25),CTR,,
5,CT2007,505_50071_Kalrodpalli_CT2007,2G+3G,NSN,553_35051_Kalrodpalli_CT2007,13.51366,79.21043,Rural,Kalroadpalli,Pakala,RC,Room,5396.0,"Kalrodpalli,pakala(M),Chittoor DT.",Chittoor,PAKALA,517112.0,NBSNL,BSNL Infra,CT2007,GBT,40.0,40.0,Mono,HIGH WAY,NSN,IV,3/9/2006,S8K_OD,3.0,4-4-4,40/120/225,1.0,OFC,E1,,,,,,,,60.0,Tirupati,,,,RRH,,,,,,,,45 Mbps,,,,,,,,553.0,CT2007,,CT2007,,,,,,,,,"200518YES(CPE,fe1+MADM3/17fx(CDR)+PTN5/5(CDR)+PTN4/5(TRP)+PE-GE1(2-2-19))",45 Mbps,505.0,"130618YES(CPE,fe1+MADM3/17fx(CDR)+PTN5/5(CDR)+PTN4/5(TRP)+PE-GE1(2-2-19))",STD,,
6,CT2009,505_50091_MDP_Madanapalle-RLU_CT2009,2G+4G,NSN,4G_35061_Madanapalle-RLU_CT2009,13.55058,78.5123,E-City,Madanapalle,Madanapalle,,Exchange,5392.0,"Madanapalli RLU,madanapalli,Chittoor DT.",Rajampet,MADANAPALLI,517325.0,BSNL,BSNL Infra,CT2009,MARR,18.0,27.0,Dual,MOBI (MB2F&3F-65-17&17DE10&8-2015),NSN,IV,9/29/2005,S12K_ID,3.0,6-6-6,0/60/180,1.0,OFC,E1,,,,,,,,68.0,Tirupati,VII,12/16/2013,0/60/180,ID,3.0,27.0,Dual,MOBI (MD2F&3F-65-17&17DE10&8-2015),OFC,FE,,100 Mbps,,,,,,Tiruapti,,4.0,CT2009,CT2009,,,,,,,,,,270718-YES-(FX(E1)+MADM(STR)+PE2(2-2-29)),100 Mbps,505.0,270718-YES-(FX(E1)+MADM(STR)+PE2(2-2-29)),MDP,,
7,CT2010,505_50101_MDP_Madanapalle-MW_CT2010,2G+4G,NSN,4G_35072_Madanapalle-MW_CT2010,13.58141,78.52007,E-City,Madanapalle,Madanapalle,NH,Room,5392.0,"MDP_Madanapalle-MW,madanapalli,Chittoor DT.",Rajampet,MADANAPALLI,517325.0,BSNL,BSNL Infra,CT2010,GBT,100.0,30.0,Dual,MOBI (MB2F&3F-65-17&17DE10&8-2015),NSN,IV,6/10/2005,S12K_ID,3.0,4-4-4,5/150/215,2.0,OFC,E1,,,,,,,,68.0,Tirupati,VII,12/18/2013,5/150/215,ID,3.0,30.0,Dual,MOBI (MD2F&3F-65-17&17DE10&8-2015),OFC,FE,,100 Mbps,,,,,,Tiruapti,,4.0,CT2010,CT2010,,,,,,,,,,190818-YES-(FX(E1)+MADM(STR)+PE2(2-2-29)),100 Mbps,505.0,190818-YES-(FX(E1)+MADM(STR)+PE2(2-2-29)),MDP,,
8,CT2012,504_40011_Nagalapuram-CTR_CT2012,2G+3G,NSN,553_35083_Nagalapuram_CT2012,13.38473,79.79882,Rural,Nagalapuram,Nagalapuram,NH,OD Plinth,5403.0,Nagalapuram TE-CTR dt.,Tirupati,SATYAVEDU,517589.0,BSNL,BSNL Infra,CT2012,GBT,40.0,39.0,Mono,HIGH WAY,NSN,IV,5/8/2006,S12K_OD,3.0,4-4-4,70/140/290,1.0,OFC,E1,,,,,,,,67.0,Tirupati,VII +,5/18/2017,70/140/290,RRH,3.0,36.0,Mono,MOBI (MB3F-65-18DE10+MBRET-RCU-003),OFC,FE,,50 Mbps,,,,,,Tiruapti,,553.0,CT2012,CT2012,,,,,,,,,,140818YES(FX(E1)+MADM1-(EKM)+MADM(PTR)+DWDM(PTR)+DWDM(TRP_STR)+PE1(2-2-21),50 Mbps,504.0,140818YES(FX(E1)+MADM1-(EKM)+MADM(PTR)+DWDM(PTR)+DWDM(TRP_STR)+PE1(2-2-21),STD,,
9,CT2013,505_50131_NH18_Pileru_CT2013,2G+4G,NSN,4G_35092_Pileru_CT2013,13.65423,78.94377,E-City,Piler,Pileru,NH,Exchange,5386.0,"Piler TE,piler.,Chittoor DT.",Rajampet,PILER,517214.0,BSNL,BSNL Infra,CT2013,GBT,80.0,40.0,Dual,MOBI (MB2F&3F-65-17&17DE10&8-2015),NSN,I,6/4/2004,S12K_ID,3.0,4-4-4,140/310/60,2.0,OFC,E1,,,,,,,,68.0,Tirupati,VII,2/26/2014,140/310/60,RRH,3.0,40.0,Dual,MOBI (MD2F&3F-65-17&17DE10&8-2015),OFC,FE,,100 Mbps,,,,,,Tiruapti,,4.0,CT2013,CT2013,,,,,,,,,,220818-YES(Fe+PIL(PTN)+CTR-DWDM+TRP(DWDM)+PE2(2-2-27),100 Mbps,505.0,220818-YES(Fe+PIL(PTN)+CTR-DWDM+TRP(DWDM)+PE2(2-2-27),PIL,,
10,CT2014,505_50141_NH4_Bhutalabanda_CT2014,2G,,,13.19976,78.78508,E-City,Buthalabanda,Palamaner,NH,Room,5422.0,Palamaneer Ghat Micro Wave Repeater Station.;Bhuthalabanda. palamaneeru.;Chittoor Dist;517408,Chittoor,PALMANER,517415.0,BSNL,BSNL Infra,CT2014,GBT,60.0,54.0,Mono,HIGH WAY,NSN,I,6/13/2004,S8K_ID,2.0,4-4-0,95/277,,DMW,,,NEW NEC(HFCL),0.60.9,BSC70-63_Mogalimittoor_CT2261,FE,,,70.0,Tirupati,,,,,,,,,,,,,,,,,,,,,CT2014,,,,,,,,,,,,,505.0,240818-YES(FE+CTR(PTN)+CTR-DWDM+TRP(DWDM)+PE2(2-2-25),STD,,
11,CT2015,505_50151_Punganur_CT2015,2G+4G,NSN,4G_35113_Punganur_CT2015,13.36644,78.572,E-City,Punganur,Punganur,SH,Exchange,5415.0,"punganur exge,busstand area.,Chittoor DT.",Rajampet,PUNGANUR,517247.0,BSNL,BSNL Infra,CT2015,MARR,18.0,30.0,Dual,MOBI (MB2F&3F-65-17&17DE10&8-2015),NSN,III,7/11/2004,S12K_ID,3.0,4-4-4,0/60/120,2.0,OFC,E1,,,,,,,,70.0,Tirupati,VII,12/18/2013,0/60/120,RRH,3.0,30.0,Dual,MOBI (MD2F&3F-65-17&17DE10&8-2015),OFC,FE,,100 Mbps,,,,,,Tiruapti,,4.0,CT2015,CT2015,,,,,,,,,,060818YES(FE+MADM(PLM)+MADM(STR)+PE1(2-2-35),100 Mbps,505.0,090818YES(FE+MADM(PLM)+MADM(STR)+PE1(2-2-35),PUG,,
12,CT2016,504_40021_SrikalahastiE-seva_CT2016,2G+3G,NSN,553_35121_Srikalahasti-E-seva_CT2016,13.75123,79.70339,E-City,Srikalahasti,Srikalahasti,,Room,5378.0,"SrikalahastiE-seva,srikalahasti,Chittoor DT.",Tirupati,SRI KALAHASTHI,517644.0,NBSNL,BSNL Infra,CT2016,MARR,18.0,27.0,Dual,MOBI (MB2F&3F-65-17&17DE10&8-2015),NSN,IV,3/20/2006,S12K_ID,3.0,4-4-4,5/120/249,1.0,OFC,E1,,,,,,,,67.0,Tirupati,VII,2/13/2013,5/120/249,RRH,3.0,27.0,Dual,MOBI (MD2F&3F-65-17&17DE10&8-2015),OFC,FE,,100 Mbps,,,,,,Tiruapti,,553.0,CT2016,CT2016,,,,,,,,,,040818YES(FE+MADM(SKT)+DWDM(SKT)+DWDM(STR)+PE1(2-2-33),100 Mbps,504.0,040818YES(FE+MADM(SKT)+DWDM(SKT)+DWDM(STR)+PE1(2-2-33),SKT,,
13,CT2017,504_41131_TPT_Tirumala_CT2017,2G+3G,NSN,553_3652_TPT_Tirumala_CT2017,13.68069,79.34947,E-City,Tirumala,Tirupati (Urban),PP,Exchange,5383.0,"Tirumala,Chittoor DT.",Tirupati,CHANDRAGIRI,517504.0,BSNL,BSNL Infra,CT2017,GBT,40.0,40.0,Dual,MOBI (MB2F&3F-65-17&17DE10&8-2015),NSN,II+,6/4/2004,MTC_ID,3.0,6-6-6,0/60/120,,OFC,FE,65 Mbps,,,,,,,504.0,Tirupati,VIII,3/18/2010,0/60/120,RRH,3.0,40.0,Dual,Agisson,OFC,FE,,100 Mbps,,,,,,Tiruapti,,553.0,,,,,,,,,,,,,100 Mbps,,,,,
14,CT2019,504_40031_TirumalaResidency_CT2019,2G+3G,ZTE,346_5905_TPT_TirumalaResidency_CT2019A,13.62744,79.42889,DHQ,Tirupati,Tirupati (Urban),NH,Room,5383.0,"TRP_TirumalaResidency,tirupati,,Chittoor DT.",Tirupati,CHANDRAGIRI,517501.0,NBSNL,BSNL Infra,CT2019,MARR,18.0,30.0,Dual,XAHT,NSN,IV,1/20/2006,BTS18K_ID,3.0,4-4-4,0/120/240,2.0,OFC,E1,,,,,,,,58.0,Tirupati,V.1,3/18/2010,0/120/240,RRH,3.0,26.0,Mono,AGISSON,OFC,FE,,100 Mbps,,,,,,Tiruapti,,346.0,CT2019,,,,,,CT2019,,,,,,100 Mbps,504.0,190718-YES-(E1+TRP-MADM+CAR-STM),TRP,,
15,CT2020,504_40041_Tiruchanoor_CT2020,2G+3G,ZTE,346_5906_TPT_TiruchaNoor_CT2020A,13.60804,79.45194,DHQ,Tirupati,Tirupati (Rural),,Room,5375.0,"TRP_Tiruchanoor,near tirupati,,Chittoor DT.",Tirupati,CHANDRAGIRI,517503.0,NBSNL,BSNL Infra,CT2020,MARR,21.0,26.0,Dual,KATHREIN,NSN,IV,5/26/2006,S12K_OD,3.0,4-4-4,120/240/320,,DMW,,,NEW NEC,0.6 m,BSC58-30_TRPCottonMill_CT2198B,E1,1.0,,58.0,Tirupati,V.1,3/18/2010,120/240/320,ID,3.0,26.0,Mono,Agisson,DMW,,,50 Mbps,NEW NEC,0.6 m,CT2198,FE,,Tiruapti,100 Mbps,346.0,CT2020,,,,,,,,,,2015812114@G/FVC/HYD/3156690/2016@CLEARED ONLINE,,50 Mbps,504.0,"120718-YES-(DMW,FE+TRP-MADM+PE2(2-2-31))",TRP,,
16,CT2021,504_40051_Bhavaninagar_CT2021,2G+3G,ZTE,346_5907_TPT_Bhavaningr_CT2021A,13.64056,79.42027,DHQ,Tirupati,Tirupati (Urban),,OD Plinth,5383.0,"TRP_Bhavaninagar,Chittoor DT.",Tirupati,CHANDRAGIRI,517501.0,BSNL,BSNL Infra,CT2021,MARR,15.0,27.0,Mono,KATHREIN,NSN,IV,9/28/2005,S12K_ID,3.0,4-4-4,0/120/240,1.0,OFC,E1,,,,,,,,58.0,Tirupati,V.1,3/18/2010,0/120/240,OD,3.0,27.0,Mono,Agisson,OFC,Optical,,100 Mbps,,,,,,Tiruapti,,346.0,CT2021,,,,,,,,,,,,100 Mbps,504.0,240718-YES-(E1+TRP-MADM+CAR-STM),TRP,,
17,CT2022,504_40061_Padmavatipuram_CT2022,2G+3G,ZTE,346_5908_TPT_PadmavathiPuram_CT2022A,13.61646,79.43544,DHQ,Tirupati,Tirupati (Rural),NH,Exchange,5375.0,"TRP_Padmavatipuram,Chittoor DT.",Tirupati,CHANDRAGIRI,517503.0,BSNL,BSNL Infra,CT2022,MARR,21.0,27.0,Dual,KATHREIN,NSN,IV,6/4/2005,S12K_ID,3.0,4-4-4,130/240/350,2.0,OFC,E1,,,,,,,,58.0,Tirupati,V.1,3/18/2010,130/240/350,RRH,3.0,27.0,Mono,Agisson,OFC,Optical,,100 Mbps,,,,,,Tiruapti,,346.0,CT2022,,,,,,,,,,,,100 Mbps,504.0,230718-YES-(FE+TRP-MADM+PE2(2-2-31)),TRP,,
18,CT2023,504_40071_Renigunta_CT2023,2G+3G,ZTE,346_5909_TPT_Renigunta_CT2023A,13.63683,79.49588,DHQ,Renigunta,Renigunta,RC,Exchange,5376.0,"Renigunta Exchange,Beside Govt high school,Renigunta,Tirupati,Chittoor District, Pin-517520",Tirupati,CHANDRAGIRI,517520.0,BSNL,BSNL Infra,CT2023,GBT,40.0,34.0,Dual,Agisson,NSN,II+,6/4/2004,S12K_ID,3.0,4-4-4,80/110/260,1.0,OFC,E1,,,,,,,,58.0,Tirupati,V.1,3/18/2010,80/110/260,RRH,3.0,34.0,Dual,Agisson,OFC,FE,,100 Mbps,,,,,,Tiruapti,,346.0,CT2023,,,,,,,,,,,,100 Mbps,504.0,230718-YES-(GE+RENI_PTN+NIB-4/5+PE-GE1(2-2-19)),TRP,,
19,CT2024,505_50241_Chinnagottigallu_CT2024,2G+3G,NSN,553_35133_Chinnagottigallu_CT2024,13.65255,79.08792,Rural,Chinnagottigallu,Chinnagottigallu,NH,Exchange,5385.0,"Chinnagottigallu(V&M),Chittoor DT.",Rajampet,PILER,517193.0,BSNL,BSNL Infra,CT2024,GBT,40.0,40.0,Dual,MOBI (MB2F&3F-65-17&17DE10&8-2015),NSN,III,6/23/2004,S8K_ID,3.0,4-4-4,20/120/230,1.0,OFC,E1,,,,,,,,68.0,Tirupati,VII,6/11/2014,20/120/230,RRH,3.0,40.0,Dual,MOBI (MD2F&3F-65-17&17DE10&8-2015),OFC,FE,,100 Mbps,,,,,,Tiruapti,,553.0,CT2024,CT2024,,,,,,,,,,210818-YES(Fe+PIL(PTN)+CTR-DWDM+TRP(DWDM)+PE2(2-2-27),100 Mbps,505.0,210818-YES(Fe+PIL(PTN)+CTR-DWDM+TRP(DWDM)+PE2(2-2-27),STD,,
20,CT2025,505_50251_CTR_ChurchStreet_CT2025,2G+4G,NSN,4G_35143_ChurchStreet_NB_CT2025,13.217,79.09834,E-City,Chittoor,Chittoor,,Room,5421.0,"Chanda residency,church st,chittoor.,Chittoor DT.",Chittoor,CHITTOOR,517001.0,NBSNL,BSNL Infra,CT2025,MARR,12.0,30.0,Mono,KATHREIN,NSN,III+,10/14/2004,BTS18K_ID,3.0,6-6-6,10/110/250,2.0,OFC,E1,,,,,,,,60.0,Tirupati,V.1,3/18/2010,10/110/250,RRH,3.0,30.0,Mono,Agisson,OFC,FE,,100 Mbps,,,,,,Tiruapti,,4.0,CT2025,CT2025,,,,,,,,,,200718-YES(FX+CTR(PTN)+CTR-DWDM+TRP(DWDM)+PE2(2-2-25),100 Mbps,505.0,200718-YES(FX+CTR(PTN)+CTR-DWDM+TRP(DWDM)+PE2(2-2-25),CTR,,
21,CT2028,505_50281_Pileru2-NB_CT2028,2G+4G,NSN,4G_35152_Pileru2-NB_CT2028,13.65456,78.93688,E-City,Piler,Pileru,NH,Room,5386.0,"Sodam rd, SDOT office Building, Piler,Chittoor DT.",Rajampet,PILER,517214.0,NBSNL,BSNL Infra,CT2028,MARR-1,21.0,27.0,Dual,MOBI (MB2F&3F-65-17&17DE10&8-2015),NSN,IV,6/2/2006,S12K_ID,3.0,4-4-4,80/170/310,2.0,OFC,E1,,,,,,,,68.0,Tirupati,VII,1/16/2014,80/170/310,RRH,3.0,27.0,Dual,MOBI (MD2F&3F-65-17&17DE10&8-2015),OFC,FE,,60 Mbps,,,,,,Tiruapti,,4.0,CT2028,CT2028,,,,,,,,,,080818-YES(Fe+PIL(PTN)+CTR-DWDM+TRP(DWDM)+PE2(2-2-27),60 Mbps,505.0,080818-YES(Fe+PIL(PTN)+CTR-DWDM+TRP(DWDM)+PE2(2-2-27),PIL,,
22,CT2029,505_50291_NH18_Putalapattu_CT2029,2G+3G,NSN,553_35161_Putalapattu_CT2029,13.34398,79.09385,Rural,Puthalapattu,Puthalapattu,NH,Room,5410.0,"putalapattu(V&M),Chittoor DT.",Chittoor,CHITTOOR,517124.0,BSNL,BSNL Infra,CT2029,GBT,60.0,38.0,Mono,HIGH WAY,NSN,I,6/4/2004,S12K_ID,3.0,4-4-4,50/160/260,2.0,OFC,E1,,,,,,,,60.0,Tirupati,VII +,4/22/2017,50/160/260,RRH,3.0,38.0,Mono,MOBI (MB3F-65-18DE10+MBRET-RCU-003),OFC,FE,,100 Mbps,,,,,,Tiruapti,,553.0,CT2029,CT2029,,,,,,,,,,110718-YES(fe+CTR(CAR)-MADM)+CTR-DWDM+TRP(DWDM)+PE1(2-2-23),100 Mbps,505.0,110718-YES(fe+CTR(CAR)-MADM)+CTR-DWDM+TRP(DWDM)+PE1(2-2-23),STD,,
23,CT2031,504_40081_Rangampeta_HW_CT2031,2G+4G,NSN,4G_35173_Rangampeta_HW_CT2031,13.62385,79.27944,DHQ,Rangampeta,Chandragiri,RC,Room,5384.0,"Rangampet (V),Chandragiri(M)",Tirupati,CHANDRAGIRI,517102.0,BSNL,BSNL Infra,CT2031,GBT,40.0,40.0,Dual,MOBI (MB2F&3F-65-17&17DE10&8-2015),NSN,III,11/26/2004,S8K_ID,3.0,4-4-4,88/280/180,1.0,OFC,E1,,,,,,,,58.0,Tirupati,V.1,6/2/2014,88/280/180,RRH,3.0,40.0,Dual,MOBI (MD2F&3F-65-17&17DE10&8-2015),OFC,FE,,100 Mbps,,,,,,Tiruapti,,4.0,CT2031,CT2031,,,,,,,,,,300818-YES-(FE+CDR_PTN+NIB+PE-GE1(2-2-19)),100 Mbps,504.0,300818-YES-(FE+CDR_PTN+NIB+PE-GE1(2-2-19)),STD,,
24,CT2032,504_40091_Chandragiri_CT2032,2G+3G,NSN,553_35182_Chandragiri_CT2032,13.58842,79.31548,DHQ,Chandragiri,Chandragiri,NH,Exchange,5384.0,"Chandragiri TE,busstand area,Chandragiri(m),Chittoor DT.",Tirupati,CHANDRAGIRI,517101.0,BSNL,BSNL Infra,CT2032,GBT,40.0,36.0,Mono,KATHREIN,NSN,II+,6/4/2004,S12K_ID,3.0,4-4-4,40/140/230,1.0,OFC,E1,,,,,,,,58.0,Tirupati,V.1,3/18/2010,40/140/230,RRH,3.0,36.0,Mono,Agisson,OFC,FE,,100 Mbps,,,,,,Tiruapti,,553.0,CT2032,CT2032,,,,,,,,,,100718-YES-(GE+CDR_PTN-FX3/1+NIB-4/5+PE-GE1(2-2-19)),100 Mbps,504.0,300718-YES-(GE+CDR_PTN-FX3/1+NIB-4/5+PE-GE1(2-2-19)),STD,,
25,CT2033,504_40101_Varadayyapalem_CT2033,2G+4G,NSN,4G_35193_Varadayyapalem_CT2033,13.5999,79.93397,Rural,Varadayyapalem,Varadaiahpalem,SH,Exchange,5381.0,"Varadayyapalem(VM),Chittoor DT.",Tirupati,SATYAVEDU,517541.0,BSNL,BSNL Infra,CT2033,GBT,40.0,38.0,Dual,MOBI (MB2F&3F-65-17&17DE10&8-2015),NSN,IV,10/24/2005,S12K_ID,3.0,4-4-4,64/154/312,1.0,OFC,E1,,,,,,,,67.0,Tirupati,Vii,6/28/2014,64/154/312,RRH,3.0,38.0,Dual,MOBI (MD2F&3F-65-17&17DE10&8-2015),OFC,FE,,100 Mbps,,,,,,Tiruapti,,4.0,CT2033,CT2033,,,,,,,,,,040818YES(FE+MADM(SKT)+DWDM(SKT)+DWDM(STR)+PE1(2-2-33),100 Mbps,504.0,040818YES(FE+MADM(SKT)+DWDM(SKT)+DWDM(STR)+PE1(2-2-33),STD,,
26,CT2034,505_50341_Vayalapadu_CT2034,2G+3G,NSN,553_35202_Vayalapadu_CT2034,13.63963,78.62609,Rural,Chinnagottigallu,Kalikiri,RC,Exchange,5387.0,"Vayalapadu exge,Vayalpad(M),Chittoor DT.",Rajampet,VAYALPADU,517299.0,BSNL,BSNL Infra,CT2034,GBT,60.0,40.0,Dual,MOBI (MB2F&3F-65-17&17DE10&8-2015),NSN,III,9/26/2004,S12K_ID,3.0,4-4-4,80/140/340,1.0,OFC,E1,,,,,,,,68.0,Tirupati,VII,6/10/2014,80/140/340,RRH,3.0,40.0,Dual,MOBI (MD2F&3F-65-17&17DE10&8-2015),OFC,FE,,100 Mbps,,,,,,Tiruapti,,553.0,CT2034,CT2034,,,,,,,,,,110818-YES(FE+VYD(PTN)+CTR-DWDM+TRP(DWDM)+PE2(2-2-27),100 Mbps,505.0,110818-YES(FE+VYD(PTN)+CTR-DWDM+TRP(DWDM)+PE2(2-2-27),STD,,
27,CT2035,505_50351_PKothakota_CT2035,2G+3G,NSN,553_35212_PKothakota_CT2035,13.40695,79.10927,Rural,P.Kothakota,Puthalapattu,NH,Exchange,5410.0,"P.kothakota,CTR,ptx(M),Chittoor DT.",Chittoor,CHITTOOR,517112.0,BSNL,BSNL Infra,CT2035,GBT,40.0,35.0,Mono,HIGH WAY,NSN,IV,12/30/2005,S8K_ID,3.0,4-4-4,20/140/230,1.0,OFC,E1,,,,,,,,60.0,Tirupati,VII +,3/4/2017,20/140/230,RRH,3.0,35.0,Dual,MOBI (MD2F&3F-65-17&17DE10&8-2015),OFC,FE,,100 Mbps,,,,,,Tiruapti,,553.0,CT2035,CT2035,,,,,,,,,,230818-YES(FX+PKA(PTN)-CTR(PTN)+CTR-DWDM+TRP(DWDM)+PE2(2-2-27),100 Mbps,505.0,230818-YES(FX+PKA(PTN)-CTR(PTN)+CTR-DWDM+TRP(DWDM)+PE2(2-2-27),STD,,
28,CT2036,505_50361_Pakala-SDCA_CT2036,2G+4G,NSN,4G_35223_Pakala_CT2036,13.44876,79.11343,E-City,Pakala,Pakala,RC,Exchange,5396.0,"pakala exge.pakala(M),Chittoor DT.",Chittoor,PAKALA,517112.0,BSNL,BSNL Infra,CT2036,MARR,21.0,29.0,Dual,MOBI (MB2F&3F-65-17&17DE10&8-2015),NSN,III+,10/28/2004,S12K_ID,3.0,4-4-4,36/120/277,1.0,OFC,E1,,,,,,,,60.0,Tirupati,VII,4/9/2014,36/120/277,RRH,3.0,29.0,Dual,MOBI (MD2F&3F-65-17&17DE10&8-2015),OFC,FE,,100 Mbps,,,,,,Tiruapti,,4.0,CT2036,CT2036,,,,,,,,,,210618-YES(FX+PKL(PTN)+CTR-DWDM+TRP(DWDM)+PE2(2-2-27),100 Mbps,505.0,200618-YES(FX+PKL(PTN)+CTR-DWDM+TRP(DWDM)+PE2(2-2-27),PKL,,
29,CT2037,504_40111_SVUGuestHouse_CT2037,2G+3G,ZTE,346_5913_TPT_SVU_CT2037A,13.62389,79.39261,DHQ,Tirupati,Tirupati (Rural),RC,Shelter,5375.0,"S.V UNIVERSITY;Tirupati, Andhra Pradesh",Tirupati,CHANDRAGIRI,517501.0,NBSNL,BSNL Infra,CT2037,GBT,40.0,30.0,Dual,MOBI (MB2F&3F-65-17&17DE10&8-2015),NSN,II+,6/4/2004,BTS18K_ID,3.0,4-4-4,50/160/240,2.0,OFC,E1,,,,,,,,58.0,Tirupati,V.1,3/18/2010,50/160/240,RRH,3.0,30.0,Mono,Agisson,OFC,FE,,100 Mbps,,,,,,Tiruapti,,346.0,CT2037,,,,,,CT2037,,,,,,100 Mbps,504.0,"220718-YES-(DMW,E1+TRP-MADM+CAR-STM)",TRP,,
30,CT2040,504_40121_Bairagipatteda_CT2040,2G+3G,ZTE,346_5914_Bairagipatteda_CT2040A,13.62006,79.42385,DHQ,Tirupati,Tirupati (Urban),,Room,5383.0,"TRP-Bairagipatteda,Chittoor DT.",Tirupati,CHANDRAGIRI,517501.0,NBSNL,BSNL Infra,CT2040,RTT,15.0,18.0,Mono,KATHREIN,NSN,IV,9/27/2007,S12K_ID,3.0,4-4-4,150/240/310,2.0,OFC,E1,,,,,,,,58.0,Tirupati,V.1,3/18/2010,150/240/310,RRH,3.0,18.0,Mono,Agisson,OFC,Optical,,100 Mbps,,,,,,Tiruapti,,346.0,CT2040,,,,,,,,,,,,100 Mbps,504.0,"130718-YES-(CPE,FE+TRP-MADM+PE2(2-2-31))",TRP,,
31,CT2041,505_50411_Bakarapeta_CT2041,2G+3G,NSN,553_35231_Bakarapeta_CT2041,13.65278,79.15939,Rural,Bakarapeta,Chinnagottigallu,NH,Exchange,5385.0,"Bakarapeta(V&M),Chittoor DT.",Rajampet,PILER,517194.0,BSNL,BSNL Infra,CT2041,GBT,40.0,39.0,Mono,KATHREIN,NSN,IV,11/22/2006,BTS18K_ID,3.0,4-4-4,30/130/250,1.0,OFC,E1,,,,,,,,68.0,Tirupati,VII +,3/13/2017,30/130/250,RRH,3.0,38.0,Dual,MOBI (MD2F&3F-65-17&17DE10&8-2015),OFC,FE,,100 Mbps,,,,,,Tiruapti,,553.0,CT2041,CT2041,,,,,,,,,,200818-YES(Fe+PIL(PTN)+CTR-DWDM+TRP(DWDM)+PE2(2-2-27),100 Mbps,505.0,200818-YES(Fe+PIL(PTN)+CTR-DWDM+TRP(DWDM)+PE2(2-2-27),STD,,
32,CT2042,504_40131_BNKadriga_CT2042,2G+3G,NSN,553_35241_BNKadriga_CT2042,13.69625,79.8548,Rural,BNKandriga,Buchinaidu Kandriga,SH,Exchange,5380.0,"BNKandriga(V&M),Chittoor DT.",Tirupati,SRI KALAHASTHI,517640.0,BSNL,BSNL Infra,CT2042,GBT,40.0,40.0,Mono,HIGH WAY,NSN,IV,9/30/2005,S8K_ID,3.0,4-4-4,41/142/298,1.0,OFC,E1,,,,,,,,67.0,Tirupati,VII +,3/8/2017,41/142/298,RRH,3.0,38.0,Dual,MOBI (MD2F&3F-65-17&17DE10&8-2015),OFC,FE,,100 Mbps,,,,,,Tiruapti,,553.0,CT2042,CT2042,,,,,,,,,,140818YES(MADM(SKT)+DWDM(SKT)+DWDM(STR)+PE1(2-2-33),100 Mbps,504.0,140818YES(MADM(SKT)+DWDM(SKT)+DWDM(STR)+PE1(2-2-33),STD,,
33,CT2044,505_50441_CTR_RamnagarClny_CT2044,2G+4G,NSN,4G_35253_RamNagarColony_CT2044,13.20941,79.09138,E-City,Chittoor,Chittoor,,Room,5421.0,"Ramanagar colony,Chittoor,Chittoor DT.",Chittoor,CHITTOOR,517001.0,NBSNL,BSNL Infra,CT2044,MARR,18.0,27.0,Mono,KATHREIN,NSN,IV,2/13/2006,S12K_ID,3.0,4-4-4,40/135/240,2.0,OFC,E1,,,,,,,,60.0,Tirupati,V.1,3/18/2010,40/135/240,RRH,3.0,27.0,Mono,Agisson,OFC,FE,,100 Mbps,,,,,,Tiruapti,,4.0,CT2044,CT2044,,,,,,,,,,030718-YES(FX+CTR(PTN)+CTR-DWDM+TRP(DWDM)+PE2(2-2-25),100 Mbps,505.0,030718-YES(FX+CTR(PTN)+CTR-DWDM+TRP(DWDM)+PE2(2-2-25),CTR,,
34,CT2045,504_41141_DharmagiriRoad_CT2045,2G+3G,NSN,553_36503_DharmagiriRoad_CT2045,13.68606,79.34196,E-City,Tirumala,Tirupati (Urban),PP,Shelter,5383.0,"Dharmagiri_Road,tirumala road,Chittoor DT.",Tirupati,CHANDRAGIRI,517504.0,NBSNL,BSNL Infra,CT2045,GBT,30.0,25.0,Dual,MOBI (MB2F&3F-65-17&17DE10&8-2015),NSN,IV,9/19/2006,MTC_ID,3.0,4-4-4,70/120/160,,OFC,FE,65 Mbps,,,,,,,283.0,Tirupati,V.1,8/5/2012,70/120/160,RRH,3.0,25.0,Mono,Agisson,OFC,FE,,100 Mbps,,,,,,Tiruapti,,553.0,,,,,,,,,,,,,100 Mbps,,,,,
35,CT2047,505_50471_Gudupalli_CT2047,2G+3G,HUW,102_0176_Gudupalli_CT2047C,12.79195,78.28014,Rural,Gudupalli,Gudupalle,,Room,5426.0,"Gudupalli(V&M),Chittoor DT.",Chittoor,KUPPAM,517425.0,BSNL,BSNL Infra,CT2047,GBT,40.0,40.0,Dual,XAHT,NSN,IV,3/3/2006,S12K_ID,3.0,4-4-4,0/70/240,1.0,OFC,E1,,,,,,,,70.0,Tirupati,VII +,5/23/2017,0/70/240,ID,3.0,39.0,Mono,MOBI (MB3F-65-18DE10+MBRET-RCU-003),OFC,FE,,45 Mbps,,,,,,Tiruapti,,102.0,CT2047,,,,,,,,,,,,45 Mbps,505.0,290818-YES-(E1+STR-MADM+STR-STM),STD,,
36,CT2049,505_50491_Kalikiri_CT2049,2G+4G,NSN,4G_35272_Kalikiri_CT2049,13.64794,78.80433,E-City,Kalikiri,Kalikiri,RC,Exchange,5387.0,"behind rtc bus stand,Kalikiri,Chittoor DT.",Rajampet,VAYALPADU,517224.0,BSNL,BSNL Infra,CT2049,GBT,60.0,40.0,Dual,MOBI (MB2F&3F-65-17&17DE10&8-2015),NSN,III,6/10/2004,S12K_ID,3.0,4-4-4,90/240/290,2.0,OFC,E1,,,,,,,,68.0,Tirupati,VII,5/23/2014,90/240/290,RRH,3.0,40.0,Dual,MOBI (MD2F&3F-65-17&17DE10&8-2015),OFC,FE,,100 Mbps,,,,,,Tiruapti,,4.0,CT2049,CT2049,,,,,,,,,,070818-YES(FX+VYP(PTN)-CTR(PTN)+CTR-DWDM+TRP(DWDM)+PE2(2-2-27),100 Mbps,505.0,070818-YES(FX+VYP(PTN)-CTR(PTN)+CTR-DWDM+TRP(DWDM)+PE2(2-2-27),STD,,
37,CT2050,505_50501_Kanipakam_CT2050,2G+3G,NSN,553_36382_Knipakam_CT2050,13.27727,79.03935,Rural,Kanipakam,Irala,PP,Exchange,5411.0,"Kanipakam exge,Irala(M),Chittoor DT.",Chittoor,BANGARUPALYAM,517131.0,BSNL,BSNL Infra,CT2050,GBT,40.0,40.0,Mono,KATHREIN,NSN,I,6/4/2004,S12K_ID,3.0,4-4-4,25/110/240,1.0,OFC,E1,,,,,,,,70.0,Tirupati,VII +,5/2/2017,25/110/240,RRH,3.0,40.0,Mono,MOBI (MB3F-65-18DE10+MBRET-RCU-003),OFC,FE,,100 Mbps,,,,,,Tiruapti,,553.0,CT2050,CT2050,,,,,,CT2050,,,,020918-YES(fx+CTR(CAR)-MADM)+CTR-DWDM+TRP(DWDM)+PE1(2-2-23),100 Mbps,505.0,030918-YES(fx+CTR(CAR)-MADM)+CTR-DWDM+TRP(DWDM)+PE1(2-2-23),CTR,,
38,CT2051,504_40141_Karakambadi_CT2051,2G+3G,ZTE,346_5917_Karakampadi-TE_CT2051A,13.67521,79.51188,DHQ,Karakambadi,Tirupati (Rural),,Exchange,5375.0,"karakambadi,tirupati,Chittoor DT.",Tirupati,CHANDRAGIRI,517520.0,BSNL,BSNL Infra,CT2051,GBT,40.0,40.0,Mono,KATHREIN,NSN,IV,12/30/2005,S12K_ID,3.0,4-4-4,0/160/320,1.0,OFC,E1,,,,,,,,58.0,Tirupati,V.1,3/20/2011,0/160/320,RRH,3.0,40.0,Mono,Agisson,OFC,Optical,,100 Mbps,,,,,,Tiruapti,,346.0,CT2051,,,,,,,,,,,,100 Mbps,504.0,250718-YES-(E1+STR-MADM+STR-STM),TRP,,
39,CT2053,505_50531_Kuppam_CT2053,2G+3G,NSN,553_35282_Kuppam-TE_CT2053,12.74673,78.34393,E-City,Kuppam,kuppam,RC,Exchange,5427.0,"kuppam exge,Chittoor DT.",Chittoor,KUPPAM,517425.0,BSNL,BSNL Infra,CT2053,GBT,40.0,40.0,Tri,Agisson,NSN,I,6/4/2004,S12K_ID,3.0,4-4-4,20/170/270,2.0,OFC,E1,,,,,,,,70.0,Tirupati,VII,4/21/2012,20/170/270,RRH,3.0,40.0,TRI,Agisson,OFC,FE,,60 Mbps,,,,,,Tiruapti,,553.0,CT2053,CT2053,,,,,,,,,,240818YES(FE+MADM(KPM)+MADM(STR)+PE2(2-2-37),60 Mbps,505.0,240818YES(FE+MADM(KPM)+MADM(STR)+PE2(2-2-37),KPM,,
40,CT2054,505_50541_MDP_Madanapalle-NB_CT2054,2G+4G,NSN,4G_35292_Madanapalle NB_CT2054,13.56467,78.49897,E-City,Madanapalle,Madanapalle,,Room,5392.0,"REDDY'S COLONY,Madanapalli NB,Madnapalli,Chittoor DT.517325",Rajampet,MADANAPALLI,517325.0,NBSNL,BSNL Infra,CT2054,MARR-1,21.0,27.0,Dual,XAHT,NSN,IV,12/4/2006,BTS18K_ID,3.0,4-4-4,120/280/325,2.0,OFC,E1,,,,,,,,68.0,Tirupati,VII,7/21/2016,120/280/325,RRH,3.0,27.0,Mono,MOBI (MD2F&3F-65-17&17DE10&8-2015),OFC,FE,,100 Mbps,,,,,,Tiruapti,,4.0,CT2054,CT2054,,,,,,,,,,060918-YES(GE+MDP(PTN)+CTR-DWDM+TRP(DWDM)+PE2(2-2-27),100 Mbps,505.0,060918-YES(GE+MDP(PTN)+CTR-DWDM+TRP(DWDM)+PE2(2-2-27),MDP,,
41,CT2055,505_50551_MDP_Madanapalle_TE_CT2055,2G+4G,NSN,4G_35303_Madanapalle-TE_CT2055,13.55568,78.50141,E-City,Madanapalle,Madanapalle,,Exchange,5392.0,BESAID POST OFFICE;MADANAPALLI;MADANAPALLI MANDAL.,Rajampet,MADANAPALLI,517325.0,BSNL,BSNL Infra,CT2055,RTT,18.0,30.0,Dual,MOBI (MB2F&3F-65-17&17DE10&8-2015),NSN,I,6/4/2004,BTS18K_ID,3.0,6-6-6,330/110/290,2.0,OFC,E1,,,,,,,,68.0,Tirupati,VII,12/18/2013,330/110/290,RRH,3.0,30.0,Dual,MOBI (MD2F&3F-65-17&17DE10&8-2015),OFC,FE,,100 Mbps,,,,,,Tiruapti,,4.0,CT2055,CT2055,,,,,,,,,,260718-YES-(FX(E1)+MADM(STR)+PE2(2-2-29)),100 Mbps,505.0,260718-YES-(FX(E1)+MADM(STR)+PE2(2-2-29)),MDP,,
42,CT2059,504_40151_Narayanavanam_CT2059,2G+4G,NSN,4G_36441_NARAYANVANAM_CT2059,13.42502,79.58997,Rural,Narayanavanam,Narayanavanam,NH,Exchange,5400.0,"Narayanavanam(V&M),Chittoor DT.",Tirupati,PUTTUR,517581.0,BSNL,BSNL Infra,CT2059,GBT,40.0,39.0,Mono,HIGH WAY,NSN,IV,2/9/2006,S8K_ID,3.0,4-4-4,110/212/288,1.0,OFC,E1,,,,,,,,67.0,Tirupati,VII +,3/22/2017,110/212/288,RRH,3.0,38.0,Dual,MOBI (MD2F&3F-65-17&17DE10&8-2015),OFC,FE,,100 Mbps,,,,,,Tiruapti,,4.0,CT2059,CT2059,,CT2059,,,,,,,,041018YES(fe+CPAN(PTR)+DWDM(PTR)+DWDM(TRP_STR)+PE1(2-2-21),100 Mbps,504.0,170818YES(Ge+CPAN(PTR)+DWDM(PTR)+DWDM(TRP_STR)+PE1(2-2-21),STD,,
43,CT2060,505_50601_Palamaneeru_CT2060,2G+4G,NSN,4G_35313_Palamaneeru_CT2060,13.20474,78.74561,E-City,palamaneru,Palamaner,NH,Exchange,5422.0,"palamner TE.palamner,Chittoor DT.",Chittoor,PALMANER,517408.0,BSNL,BSNL Infra,CT2060,MARR,21.0,24.0,Dual,MOBI (MB2F&3F-65-17&17DE10&8-2015),NSN,III+,7/15/2004,S12K_ID,3.0,4-4-4,0/60/120,2.0,OFC,E1,,,,,,,,70.0,Tirupati,VII,1/20/2014,0/60/120,RRH,3.0,24.0,Dual,MOBI (MD2F&3F-65-17&17DE10&8-2015),OFC,FE,,100 Mbps,,,,,,Tiruapti,,4.0,CT2060,CT2060,,,,,,,,,,050818YES(FE+PTN(PLM)+PTN(MDP)+PE2(2-2-27),100 Mbps,505.0,050818YES(FE+PTN(PLM)+PTN(MDP)+PE2(2-2-27),PLM,,
44,CT2063,505_50631_PESMedicalKuppam_CT2063,2G+3G,NSN,553_35323_PESMedicalKuppam_CT2063,12.79077,78.36563,E-City,Kuppam,kuppam,NH,Room,5427.0,"PESMedical college,Kuppam,Chittoor DT.",Chittoor,KUPPAM,517425.0,NBSNL,BSNL Infra,CT2063,MARR,18.0,30.0,Dual,MOBI (MB2F&3F-65-17&17DE10&8-2015),NSN,IV,5/14/2006,S12K_ID,3.0,4-4-4,0/100/240,1.0,OFC,E1,,,,,,,,70.0,Tirupati,VII,2/19/2014,0/100/240,RRH,3.0,30.0,Dual,MOBI (MD2F&3F-65-17&17DE10&8-2015),OFC,FE,,45 Mbps,,,,,,Tiruapti,,553.0,CT2063,CT2063,,,,,,,,,,240818YES(FE+MADM(KPM)+MADM(STR)+PE2(2-2-37),45 Mbps,505.0,250818YES(FE+MADM(KPM)+MADM(STR)+PE2(2-2-37),KPM,,
45,CT2064,504_40161_Pitchatur_CT2064,2G+3G,NSN,553_35333_Pitchatur_CT2064,13.40089,79.74057,Rural,Pitchatur,Pichatur,NH,Exchange,5401.0,"Pitchatur(V&M),Chittoor DT.",Tirupati,SATYAVEDU,517587.0,BSNL,BSNL Infra,CT2064,GBT,40.0,40.0,Mono,KATHREIN,NSN,IV,3/4/2006,S12K_ID,3.0,4-4-4,109/233/341,1.0,OFC,E1,,,,,,,,67.0,Tirupati,VII +,4/21/2017,109/233/341,RRH,3.0,40.0,Mono,MOBI (MB3F-65-18DE10+MBRET-RCU-003),OFC,FE,,100 Mbps,,,,,,Tiruapti,,553.0,CT2064,CT2064,,,,,,,,,,300718YES(FX(E1)+MADM1-(EKM)+MADM(PTR)+DWDM(PTR)+DWDM(TRP_STR)+PE1(2-2-21),100 Mbps,504.0,300718YES(FX(E1)+MADM1-(EKM)+MADM(PTR)+DWDM(PTR)+DWDM(TRP_STR)+PE1(2-2-21),STD,,
46,CT2065,504_40171_Puttur_CT2065,2G+4G,NSN,4G_36401_CTR_Puttur_CT2065,13.44035,79.55319,E-City,Puttur,Puttur,RC,Exchange,5407.0,"puttur exge,pttur,Chittoor DT.",Tirupati,PUTTUR,517583.0,BSNL,BSNL Infra,CT2065,GBT,40.0,40.0,Dual,MOBI (MB2F&3F-65-17&17DE10&8-2015),NSN,III,6/8/2004,S12K_ID,3.0,4-4-4,0/150/260,1.0,OFC,E1,,,,,,,,67.0,Tirupati,VII,1/31/2014,0/150/260,RRH,3.0,40.0,Dual,MOBI (MD2F&3F-65-17&17DE10&8-2015),OFC,FE,,100 Mbps,,,,,,Tiruapti,,4.0,CT2065,CT2065,,CT2065,,,,,,,,170818YES(Ge+CPAN(PTR)+DWDM(PTR)+DWDM(TRP_STR)+PE1(2-2-21),100 Mbps,504.0,170818YES(Ge+CPAN(PTR)+DWDM(PTR)+DWDM(TRP_STR)+PE1(2-2-21),PUT,,
47,CT2067,504_40181_Satyaveedu_CT2067,2G+4G,NSN,4G_35341_Satyaveedu_CT2067,13.4438,79.9603,E-City,Satyavedu,Satyavedu,SH,Exchange,5402.0,"Satyaveedu exge,Chittoor DT.",Tirupati,SATYAVEDU,517588.0,BSNL,BSNL Infra,CT2067,GBT,40.0,37.0,Dual,MOBI (MB2F&3F-65-17&17DE10&8-2015),NSN,III+,7/8/2004,S12K_ID,3.0,4-4-4,10/210/250,1.0,OFC,E1,,,,,,,,67.0,Tirupati,VII,8/28/2014,10/210/250,RRH,3.0,37.0,Dual,MOBI (MD2F&3F-65-17&17DE10&8-2015),OFC,FE,,100 Mbps,,,,,,Tiruapti,,4.0,CT2067,CT2067,,,,,,,,,,030818YES(MADM(SKT)+DWDM(SKT)+DWDM(STR)+PE1(2-2-33),100 Mbps,504.0,030818YES(MADM(SKT)+DWDM(SKT)+DWDM(STR)+PE1(2-2-33),STV,,
48,CT2069,504_40191_Srikalahasti_MW_CT2069,2G+3G,NSN,553_35352_SrikalhastiMW_CT2069,13.75894,79.70275,E-City,Srikalahasti,Srikalahasti,SH,Exchange,5378.0,"Srikalahasti_MW,srikalahasti,Chittoor DT.",Tirupati,SRI KALAHASTHI,517644.0,BSNL,BSNL Infra,CT2069,GBT,100.0,32.0,Dual,MOBI (MB2F&3F-65-17&17DE10&8-2015),NSN,I,6/4/2004,S12K_ID,3.0,4-4-4,60/190/270,1.0,OFC,E1,,,,,,,,67.0,Tirupati,VII,2/6/2014,60/190/270,RRH,3.0,32.0,Dual,MOBI (MD2F&3F-65-17&17DE10&8-2015),OFC,FE,,100 Mbps,,,,,,Tiruapti,,553.0,CT2069,CT2069,,,,,,,,,,090818YES(MADM(SKT)+DWDM(SKT)+DWDM(STR)+PE1(2-2-33),100 Mbps,504.0,080818YES(MADM(SKT)+DWDM(SKT)+DWDM(STR)+PE1(2-2-33),SKT,,
49,CT2070,504_41151_Sudharshan_Tirumala_CT2070,2G+3G,NSN,553_36511_Sudharshan_Tirumala_CT2070,13.68036,79.35193,E-City,Tirumala,Tirupati (Urban),PP,Room,5383.0,"Sudharshan_ choultry,Tirumala,Chittoor DT.",Tirupati,CHANDRAGIRI,517504.0,NBSNL,BSNL Infra,CT2070,RTP,9.0,18.0,Tri,Agisson,NSN,IV,9/27/2006,MTC_ID,3.0,2-6-4,10/220/320,,OFC,FE,65 Mbps,,,,,,,504.0,Tirupati,VIII,8/5/2012,10/220/320,RRH,3.0,18.0,TRI,Agisson,OFC,FE,,100 Mbps,,,,,,Tiruapti,,553.0,,,,,,,,,,,,,100 Mbps,,,,,
50,CT2072,504_40201_TirupatiMainEx_CT2072,2G+3G,ZTE,346_5919_TPT_MainExge_CT2072A,13.63252,79.42218,DHQ,Tirupati,Tirupati (Urban),,Exchange,5383.0,"TRP_TirupatiMainExge,Tirupati,Chittoor DT.",Tirupati,CHANDRAGIRI,517501.0,BSNL,BSNL Infra,CT2072,RTT,21.0,27.0,Dual,XAHT,NSN,II+,6/4/2004,BTS18K_ID,3.0,6-6-6,180/230/320,2.0,OFC,E1,,,,,,,,58.0,Tirupati,V.1,3/18/2010,180/230/320,OD,3.0,27.0,Mono,Agisson,OFC,Optical,,100 Mbps,,,,,,Tiruapti,,346.0,CT2072,,,,,,,,,,,,100 Mbps,504.0,240718-YES-(E1+TRP-MADM+CAR-STM),TRP,,
51,CT2073,504_40211_TRT_Alipiri_CT2073,2G+3G,ZTE,346_5920_TPT_Alipiri_CT2073A,13.64124,79.4101,DHQ,Tirupati,Tirupati (Urban),SH,Exchange,5383.0,"TRP_Alipiri,Chittoor DT.",Tirupati,CHANDRAGIRI,517507.0,BSNL,BSNL Infra,CT2073,GBT,30.0,30.0,Mono,KATHREIN,NSN,II+,6/4/2004,S12K_ID,3.0,4-4-4,40/120/190,2.0,OFC,E1,,,,,,,,58.0,Tirupati,V.1,3/18/2010,40/120/190,RRH,3.0,30.0,Mono,Agisson,OFC,FE,,100 Mbps,,,,,,Tiruapti,,346.0,CT2073,,,,,,,,,,,,100 Mbps,504.0,180718-YES-(E1+TRP-MADM+CAR-STM),TRP,,
52,CT2074,504_40221_BalajiColony_CT2074,2G+3G,ZTE,346_5921_TPT_BalajiColony_CT2074A,13.63361,79.4105,DHQ,Tirupati,Tirupati (Urban),,Exchange,5383.0,"TRP_BalajiColony,Tirupati,Chittoor DT.",Tirupati,CHANDRAGIRI,517502.0,BSNL,BSNL Infra,CT2074,MARR-1,18.0,24.0,Mono,KATHREIN,NSN,IV,9/28/2005,S12K_ID,3.0,4-4-4,0/120/240,2.0,OFC,E1,,,,,,,,58.0,Tirupati,V.1,3/18/2010,0/120/240,RRH,3.0,24.0,Mono,Agisson,OFC,Optical,,100 Mbps,,,,,,Tiruapti,,346.0,CT2074,,,,,,,,,,,,100 Mbps,504.0,220718-YES-(FE+TRP-MADM+PE2(2-2-31)),TRP,,
53,CT2075,504_40231_Korlagunta_CT2075,2G+3G,ZTE,346_5922_Korlagunta_CT2075A,13.63832,79.42799,DHQ,Tirupati,Tirupati (Urban),SH,Exchange,5383.0,"TRP_Korlagunta,Chittoor DT.",Tirupati,CHANDRAGIRI,517501.0,BSNL,BSNL Infra,CT2075,MARR,24.0,18.0,Mono,KATHREIN,NSN,III,7/27/2004,S12K_ID,3.0,4-4-4,60/110/270,2.0,OFC,E1,,,,,,,,58.0,Tirupati,V.1,3/18/2010,60/110/270,RRH,3.0,18.0,Dual,Agisson,OFC,FE,,100 Mbps,,,,,,Tiruapti,,346.0,CT2075,,,,,,,,,,,,100 Mbps,504.0,170718-YES-(E1+TRP-MADM+CAR-STM),TRP,,
54,CT2076,504_40241_TUDA_CT2076,2G+3G,ZTE,346_5923_TPT_Tuda_CT2076A,13.62506,79.41523,DHQ,Tirupati,Tirupati (Urban),,Exchange,5383.0,"TRP_TUDA,TUDA EXGE,Tirupati,Chittoor DT.",Tirupati,CHANDRAGIRI,517501.0,BSNL,BSNL Infra,CT2076,GBT,40.0,30.0,Dual,XAHT,NSN,III,6/4/2004,BTS18K_ID,3.0,6-6-6,0/60/120,2.0,OFC,E1,,,,,,,,58.0,Tirupati,V.1,3/18/2010,0/60/120,OD,3.0,30.0,Mono,Agisson,OFC,Optical,,100 Mbps,,,,,,Tiruapti,,346.0,CT2076,,,,,,,,,,,,100 Mbps,504.0,180718-YES-(FE+TRP-MADM+PE2(2-2-31)),TRP,,
55,CT2077,504_41161_mundurMitta_CT2077,2G+3G,NSN,553_36543_mundurMitta_CT2077,13.65843,79.38289,E-City,Mamundurmitta,Tirupati (Urban),PP,Room,5383.0,tirumalad2vashanam; ajineyaswamintemple;tirumala;0517507,Tirupati,CHANDRAGIRI,517520.0,NBSNL,BSNL Infra,CT2077,GBT,100.0,30.0,Mono,HIGH WAY,NSN,IV,10/1/2005,MTC_ID,3.0,4-4-4,12/95/280,,OFC,FE,65 Mbps,,,,,,,504.0,Tirupati,VIII,1/2/2013,12/95/280,RRH,3.0,30.0,Mono,Agisson,OFC,FE,,100 Mbps,,,,,,Tiruapti,,553.0,,,,,,,,,,,,,100 Mbps,,,,,
56,CT2078,504_40251_Vadamalpet_CT2078,2G+3G,NSN,553_35363_Vadamalpet_CT2078,13.5493,79.5249,Rural,Vadamalapeta,Vadamalapeta,RC,Exchange,5399.0,"bsnl exge,Vadamalpet(V&M),Chittoor DT.",Tirupati,PUTTUR,517551.0,BSNL,BSNL Infra,CT2078,GBT,40.0,37.0,Mono,HIGH WAY,NSN,IV,12/30/2005,S8K_ID,3.0,4-4-4,90/200/350,1.0,OFC,E1,,,,,,,,67.0,Tirupati,VII +,4/20/2017,90/200/350,RRH,3.0,37.0,Mono,MOBI (MB3F-65-18DE10+MBRET-RCU-003),OFC,FE,,45 Mbps,,,,,,Tiruapti,,553.0,CT2078,CT2078,,,,,,,,,,"090618YES(CPE,fe+MADM(PTR)+DWDM(PTR)+DWDM(TRP_STR)+PE1(2-2-21)",45 Mbps,504.0,"290718YES(CPE,fe+MADM(PTR)+DWDM(PTR)+DWDM(TRP_STR)+PE1(2-2-21)",STD,,
57,CT2081,504_40261_Yerpedu_CT2081,2G+3G,NSN,553_35371_Yerpedu_CT2081,13.69362,79.59597,Rural,Yerpedu,Yerpedu,RC,Room,5377.0,"Yerpedu,Chittoor DT.",Tirupati,SRI KALAHASTHI,517619.0,NBSNL,BSNL Infra,CT2081,GBT,40.0,38.0,Dual,MOBI (MB2F&3F-65-17&17DE10&8-2015),NSN,IV,4/30/2006,S8K_OD,3.0,2-2-2,0/110/220,1.0,OFC,E1,,,,,,,,67.0,Tirupati,VII,7/1/2014,0/110/220,RRH,3.0,38.0,Dual,MOBI (MD2F&3F-65-17&17DE10&8-2015),OFC,FE,,100 Mbps,,,,,,Tiruapti,,553.0,CT2081,CT2081,,,,,,,,,,010818YES(GE+MADM(SKT)+DWDM(SKT)+DWDM(STR)+PE1(2-2-33),100 Mbps,504.0,010818YES(GE+MADM(SKT)+DWDM(SKT)+DWDM(STR)+PE1(2-2-33),STD,,
58,CT2092,505_50921_Anupalli_CT2092,2G+4G,NSN,4G_35383_ANUPALLI_CT2092,13.16171,79.10314,E-City,Anupalli,Chittoor,NH,OD Plinth,5421.0,"Anupalli ,Gangasagaram V,Chittoor(M&D).",Chittoor,CHITTOOR,517002.0,NBSNL,BSNL Infra,CT2092,GBT,40.0,35.0,Dual,XAHT,NSN,IV.5,4/8/2009,BTS18K_OD,3.0,4-4-4,0/90/155,,DMW,,,NEW NEC,0.6 m,BSC60-31_CTR_Greamspet_CT2002A,E1,1.0,,60.0,Tirupati,VII +,4/1/2017,0/90/155,RRH,3.0,34.0,Mono,MOBI (MB3F-65-18DE10+MBRET-RCU-003),DMW,,,100 Mbps,NEW NEC,0.6 m,CT2002,FE,,Tiruapti,50Mbps,4.0,CT2092,CT2092,,,,,CT2092,,,,2015813392@G/FXW/HYD/3156706/2016@K-19012-G/FVC/HYD2891034/2015-CFA DTD 9-12-16,010918-YES(fe+CTR(CAR)-MADM)+CTR-DWDM+TRP(DWDM)+PE1(2-2-23),100 Mbps,505.0,010918-YES(fe+CTR(CAR)-MADM)+CTR-DWDM+TRP(DWDM)+PE1(2-2-23),STD,,
59,CT2098,505_50981_Chinthaparthy_CT2098,2G+3G,NSN,553_35393_Chinthaparthy_CT2098,13.64082,78.70561,Rural,Chinthaparthy,Kalikiri,RC,Exchange,5387.0,"Chintaparti(V).,Chintaparti (M),Chittoor DT.",Rajampet,VAYALPADU,517317.0,BSNL,BSNL Infra,CT2098,GBT,40.0,38.0,Dual,XAHT,NSN,IV.5,9/4/2008,BTS18K_ID,3.0,4-4-4,90/190/280,1.0,OFC,E1,,,,,,,,68.0,Tirupati,VII +,5/1/2017,90/190/280,RRH,3.0,38.0,Mono,MOBI (MB3F-65-18DE10+MBRET-RCU-003),OFC,FE,,100 Mbps,,,,,,Tiruapti,,553.0,CT2098,CT2098,,,,,CT2098,,,,,070818-YES(FX+PKL(PTN)+CTR-DWDM+TRP(DWDM)+PE2(2-2-27),100 Mbps,505.0,070818-YES(FX+PKL(PTN)+CTR-DWDM+TRP(DWDM)+PE2(2-2-27),STD,,
60,CT2101,505_51011_CTR_BCNaidu_Clny_CT2101,2G+4G,NSN,4G_35401_BCNaidu_Clny_CT2101,13.21011,79.11553,E-City,Chittoor,Chittoor,,Room,5421.0,CTR BC NAIDU COLONY B.S.N.L CO LOCATION;H? NO 24-110-2B;CHITTOOR,Chittoor,CHITTOOR,517001.0,NBSNL,BSNL Infra,CT2101,MARR,12.0,21.0,Dual,MOBI (MB2F&3F-65-17&17DE10&8-2015),NSN,IV.5,1/13/2009,BTS18K_ID,3.0,4-4-4,50/220/320,1.0,OFC,E1,,,,,,,,60.0,Tirupati,V.1,1/4/2014,50/220/320,RRH,3.0,21.0,Dual,MOBI (MD2F&3F-65-17&17DE10&8-2015),OFC,FE,,100 Mbps,,,,,,Tiruapti,,4.0,CT2101,CT2101,,,,,CT2101,,,,,070718-YES(fe+CTR(CAR)-MADM)+CTR-DWDM+TRP(DWDM)+PE1(2-2-23),100 Mbps,505.0,070718-YES(fe+CTR(CAR)-MADM)+CTR-DWDM+TRP(DWDM)+PE1(2-2-23),CTR,,
61,CT2102,505_51021_CTR_RTCDepotRd_CT2102,2G+4G,NSN,4G_35412_KayanikattuStreet_CT2102,13.21516,79.09257,E-City,Chittoor,Chittoor,,Room,5421.0,"CTR_RTCDepotRd, near Hp gas,chittoor,Chittoor DT.",Chittoor,CHITTOOR,517001.0,NBSNL,BSNL Infra,CT2102,MARR,15.0,21.0,Dual,XAHT,NSN,IV.5,1/6/2009,BTS18K_ID,3.0,4-4-4,28/140/289,2.0,OFC,E1,,,,,,,,60.0,Tirupati,V.1,3/18/2010,28/140/289,RRH,3.0,21.0,Mono,Agisson,OFC,FE,,100 Mbps,,,,,,Tiruapti,,4.0,CT2102,CT2102,,,,,,,,,,060718-YES(FX+CTR(PTN)+CTR-DWDM+TRP(DWDM)+PE2(2-2-25),100 Mbps,505.0,060718-YES(FX+CTR(PTN)+CTR-DWDM+TRP(DWDM)+PE2(2-2-25),CTR,,
62,CT2103,BSC70-99__CTR_BalamuruganDairy_CT2103,2G+3G,ZTE,346_35422_BalmurganDairy_CT2103,13.18911,79.08806,E-City,Chittoor,Chittoor,NH,Room,5421.0,"Balamurugan dairy,Chittoor,Chittoor DT.",Chittoor,CHITTOOR,517001.0,NBSNL,BSNL Infra,CT2103,MARR,15.0,24.0,Dual,MOBI (MB2F&3F-65-17&17DE10&8-2015),Nortel,IV.5,2/6/2009,BTS18K_ID,3.0,4-4-4,0/160/300,1.0,OFC,E1,,,,,,,,60.0,Tirupati,VII,1/6/2014,0/160/300,RRH,3.0,24.0,Dual,MOBI (MD2F&3F-65-17&17DE10&8-2015),OFC,FE,,100 Mbps,,,,,,Tiruapti,,346.0,CT2103,CT2103,,,,,CT2103,,,,,,100 Mbps,505.0,090718-YES(fe+CPE+CTR(CAR)-MADM)+CTR-DWDM+TRP(DWDM)+PE1(2-2-23),CTR,,
63,CT2104,505_51041_CTR_Gandhi-Rd_CT2104,2G+4G,NSN,4G_35432_CourtBuildings_CT2104,13.22153,79.10163,E-City,Chittoor,Chittoor,SH,Room,5421.0,"CTR_Gandhi-Rd,nar court buildings,chittoor,Chittoor DT.",Chittoor,CHITTOOR,517001.0,NBSNL,BSNL Infra,CT2104,MARR,12.0,24.0,Dual,AGISSON,NSN,IV.5,1/6/2009,BTS18K_ID,3.0,4-4-4,60/145/330,2.0,OFC,E1,,,,,,,,60.0,Tirupati,V.1,3/18/2010,60/145/330,RRH,3.0,21.0,Mono,AGISSON,OFC,FE,,100 Mbps,,,,,,Tiruapti,,4.0,CT2104,CT2104,,,,,CT2104,,,,,040718-YES(FX+CTR(PTN)+CTR-DWDM+TRP(DWDM)+PE2(2-2-25),100 Mbps,505.0,040718-YES(FX+CTR(PTN)+CTR-DWDM+TRP(DWDM)+PE2(2-2-25),CTR,,
64,CT2105,505_51051_CTR_SVEnggCollege_CT2105,2G+4G,NSN,4G_35443_SVEnggCollege_CT2105,13.27072,79.11858,E-City,Chittoor,Chittoor,NH,Room,5421.0,"CTR_SVEnggCollege.Chittoor,Chittoor DT.",Chittoor,CHITTOOR,517127.0,NBSNL,BSNL Infra,CT2105,MARR,15.0,24.0,Dual,MOBI (MB2F&3F-65-17&17DE10&8-2015),NSN,IV.5,2/7/2009,BTS18K_ID,3.0,4-4-4,0/70/190,1.0,OFC,E1,,,,,,,,60.0,Tirupati,V.1,2/6/2014,0/70/190,RRH,3.0,24.0,Dual,MOBI (MD2F&3F-65-17&17DE10&8-2015),OFC,FE,,100 Mbps,,,,,,Tiruapti,,4.0,CT2105,CT2105,,,,,CT2105,,,,,"070718-YES(CPE,fe+CTR(CAR)-MADM)+CTR-DWDM+TRP(DWDM)+PE1(2-2-23)",100 Mbps,505.0,"070718-YES(CPE,fe+CTR(CAR)-MADM)+CTR-DWDM+TRP(DWDM)+PE1(2-2-23)",CTR,,
65,CT2107,505_51071_CT-Samudram_CT2107,2G+3G,NSN,553_35452_CTSamudram_CT2107,13.6474,78.56329,Rural,CTSamudram,Madanapalle,RC,Exchange,5392.0,"Ctsamudram,Chittoordt.",Rajampet,MADANAPALLI,517319.0,BSNL,BSNL Infra,CT2107,GBT,40.0,40.0,Dual,XAHT,NSN,IV.5,8/30/2008,BTS18K_ID,3.0,4-4-4,90/180/270,1.0,OFC,E1,,,,,,,,68.0,Tirupati,VII +,3/7/2017,90/180/270,RRH,3.0,39.0,Dual,MOBI (MD2F&3F-65-17&17DE10&8-2015),OFC,FE,,100 Mbps,,,,,,Tiruapti,,553.0,CT2107,CT2107,,,,,,,,,,210618-YES(FX+MDP3/8(PTN)-CTR(PTN)+CTR-DWDM+TRP(DWDM)+PE2(2-2-27),100 Mbps,505.0,210618-YES(FX+MDP3/8(PTN)-CTR(PTN)+CTR-DWDM+TRP(DWDM)+PE2(2-2-27),STD,,
66,CT2108,504_40271_EKM-2_Nagari_CT2108,2G+3G,NSN,553_35461_EKM-2_Nagari_CT2108,13.31931,79.58461,E-City,Nagari,Nagari,SH,Room,5406.0,"EKM-2,Nagari(M),Chittoor DT.",Tirupati,PUTTUR,517590.0,NBSNL,BSNL Infra,CT2108,MARR,15.0,21.0,Dual,MOBI (MB2F&3F-65-17&17DE10&8-2015),NSN,IV.5,1/20/2009,BTS18K_ID,3.0,4-4-4,20/180/260,1.0,OFC,E1,,,,,,,,67.0,Tirupati,VII,4/24/2014,20/180/260,RRH,3.0,21.0,Dual,MOBI (MD2F&3F-65-17&17DE10&8-2015),OFC,FE,,70 Mbps,,,,,,Tiruapti,,553.0,CT2108,CT2108,,,,,CT2108,,,,,060718YES(GE+MADM1-3-5(EKM)+MADM(PTR)+DWDM(PTR)+DWDM(TRP_STR)+PE1(2-2-21),70 Mbps,504.0,280718YES(GE+MADM1-3-5(EKM)+MADM(PTR)+DWDM(PTR)+DWDM(TRP_STR)+PE1(2-2-21),EKM,,
67,CT2109,505_51091_Gadanki_CT2109,2G+3G,NSN,553_35471_Gadanki_CT2109,13.46101,79.17194,Rural,Gadanki,Pakala,RC,OD Plinth,5396.0,"Gadanki(V),NARL,pakala(M),Chittoor DT.",Chittoor,PAKALA,517112.0,NBSNL,BSNL Infra,CT2109,GBT,40.0,38.0,Dual,XAHT,NSN,IV.5,2/27/2009,BTS18K_OD,3.0,4-4-4,35/235/330,1.0,OFC,E1,,,,,,,,60.0,Tirupati,VII +,3/4/2017,35/235/330,RRH,3.0,38.0,Dual,MOBI (MD2F&3F-65-17&17DE10&8-2015),OFC,FE,,60 Mbps,,,,,,Tiruapti,,553.0,CT2109,CT2109,,,,,CT2109,,,,,250818-YES-(FE+PKA_PTN+NIB+PE-GE1(2-2-19)),60 Mbps,505.0,250818-YES-(FE+PKA_PTN+NIB+PE-GE1(2-2-19)),STD,,
68,CT2111,505_51111_G_K_Manchi_CT2111,2G+3G,NSN,553_35481_G_K_Manchi_CT2111,13.19635,78.99897,Rural,GKManchi,Bangarupalem,NH,Exchange,5429.0,"G_K_Manchi,Bangarupalem(M),Chittoor DT.",Chittoor,BANGARUPALYAM,517416.0,BSNL,BSNL Infra,CT2111,GBT,60.0,35.0,Dual,XAHT,NSN,IV.5,6/10/2009,S12K_ID,3.0,4-4-4,90/180/280,,DMW,,,NEW NEC(HFCL),1.21.2,BSC60-27_CTR_Santhpeta_CT2004,FE,,,70.0,Tirupati,VII +,5/1/2017,90/180/280,RRH,3.0,35.0,Mono,MOBI (MB3F-65-18DE10+MBRET-RCU-003),OFC,FE,,50 Mbps,,,,,,Tiruapti,,553.0,CT2111,CT2111,,,,,,,,,,180818-YES(FX+CTR(PTN)+CTR-DWDM+TRP(DWDM)+PE2(2-2-25),50 Mbps,505.0,180818-YES(FX+CTR(PTN)+CTR-DWDM+TRP(DWDM)+PE2(2-2-25),STD,,
69,CT2113,505_51131_Edigapalli_CT2113,2G+3G,NSN,553_36661_Edigapalli_CT2113,13.47056,78.54082,Rural,Edigapalli,Punganur,NH,OD Plinth,5415.0,"Edigapalli(V),Punganu(M),Chittoor DT.-517330",Rajampet,PUNGANUR,517247.0,NBSNL,BSNL Infra,CT2113,GBT,40.0,39.0,Dual,XAHT,NSN,IV.5,11/25/2008,BTS18K_ID,3.0,4-4-4,0/120/240,1.0,OFC,FE,,,,,,,,70.0,Tirupati,,,,,,,,,,,,,,,,,,,,553.0,CT2113,,,,,,CT2113,,,,2017265549@12/9/2017@,,,505.0,260818-YES-(E1+STR-MADM+STR-STM),STD,,
70,CT2120,505_51201_Kalikiri2_CT2120,2G+4G,NSN,4G_35503_Kalikiri2_CT2120,13.64175,78.80133,E-City,Kalikiri,Kalikiri,RC,Room,5387.0,"near rama temple.,Kalikiri,Chittoor DT.",Rajampet,VAYALPADU,517224.0,NBSNL,BSNL Infra,CT2120,MARR,15.0,21.0,Dual,MOBI (MB2F&3F-65-17&17DE10&8-2015),NSN,IV.5,1/29/2009,BTS18K_ID,3.0,4-4-4,80/190/310,1.0,OFC,E1,,,,,,,,68.0,Tirupati,VII,9/6/2016,80/190/310,RRH,3.0,21.0,Dual,MOBI (MD2F&3F-65-17&17DE10&8-2015),OFC,FE,,100 Mbps,,,,,,Tiruapti,,4.0,CT2120,CT2120,,,,,CT2120,,,,,140818-YES(FX+VYP(PTN)-CTR(PTN)+CTR-DWDM+TRP(DWDM)+PE2(2-2-27),100 Mbps,505.0,140818-YES(FX+VYP(PTN)-CTR(PTN)+CTR-DWDM+TRP(DWDM)+PE2(2-2-27),STD,,
71,CT2123,504_40281_Kammapalli_CT2123,2G+3G,NSN,553_35511_KAMMAPALLI_CT2123,13.55506,79.45015,Rural,Kammapalli,Ramachandrapuram,,Exchange,5398.0,"BSNL TOWER,Telephone Exchange,Kammapalli(V&M),Chittoor DT.",Tirupati,PUTTUR,517561.0,BSNL,BSNL Infra,CT2123,GBT,40.0,35.0,Dual,XAHT,NSN,IV.5,9/18/2008,BTS18K_ID,3.0,4-4-4,90/220/300,1.0,OFC,E1,,,,,,,,58.0,Tirupati,VII +,1/7/2017,90/220/300,RRH,3.0,37.0,Dual,MOBI (MD2F&3F-65-17&17DE10&8-2015),OFC,FE,,100 Mbps,,,,,,Tiruapti,,553.0,CT2123,CT2123,,,,,CT2123,,,,,080918YES(fx+CPAN(PTR)+DWDM(PTR)+DWDM(TRP_STR)+PE1(2-2-21),100 Mbps,504.0,080918YES(fx+CPAN(PTR)+DWDM(PTR)+DWDM(TRP_STR)+PE1(2-2-21),STD,,
72,CT2131,505_51311_kuppam-2_CT2131,2G+3G,NSN,553_35521_Kuppam-2_CT2131,12.75078,78.33883,E-City,Kuppam,kuppam,,Room,5427.0,"Kuppam palace,kuppam,Chittoor DT.",Chittoor,KUPPAM,517425.0,NBSNL,BSNL Infra,CT2131,MARR,15.0,21.0,Dual,MOBI (MB2F&3F-65-17&17DE10&8-2015),NSN,IV.5,1/26/2009,BTS18K_ID,3.0,4-4-4,320/90/180,1.0,OFC,E1,,,,,,,,70.0,Tirupati,VII,2/19/2014,320/90/180,RRH,3.0,21.0,Dual,MOBI (MD2F&3F-65-17&17DE10&8-2015),OFC,FE,,60 Mbps,,,,,,Tiruapti,,553.0,CT2131,CT2131,,,,,CT2131,,,,,240818YES(FE+MADM(KPM)+MADM(STR)+PE2(2-2-37),60 Mbps,505.0,240818YES(FE+MADM(KPM)+MADM(STR)+PE2(2-2-37),KPM,,
73,CT2134,505_51341_MDP_NehruBazar_CT2134,2G+4G,NSN,4G_35533_NehruBazar_CT2134,13.55037,78.50316,E-City,Madanapalle,Madanapalle,,Room,5392.0,"Nehru Bazar,Madanapalli,Chittoor DT.",Rajampet,MADANAPALLI,517325.0,NBSNL,BSNL Infra,CT2134,MARR,12.0,21.0,Dual,MOBI (MB2F&3F-65-17&17DE10&8-2015),NSN,IV.5,8/30/2008,S12K_ID,3.0,4-4-4,60/220/310,1.0,OFC,E1,,,,,,,,68.0,Tirupati,VII,12/16/2013,60/220/310,RRH,3.0,21.0,Dual,MOBI (MD2F&3F-65-17&17DE10&8-2015),OFC,FE,,100 Mbps,,,,,,Tiruapti,,4.0,CT2134,CT2134,,,,,,,,,,140718-YES-(FX(E1)+MADM(STR)+PE2(2-2-29)),100 Mbps,505.0,140718-YES-(FX(E1)+MADM(STR)+PE2(2-2-29)),MDP,,
74,CT2135,505_51351_MDP_LVKAlyanamandapam_CT2135,2G+4G,NSN,4G_35542_LVKAlyanamandapam_CT2135,13.56409,78.51189,E-City,Madanapalle,Madanapalle,SH,Room,5392.0,lvk mandapam;tirupati road madanapalli;madanapalli mandal;517325,Rajampet,MADANAPALLI,517325.0,NBSNL,BSNL Infra,CT2135,MARR,12.0,24.0,Dual,MOBI (MB2F&3F-65-17&17DE10&8-2015),NSN,IV.5,12/16/2008,BTS18K_ID,3.0,4-4-4,40/150/320,1.0,OFC,E1,,,,,,,,68.0,Tirupati,VII,12/16/2013,40/150/320,RRH,3.0,24.0,Dual,MOBI (MD2F&3F-65-17&17DE10&8-2015),OFC,FE,,100 Mbps,,,,,,Tiruapti,,4.0,CT2135,CT2135,,,,,CT2135,,,,,210718-YES-(FX(E1)+MADM(STR)+PE2(2-2-29)),100 Mbps,505.0,210718-YES-(FX(E1)+MADM(STR)+PE2(2-2-29)),MDP,,
75,CT2136,505_51361_MDP_Krishnalodge_CT2136,2G+4G,NSN,4G_35551_KrishnaLodge_CT2136,13.55982,78.4988,E-City,Madanapalle,Madanapalle,,Shelter,5392.0,"KK COMPLEX, NTR CIRCLE, MADHANAPALLE, CHITTOR(DT), Andhra Pradesh 517325",Rajampet,MADANAPALLI,517325.0,NBSNL,BSNL Infra,CT2136,RTP,6.0,19.0,Dual,MOBI (MB2F&3F-65-17&17DE10&8-2015),NSN,IV.5,12/17/2008,BTS18K_ID,3.0,4-4-4,0/120/240,1.0,OFC,E1,,,,,,,,68.0,Tirupati,VII,7/13/2016,0/120/240,RRH,3.0,19.0,Dual,MOBI (MD2F&3F-65-17&17DE10&8-2015),OFC,FE,,100 Mbps,,,,,,Tiruapti,,4.0,CT2136,CT2136,,,,,CT2136,,,,,120718-YES-(FX(E1)+MADM(STR)+PE2(2-2-29)),100 Mbps,505.0,120718-YES-(FX(E1)+MADM(STR)+PE2(2-2-29)),MDP,,
76,CT2137,505_51371_MDP_Vijayabank_CT2137,2G+4G,NSN,4G_35561_Vijayabank_CT2137,13.55368,78.50699,E-City,Madanapalle,Madanapalle,,Room,5392.0,"near chittoor bus stand,Vijaya bank building,madanapalli,Chittoor DT.",Rajampet,MADANAPALLI,517325.0,NBSNL,BSNL Infra,CT2137,MARR,15.0,21.0,Dual,MOBI (MB2F&3F-65-17&17DE10&8-2015),NSN,IV.5,12/18/2008,BTS18K_ID,3.0,4-4-4,90/140/240,1.0,OFC,E1,,,,,,,,68.0,Tirupati,VII,12/16/2013,90/140/240,RRH,3.0,21.0,Dual,MOBI (MD2F&3F-65-17&17DE10&8-2015),OFC,FE,,100 Mbps,,,,,,Tiruapti,,4.0,CT2137,CT2137,,,,,CT2137,,,,,210718-YES-(FX(E1)+MADM(STR)+PE2(2-2-29)),100 Mbps,505.0,210718-YES-(FX(E1)+MADM(STR)+PE2(2-2-29)),MDP,,
77,CT2141,505_51411_MCVaripalle-USO_CT2141,2G,,,13.42334,78.52143,Rural,Mittachinthalavaripalle,Punganur,,OD Plinth,5415.0,"MC-Varipalle-USO,punganur (M),Chittoor DT.",Rajampet,PUNGANUR,517247.0,NBSNL,BSNL Infra,CT2141,GBT,40.0,34.0,Dual,XAHT,NSN,USO,12/3/2008,BTS18K_OD,3.0,3-3-3,40/180/240,,DMW,,,OLD NEC,0.6 m,BSC70-20_Punganur_CT2015A,E1,1.0,,70.0,Tirupati,,,,,,,,,,,,,,,,,,,,,CT2141,,,,,,CT2141,,,,2015814045@G/FXW/HYD/3156774/2016@CLEARED ONLINE,,,505.0,270818-YES-(E1+STR-MADM+STR-STM),STD,,
78,CT2149,505_51491_Palamaneru_2_CT2149,2G+4G,NSN,4G_35573_Palamaneru_CT2149,13.20002,78.7459,E-City,palamaneru,Palamaner,NH,Room,5422.0,"oldpet,palamner _2.,Chittoor DT.",Chittoor,PALMANER,517408.0,NBSNL,BSNL Infra,CT2149,GBT,40.0,35.0,Dual,MOBI (MB2F&3F-65-17&17DE10&8-2015),NSN,IV.5,6/10/2009,BTS18K_ID,3.0,4-4-4,95/185/290,2.0,OFC,E1,,,,,,,,70.0,Tirupati,VII,2/1/2014,95/185/290,RRH,3.0,35.0,Dual,MOBI (MD2F&3F-65-17&17DE10&8-2015),OFC,FE,,100 Mbps,,,,,,Tiruapti,,4.0,CT2149,CT2149,,,,,CT2149,,,,,040818YES(GE+PTN(PLM)+PTN(MDP)+PE2(2-2-27),100 Mbps,505.0,070818YES(GE+PTN(PLM)+PTN(MDP)+PE2(2-2-27),PLM,,
79,CT2151,504_40291_ParameswaraMangalam_CT2151,2G+4G,NSN,4G_36452_P_Mangalam_CT2151,13.40007,79.56095,Rural,Parameswaramangalam,Puttur,NH,Room,5407.0,"ParameswaraMangalam,Puttur (M),Chittoor DT.",Tirupati,PUTTUR,517584.0,NBSNL,BSNL Infra,CT2151,GBT,40.0,38.0,Dual,XAHT,NSN,IV.5,3/30/2009,BTS18K_ID,3.0,4-4-4,80/195/350,1.0,OFC,E1,,,,,,,,67.0,Tirupati,VII +,4/20/2017,80/195/350,RRH,3.0,38.0,Mono,MOBI (MB3F-65-18DE10+MBRET-RCU-003),OFC,FE,,70 Mbps,,,,,,Tiruapti,,4.0,CT2151,CT2151,,CT2151,,,CT2151,,,,,160818YES(fe+CPAN(PTR)+DWDM(PTR)+DWDM(TRP_STR)+PE1(2-2-21),70 Mbps,504.0,160818YES(fe+CPAN(PTR)+DWDM(PTR)+DWDM(TRP_STR)+PE1(2-2-21),STD,,
80,CT2155,505_51551_Pileru_3_CT2155,2G+4G,NSN,4G_35592_Pileru_CT2155,13.65888,78.93305,E-City,Piler,Pileru,RC,Room,5386.0,"Indra nagar,Piler_3,Chittoor DT.",Rajampet,PILER,517214.0,NBSNL,BSNL Infra,CT2155,MARR,15.0,21.0,Dual,MOBI (MB2F&3F-65-17&17DE10&8-2015),NSN,IV.5,2/2/2009,BTS18K_ID,3.0,4-4-4,70/120/280,1.0,OFC,E1,,,,,,,,68.0,Tirupati,VII,1/16/2014,70/120/280,RRH,3.0,21.0,Dual,MOBI (MD2F&3F-65-17&17DE10&8-2015),OFC,FE,,60 Mbps,,,,,,Tiruapti,,4.0,CT2155,CT2155,,,,,CT2155,,,,,080818-YES(Fe+PIL(PTN)+CTR-DWDM+TRP(DWDM)+PE2(2-2-27),60 Mbps,505.0,080818-YES(Fe+PIL(PTN)+CTR-DWDM+TRP(DWDM)+PE2(2-2-27),PIL,,
81,CT2158,505_51581_Punganur-2_CT2158,2G+4G,NSN,4G_35602_Punganur-2_CT2158,13.36094,78.56918,E-City,Punganur,Punganur,,Room,5415.0,"Arya vysa kalyanamandapam,punganur,Chittoor DT.",Rajampet,PUNGANUR,517247.0,NBSNL,BSNL Infra,CT2158,MARR,15.0,24.0,Dual,MOBI (MB2F&3F-65-17&17DE10&8-2015),NSN,IV.5,1/11/2009,BTS18K_ID,3.0,4-4-4,20/120/240,2.0,OFC,E1,,,,,,,,70.0,Tirupati,VII,12/20/2013,20/120/240,RRH,3.0,24.0,Dual,MOBI (MD2F&3F-65-17&17DE10&8-2015),OFC,FE,,100 Mbps,,,,,,Tiruapti,,4.0,CT2158,CT2158,,,,,CT2158,,,,,060818YES(FE+MADM(PLM)+MADM(STR)+PE1(2-2-35),100 Mbps,505.0,060818YES(FE+MADM(PLM)+MADM(STR)+PE1(2-2-35),PUG,,
82,CT2162,505_51621_Rompicherla_CT2162,2G+3G,NSN,553_35612_Rompicherla_CT2162,13.67065,79.04755,Rural,Rompicherla,Rompicherla,,Exchange,5373.0,"Rompicherla(V&M),Chittoor DT.",Rajampet,PILER,517192.0,BSNL,BSNL Infra,CT2162,GBT,40.0,40.0,Dual,XAHT,NSN,IV,1/11/2008,S8K_ID,3.0,4-4-4,20/190/280,1.0,OFC,E1,,,,,,,,68.0,Tirupati,VII +,3/13/2017,20/190/280,RRH,3.0,39.0,Dual,MOBI (MD2F&3F-65-17&17DE10&8-2015),OFC,FE,,100 Mbps,,,,,,Tiruapti,,553.0,CT2162,CT2162,,,,,,,,,,200818-YES(Fe+PIL(PTN)+CTR-DWDM+TRP(DWDM)+PE2(2-2-27),100 Mbps,505.0,200818-YES(Fe+PIL(PTN)+CTR-DWDM+TRP(DWDM)+PE2(2-2-27),STD,,
83,CT2167,504_40301_Srikalahasthi-3_CT2167,2G+3G,NSN,553_35622_Srikalahasthi-3_CT2167,13.75225,79.69447,E-City,Srikalahasti,Srikalahasti,SH,Room,5378.0,"srikalahasti,Chittoor DT.",Tirupati,SRI KALAHASTHI,517644.0,NBSNL,BSNL Infra,CT2167,MARR,18.0,24.0,Dual,MOBI (MB2F&3F-65-17&17DE10&8-2015),NSN,IV.5,1/27/2009,BTS18K_ID,3.0,4-4-4,40/135/240,1.0,OFC,E1,,,,,,,,67.0,Tirupati,VII,2/7/2014,40/135/240,RRH,3.0,24.0,Dual,MOBI (MD2F&3F-65-17&17DE10&8-2015),OFC,FE,,45 Mbps,,,,,,Tiruapti,,553.0,CT2167,CT2167,,,,,CT2167,,,,,300718YES(GE+MADM(SKT)+DWDM(SKT)+DWDM(STR)+PE1(2-2-33),45 Mbps,504.0,300718YES(GE+MADM(SKT)+DWDM(SKT)+DWDM(STR)+PE1(2-2-33),SKT,,
84,CT2168,504_40311_Taduku_CT2168,2G+3G,NSN,553_35631_Taduku_CT2168,13.49745,79.53169,Rural,Taduku,Puttur,RC,Room,5407.0,"Taduku(V),Puttur (M),Chittoor DT.",Tirupati,PUTTUR,517571.0,NBSNL,BSNL Infra,CT2168,GBT,40.0,39.0,Dual,XAHT,NSN,IV.5,7/6/2009,BTS18K_ID,3.0,4-4-4,30/210/310,1.0,OFC,E1,,,,,,,,67.0,Tirupati,,,,RRH,,,,,,,,100 Mbps,,,,,,,,553.0,CT2168,,CT2168,,,,CT2168,,,,,"030618YES(CPE,fe+CPE+MADM(PTR)+DWDM(PTR)+DWDM(TRP_STR)+PE1(2-2-21)",100 Mbps,504.0,"290718YES(CPE,fe+CPE+MADM(PTR)+DWDM(PTR)+DWDM(TRP_STR)+PE1(2-2-21)",STD,,
85,CT2172,504_40321_KhadiColony_CT2172,2G+3G,ZTE,346_5930_KhadiColony_CT2172A,13.64905,79.42012,DHQ,Tirupati,Tirupati (Urban),,OD Plinth,5383.0,"18-1-27A Venkatasai Apartments,Dwarakanagar,KT road,Tirupati,Chittoor DT.",Tirupati,CHANDRAGIRI,517507.0,NBSNL,BSNL Infra,CT2172,RTP,9.0,21.0,Tri,Agisson,NSN,IV,6/18/2008,S12K_OD,3.0,3-4-3,60/150/230,1.0,OFC,E1,,,,,,,,58.0,Tirupati,V.1,3/18/2010,60/150/230,RRH,3.0,21.0,TRI,Agisson,OFC,Optical,,100 Mbps,,,,,,Tiruapti,,346.0,CT2172,,,,,,,,,,,,100 Mbps,504.0,"220718-YES-(DMW,E1+TRP-MADM+CAR-STM)",TRP,,
86,CT2173,504_40331_GNKandriga-USO_CT2173,2G+3G,NSN,553_35642_GNKandrigaUSO_CT2173,13.40717,79.62796,Rural,GNKandriga,Puttur,NH,OD Plinth,5407.0,"Gnkandriga(V),puttur(M),Chittoor DT.",Tirupati,PUTTUR,517583.0,NBSNL,BSNL Infra,CT2173,GBT,40.0,37.0,Dual,XAHT,NSN,USO,2/19/2010,BTS18K_OD,3.0,4-4-4,90/180/300,1.0,OFC,E1,,,,,,,,67.0,Tirupati,,,,RRH,,,,,,,,70 Mbps,,,,,,,,553.0,CT2173,,CT2173,,,,CT2173,,,,,020918YES(fe+MADM(PTR)+DWDM(PTR)+DWDM(TRP_STR)+PE1(2-2-21),70 Mbps,504.0,010918YES(fe+MADM(PTR)+DWDM(PTR)+DWDM(TRP_STR)+PE1(2-2-21),STD,,
87,CT2175,504_40341_JeevaKona_CT2175,2G+3G,ZTE,346_5931_Jeevakona_CT2175A,13.64799,79.43078,DHQ,Tirupati,Tirupati (Urban),,Shelter,5383.0,"TRP_JeevaKona,Tirupati,Chittoor DT.",Tirupati,CHANDRAGIRI,517507.0,NBSNL,BSNL Infra,CT2175,MARR,12.0,18.0,Dual,XAHT,NSN,IV.5,2/16/2009,BTS18K_ID,3.0,4-4-4,0/140/240,1.0,OFC,E1,,,,,,,,58.0,Tirupati,V.1,3/18/2010,0/140/240,RRH,3.0,18.0,Dual,Agisson,OFC,FE,,100 Mbps,,,,,,Tiruapti,,346.0,CT2175,,,,,,,,,,,,100 Mbps,504.0,"200718-YES-(DMW,E1+TRP-MADM+CAR-STM)",TRP,,
88,CT2176,504_40351_Bazarstreet_CT2176,2G+3G,ZTE,346_5932_TPT_ChinnaBazar_CT2176A,13.63207,79.41764,DHQ,Tirupati,Tirupati (Urban),,Shelter,5383.0,"9-1-43,Gangundram mandpam st,behind rajesh rest home building,tpt,Chittoor DT.",Tirupati,CHANDRAGIRI,517501.0,NBSNL,BSNL Infra,CT2176,RTP,9.0,21.0,Tri,Agisson,NSN,IV.5,2/5/2009,BTS18K_ID,3.0,4-4-4,40/190/280,,DMW,,,NEW NEC,0.6 m,BSC58-18_TirpatiMainEx_CT2072A,E1,1.0,,58.0,Tirupati,V.1,3/18/2010,40/190/280,RRH,3.0,21.0,TRI,Agisson,DMW,,,100 Mbps,NEW NEC,0.6 m,CT2072,FE,,Tiruapti,100 Mbps,346.0,CT2176,,,,,,CT2176,,,,G/FVC/HYD/1171288/2010,,100 Mbps,504.0,240718-YES-(E1+TRP-MADM+CAR-STM),TRP,,
89,CT2177,504_40361_Autonagar_CT2177,2G+3G,ZTE,346_5933_TPT_AutoNagar_CT2177A,13.62633,79.44037,DHQ,Tirupati,Tirupati (Rural),SH,Shelter,5375.0,"TRP_Autonagar,tirupati,Chittoor DT.",Tirupati,CHANDRAGIRI,517501.0,NBSNL,BSNL Infra,CT2177,MARR-G,24.0,24.0,Dual,XAHT,NSN,IV.5,3/31/2009,BTS18K_ID,3.0,4-4-4,70/210/320,,DMW,,,NEW NEC,0.6 m,BSC58-18_TirpatiMainEx_CT2072A,E1,1.0,,58.0,Tirupati,V.1,3/18/2010,70/210/320,RRH,3.0,24.0,Mono,Agisson,OFC,FE,,100 Mbps,,,,,,Tiruapti,,346.0,CT2177,,,,,,CT2177,,,,,,100 Mbps,504.0,"160718-YES-(DMW,E1+TRP-MADM+CAR-STM)",TRP,,
90,CT2178,504_40371_MRPalli_CT2178,2G+3G,ZTE,346_5934_MRPalli_CT2178A,13.6212,79.40853,DHQ,Tirupati,Tirupati (Rural),SH,Room,5375.0,"TRP-MRPalli,Tirupati,Chittoor DT.",Tirupati,CHANDRAGIRI,517502.0,NBSNL,BSNL Infra,CT2178,RTP,9.0,21.0,Tri,Agisson,NSN,IV.5,1/22/2009,BTS18K_ID,3.0,4-4-4,50/150/320,2.0,OFC,E1,,,,,,,,58.0,Tirupati,V.1,4/13/2012,50/150/320,RRH,3.0,21.0,TRI,Agisson,OFC,FE,,100 Mbps,,,,,,Tiruapti,,346.0,CT2178,,,,,,CT2178,,,,,,100 Mbps,504.0,170718-YES-(E1+TRP-MADM+CAR-STM),TRP,,
91,CT2179,504_40381_Padmavathinagar_CT2179,2G+3G,ZTE,346_5935_TPT_PadmavathiNagar_CT2179A,13.61922,79.40257,DHQ,Tirupati,Tirupati (Rural),RC,Room,5375.0,"Mahalaxmi apartments,opp padmavati mahila university,Tiupati,Chittoor DT.",Tirupati,CHANDRAGIRI,517502.0,NBSNL,BSNL Infra,CT2179,RTP,6.0,21.0,Dual,XAHT,NSN,IV.5,1/17/2009,BTS18K_ID,3.0,4-4-4,90/170/300,1.0,OFC,E1,,,,,,,,58.0,Tirupati,V.1,3/18/2010,90/170/300,RRH,3.0,21.0,Mono,Agisson,OFC,FE,,100 Mbps,,,,,,Tiruapti,,346.0,CT2179,,,,,,CT2179,,,,,,100 Mbps,504.0,"220718-YES-(DMW,E1+TRP-MADM+CAR-STM)",TRP,,
92,CT2180,504_40391_Srinivasam_CT2180,2G+3G,ZTE,346_5936_TPT_Srinivasam_CT2180A,13.63282,79.42857,DHQ,Tirupati,Tirupati (Urban),SH,Room,5383.0,"srinivasam complex,near RTC bus stand,tpt,Chittoor DT.",Tirupati,CHANDRAGIRI,517501.0,NBSNL,BSNL Infra,CT2180,RTP,3.0,24.0,Tri,Agisson,NSN,IV.5,5/27/2009,BTS18K_ID,3.0,4-4-4,0/125/250,,DMW,,,NEW NEC,0.6 m,BSC58-07_TRP_Korlagnta_CT2075A,E1,2.0,,58.0,Tirupati,V.1,3/18/2010,0/125/250,RRH,3.0,24.0,TRI,Agisson,DMW,,,100 Mbps,NEW NEC,0.6 m,CT2075,FE,,Tiruapti,100 Mbps,346.0,CT2180,,,,,,CT2180,,,,G/FVC/HYD/1170935/2010,,100 Mbps,504.0,"170718-YES-(DMW,E1+TRP-MADM+CAR-STM)",TRP,,
93,CT2181,504_40401_TRPMadhuranr_CT2181,2G+3G,ZTE,346_5937_TPT_Madhuranagar_CT2181A,13.64348,79.42526,DHQ,Tirupati,Tirupati (Urban),,Room,5383.0,"TRP_Madhuranagar,tirupati,Chittoor DT.",Tirupati,CHANDRAGIRI,517501.0,NBSNL,BSNL Infra,CT2181,RTP,9.0,18.0,Tri,Agisson,NSN,IV.5,12/31/2008,BTS18K_ID,3.0,4-4-4,0/105/235,1.0,OFC,E1,,,,,,,,58.0,Tirupati,V.1,3/18/2010,0/105/235,RRH,3.0,18.0,TRI,Agisson,OFC,FE,,100 Mbps,,,,,,Tiruapti,,346.0,CT2181,,,,,,CT2181,,,,,,100 Mbps,504.0,"210718-YES-(DMW,E1+TRP-MADM+CAR-STM)",TRP,,
94,CT2196,504_40411_VaradarajaNgr_ATC_CT2196,2G+3G,ZTE,346_5938_TPT_VaradarajaNagar_ATC_CT2196A,13.64423,79.41856,DHQ,TIRUPATI,Tirupati (Urban),NH,Shelter,5383.0,"#2-9-1089,N.G.O COLONY,K.T.ROAD,TIRUPATHI,CHITTOOR(DIST) ;Andhra pradesh-517501",Tirupati,CHANDRAGIRI,517501.0,IP-ATC,ATC,AP/CH/AT/10761,RTP,9.0,21.0,Dual,MOBI (MB2F&3F-65-17&17DE10&8-2015),NSN,V.1,8/13/2013,BTS18K_ID,3.0,4-4-4,40/220/320,1.0,OFC,E1,,,,,,,,58.0,Tirupati,V.1,8/31/2013,40/220/320,OD,3.0,21.0,Dual,MOBI (MD2F&3F-65-17&17DE10&8-2015),OFC,FE,,100 Mbps,,,,,,Tiruapti,,346.0,CT2196,,,,,,,,,,,,100 Mbps,504.0,"210718-YES-(DMW,E1+TRP-MADM+CAR-STM)",TRP,,
95,CT2197,504_40421_Kothapalli_CT2197,2G+3G,ZTE,346_6017_TRP_Kothapalli_CT2197A,13.63611,79.44408,DHQ,Tirupati,Tirupati (Rural),RC,Shelter,5375.0,"TRPKothapalli_CT2197B,S.Y.No 17/2,18, flot no 28 , F block,padmavati nagar , renigunta road , chitoor dt.-517502",Tirupati,CHANDRAGIRI,517507.0,NBSNL,BSNL Infra,CT2197,GBT,30.0,27.0,Dual,Agisson,NSN,V.1,5/6/2011,S12K_ID,3.0,4-4-4,30/220/290,,DMW,,,NEW NEC,0.6 m,BSC58-18_TirpatiMainEx_CT2072A,E1,1.0,,58.0,Tirupati,V.1,7/13/2016,30/220/290,RRH,3.0,27.0,Dual,Agisson,DMW,,,100 Mbps,NEW NEC,0.6 m,CT2072,FE,,Tiruapti,100 Mbps,346.0,CT2197,,,,,,,,,,G/FVC/HYD/1602502/2011,,100 Mbps,504.0,310818-YES-(E1+TRP-MADM+CAR-STM),TRP,,
96,CT2198,504_40431_CottonMills_CT2198,2G+3G,ZTE,346_5939_CottonMills_CT2198A,13.63447,79.45294,DHQ,Tirupati,Tirupati (Rural),SH,Shelter,5375.0,"TRP_CottonMills,Chittoor DT.",Tirupati,CHANDRAGIRI,517506.0,NBSNL,BSNL Infra,CT2198,GBT,30.0,27.0,Dual,Agisson,NSN,V.1,3/10/2011,S8K_ID,3.0,4-4-4,80/150/250,,DMW,,,NEW NEC(HFCL),0.6 m,BSC58-45_Padmavatipurm_CT2022A,E1,1.0,,58.0,Tirupati,V.1,7/23/2013,80/150/250,RRH,3.0,27.0,Dual,Agisson,DMW,,,50 Mbps,NEW NEC,0.6 m,CT2022,FE,,Tiruapti,100 Mbps,346.0,CT2198,,,,,,,,,,G/FVC/HYD/1369232/2010,,50 Mbps,504.0,"110718-YES-(DMW,FE+TRP-MADM+PE2(2-2-31))",TRP,,
97,CT2199,504_40441_Avilala_CT2199,2G+3G,ZTE,346_5940_Avilala_CT2199A,13.61409,79.41584,DHQ,Tirupati,Tirupati (Rural),SH,Shelter,5375.0,"H-NO:6-171/A,C/O MUNIRATHNAM,BESIDE RRAL REGISTER OFFICE,DHANALAXMI NAGAR,AVILALA,TPt,Chittoor DT..",Tirupati,CHANDRAGIRI,517507.0,NBSNL,BSNL Infra,CT2199,RTT,15.0,20.0,Dual,Agisson,NSN,V.1,12/13/2010,S12K_ID,3.0,4-4-4,0/120/270,,OFC,,,,,,,,,58.0,Tirupati,V.1,12/12/2010,0/120/270,ID,3.0,20.0,Dual,Agisson,OFC,,,100 Mbps,,,,,,Tiruapti,100 Mbps,346.0,CT2199,,,,,,,,,,G/FVC/HYD/1369233/2010,,100 Mbps,504.0,"130718-YES-(DMW,FE+TRP-MADM+PE2(2-2-31))",TRP,,
98,CT2200,504_40451_PrakasamRd_CT2200,2G+3G,ZTE,346_5941_TPT_PrakasamRoad_CT2200A,13.6296,79.4094,DHQ,Tirupati,Tirupati (Urban),NH,Room,5383.0,"CCE Building, Prakasam road, Tirupati",Tirupati,CHANDRAGIRI,517501.0,NBSNL,BSNL Infra,CT2200,RTP,9.0,23.0,Tri,Agisson,NSN,V.1,5/24/2012,BTS18K_ID,3.0,4-4-4,50/160/280,2.0,OFC,E1,,,,,,,,58.0,Tirupati,V.1,5/25/2012,50/160/280,RRH,3.0,23.0,TRI,Agisson,OFC,FE,,100 Mbps,,,,,,Tiruapti,,346.0,CT2200,,,,,,,,,,,,100 Mbps,504.0,"220718-YES-(DMW,E1+TRP-MADM+CAR-STM)",TRP,,
99,CT2202,504_40461_Yogimallavaram_CT2202,2G+3G,ZTE,346_5943_Yogimallavaram_CT2202A,13.60672,79.43894,DHQ,Tirupati,Tirupati (Rural),NH,Shelter,5375.0,"PLOT NO:10,TELECOMCOLONY,YOGIMALLAVARAM,TPT,Chittoor DT.",Tirupati,CHANDRAGIRI,517503.0,NBSNL,BSNL Infra,CT2202,RTT,15.0,19.0,Dual,Agisson,NSN,V.1,12/8/2012,S12K_ID,3.0,4-4-4,25/100/270,,DMW,,,NEW NEC,0.6 m,BSC58-45_Padmavatipurm_CT2022A,E1,1.0,,58.0,Tirupati,V.1,7/25/2013,25/100/270,RRH,3.0,19.0,Dual,Agisson,DMW,,,100 Mbps,NEW NEC,0.6 m,CT2022,FE,,Tiruapti,100 Mbps,346.0,CT2202,,,,,,,,,,G/FVC/HYD/1466308/2011,,100 Mbps,504.0,"120718-YES-(DMW,FE+TRP-MADM+PE2(2-2-31))",TRP,,
100,CT2203,504_40471_KarakambadiRd_ATC_CT2203,2G+3G,ZTE,346_5944_KarakambadiRoad_ATC_CT2203A,13.64835,79.45063,DHQ,Tirupati,Tirupati (Rural),SH,Shelter,5375.0,K. NADAMUNI NAIDU; S/O. LATE GANGUKA NAIDU; H.NO.1-49; TIMMINAIDUPALEM; AKKARAMPALLI; TPT;,Tirupati,CHANDRAGIRI,517520.0,IP-ATC,ATC,AP/CH/BS/0180,GBT,40.0,30.0,Dual,Agisson,NSN,V.1,10/21/2011,S12K_ID,3.0,4-4-4,60/200/270,,DMW,,,NEW NEC,0.6 m,BSC58-18_TirpatiMainEx_CT2072A,E1,1.0,,58.0,Tirupati,V.1,11/6/2013,60/200/270,RRH,3.0,30.0,Dual,Agisson,DMW,,,100 Mbps,NEW NEC,0.6 m,CT2072,FE,,Tiruapti,100 Mbps,346.0,CT2203,,,,,,,,,,G/FVC/HYD/1598185/2011,,100 Mbps,504.0,"210718-YES-(DMW,E1+TRP-MADM+CAR-STM)",TRP,,
101,CT2204,504_40481_SVIMS-2_CT2204,2G+3G,ZTE,346_5945_TPT_SVIMS_CT2204A,13.63761,79.40414,DHQ,Tirupati,Tirupati (Urban),,Room,5383.0,"TRP-SVIMS-2,room no:18,SvIMS Hospital,tirupati,Chittoor DT.",Tirupati,CHANDRAGIRI,517507.0,NBSNL,BSNL Infra,CT2204,RTT,15.0,22.0,Tri,Agisson,NSN,V.1,10/31/2010,BTS18K_ID,3.0,4-4-4,320/140/220,,OFC,,,,,,,,,58.0,Tirupati,V.1,12/11/2010,320/140/220,RRH,3.0,22.0,TRI,Agisson,,,,100 Mbps,,,,FE,,Tiruapti,100 Mbps,346.0,CT2204,,,,,,CT2204,,,,G/FVC/HYD/1466302/2011,,100 Mbps,504.0,180718-YES-(E1+TRP-MADM+CAR-STM),TRP,,
102,CT2205,504_40491_Tummalagunta_ATC_CT2205,2G+3G,ZTE,346_6018_Tumalgunta_ATC_CT2205A,13.61427,79.38858,DHQ,Tirupati,Tirupati (Rural),RC,Shelter,5375.0,"Nalanda Nagar, Tummalagunta Perur Rd, Tummalagunta, Tirupati, Chittoor, Andhra Pradesh 517502",Tirupati,CHANDRAGIRI,517502.0,IP-ATC,ATC,AP2036,RTP,9.0,21.0,Dual,Agisson,NSN,V.1,12/15/2011,S12K_ID,3.0,4-4-4,90/270/335,,DMW,,,NEW NEC,0.6 m,BSC58-14_Pudipatla_CT2302A,E1,1.0,,58.0,Tirupati,V.1,9/23/2016,90/270/335,RRH,3.0,21.0,Dual,Agisson,DMW,,,100 Mbps,NEW NEC,0.6 m,CT2302,FE,,Tiruapti,70 Mbps,346.0,CT2205,,,,,,,,,,2015812085@G/FXW/HYD/3156688/2016@K-19012-G/FVC/HYD2891034/2015-CFA DTD 9-12-16,,100 Mbps,504.0,240718-YES-(E1+TRP-MADM+CAR-STM),TRP,,
103,CT2206,505_52061_CTR_Murukambattu_WTT_CT2206,2G+4G,NSN,4G_35661_Murakambattu_CT2206,13.24763,79.11403,E-City,Chittoor,Chittoor,NH,Shelter,5421.0,BANGALORE TIRUPATHI BYPASS ROAD MURUKAMPATTU CHITTOOR ANDHRA PRADESH 517127.,Chittoor,CHITTOOR,517127.0,IP-WTT,VIOM Networks,ANPCHI1690,GBT,40.0,38.0,Dual,Agisson,NSN,V.1,3/27/2012,S12K_ID,3.0,4-4-4,80/180/280,1.0,OFC,E1,,,,,,,,60.0,Tirupati,V.1,1/2/2014,80/180/280,RRH,3.0,38.0,Dual,Agisson,OFC,FE,,100 Mbps,,,,,,Tiruapti,,4.0,CT2206,CT2206,,,,,,,,,,300618-YES(FX+CTR(PTN)+CTR-DWDM+TRP(DWDM)+PE2(2-2-25),100 Mbps,505.0,300618-YES(FX+CTR(PTN)+CTR-DWDM+TRP(DWDM)+PE2(2-2-25),CTR,,
104,CT2207,505_52071_PileruRnB_CT2207,2G+4G,NSN,4G_35673_Piler R-B_CT2207,13.65276,78.9517,E-City,Piler,Pileru,NH,Shelter,5386.0,"R&B bunlglow,tpt rd,piler.,Chittoor DT.",Rajampet,PILER,517214.0,NBSNL,BSNL Infra,CT2207,GBT,40.0,37.0,Dual,MOBI (MB2F&3F-65-17&17DE10&8-2015),NSN,V.1,2/21/2012,S12K_ID,3.0,4-4-4,350/80/270,1.0,OFC,E1,,,,,,,,68.0,Tirupati,VII,1/17/2014,350/80/270,RRH,3.0,37.0,Dual,MOBI (MD2F&3F-65-17&17DE10&8-2015),OFC,FE,,45 Mbps,,,,,,Tiruapti,,4.0,CT2207,CT2207,,,,,,,,,,020818YES(FE+MADM)+CTR-PTN+PE1(2-2-35),45 Mbps,505.0,020818YES(FE+MADM)+CTR-PTN+PE1(2-2-35),PIL,,
105,CT2208,504_40501_Puttur_2_CT2208,2G+4G,NSN,4G_36411_Puttur_2_CT2208,13.43862,79.54766,E-City,Puttur,Puttur,NH,Room,5407.0,"15-176,karvetinagaram road,puttur,Chittoor DT.",Tirupati,PUTTUR,517583.0,NBSNL,BSNL Infra,CT2208,RTP,9.0,18.0,Mono,KATHREIN,NSN,V.1,3/26/2012,S12K_ID,3.0,4-4-4,340/160/270,1.0,OFC,E1,,,,,,,,67.0,Tirupati,VII,6/10/2014,340/160/270,RRH,3.0,18.0,Dual,MOBI (MD2F&3F-65-17&17DE10&8-2015),OFC,FE,,100 Mbps,,,,,,Tiruapti,,4.0,CT2208,CT2208,,CT2208,,,,,,,,160818YES(Ge+CPAN(PTR)+DWDM(PTR)+DWDM(TRP_STR)+PE1(2-2-21),100 Mbps,504.0,160818YES(Ge+CPAN(PTR)+DWDM(PTR)+DWDM(TRP_STR)+PE1(2-2-21),PUT,,
106,CT2209,504_40511_BahadurpetSrikalhasti_CT2209,2G+3G,NSN,553_35683_BahadurpetSrikalhasti_CT2209,13.7607,79.70872,E-City,Srikalahasti,Srikalahasti,SH,Room,5378.0,"Bahadurpet,Srikalhasti,Chittoor DT.",Tirupati,SRI KALAHASTHI,517644.0,NBSNL,BSNL Infra,CT2209,RTP,9.0,18.0,Dual,Agisson,NSN,V.1,2/1/2011,BTS18K_ID,3.0,4-4-4,60/190/260,,DMW,,,NEW NEC,0.6 m,BSC67-15_SrikalhastiMW_CT2069A,E1,1.0,,67.0,Tirupati,Vii,2/5/2014,60/190/260,RRH,3.0,18.0,Dual,Agisson,DMW,,,100 Mbps,NEW NEC,0.6 m,CT2069,FE,,Tiruapti,30Mbps,553.0,CT2209,CT2209,,,,,CT2209,,,,G/FVC/HYD/1602570/2011,300718YES(FE+MADM(SKT)+DWDM(SKT)+DWDM(STR)+PE1(2-2-33),100 Mbps,504.0,300718YES(FE+MADM(SKT)+DWDM(SKT)+DWDM(STR)+PE1(2-2-33),SKT,,
107,CT2211,505_52111_MDPRTCDepo_CT2211,2G+4G,NSN,4G_35692_RTC-Depot_CT2211,13.55731,78.50857,E-City,Madanapalle,Madanapalle,,Room,5392.0,"near Rtc depot,madanapalli,Chittoor DT.",Rajampet,MADANAPALLI,517325.0,NBSNL,BSNL Infra,CT2211,RTP,9.0,21.0,Dual,MOBI (MB2F&3F-65-17&17DE10&8-2015),NSN,V.1,3/29/2012,S12K_ID,3.0,4-4-4,70/190/300,1.0,OFC,E1,,,,,,,,68.0,Tirupati,VII,12/19/2013,70/190/300,RRH,3.0,21.0,Dual,MOBI (MD2F&3F-65-17&17DE10&8-2015),OFC,FE,,100 Mbps,,,,,,Tiruapti,,4.0,CT2211,CT2211,,,,,,,,,,120718-YES-(FX(E1)+MADM(STR)+PE2(2-2-29)),100 Mbps,505.0,120718-YES-(FX(E1)+MADM(STR)+PE2(2-2-29)),MDP,,
108,CT2212,505_52121_Neerugattuvaripalli_CT2212,2G+4G,NSN,4G_35703_NGV-palli_CT2212,13.57095,78.50602,E-City,Madanapalle,Madanapalle,,Room,5392.0,"NGV-palli, 3-146-14-4, bypass road ,chowdeswari circle, NGV palli , Madanapalli, chittor district-517325",Chittoor,MADANAPALLI,517325.0,NBSNL,BSNL Infra,CT2212,RTP,9.0,21.0,Dual,MOBI (MB2F&3F-65-17&17DE10&8-2015),NSN,V.1,2/13/2013,BTS18K_ID,3.0,4-4-4,120/220/300,1.0,OFC,E1,,,,,,,,68.0,Tirupati,VII,7/21/2016,120/220/300,RRH,3.0,21.0,Dual,MOBI (MD2F&3F-65-17&17DE10&8-2015),OFC,FE,,100 Mbps,,,,,,Tiruapti,,4.0,CT2212,CT2212,,,,,CT2212,,,,,220718-YES-(FX(E1)+MADM(STR)+PE2(2-2-29)),100 Mbps,505.0,220718-YES-(FX(E1)+MADM(STR)+PE2(2-2-29)),MDP,,
109,CT2213,505_52131_CTR_AmbedkarNgr_CT2213,2G+4G,NSN,4G_35712_Ambedkarnagar_CT2213,13.20176,79.08464,E-City,Chittoor,Chittoor,NH,Shelter,5421.0,"Ambedkarnagar,kajoor,chittoor,Chittoor DT.",Chittoor,CHITTOOR,517001.0,NBSNL,BSNL Infra,CT2213,GBT,24.0,22.0,Dual,Agisson,NSN,V.1,2/28/2012,S12K_ID,3.0,4-4-4,40/100/260,,DMW,,,NEW NEC,0.6 m,BSC60-31_CTR_Greamspet_CT2002A,E1,2.0,,60.0,Tirupati,V.1,1/2/2014,40/100/260,RRH,3.0,22.0,Dual,Agisson,DMW,,,100 Mbps,NEW NEC,0.6 m,CT2002,FE,,Tiruapti,100 Mbps,4.0,CT2213,CT2213,,,,,,,,,2015813421@G/FXW/HYD/3156713/2016@K-19012/G/FXW/HYD/2670760/2016-CFA 9-12-16,"290618-YES(DMW,fe+CTR(CAR)-MADM)+CTR-DWDM+TRP(DWDM)+PE1(2-2-23)",100 Mbps,505.0,"290618-YES(DMW,fe+CTR(CAR)-MADM)+CTR-DWDM+TRP(DWDM)+PE1(2-2-23)",CTR,,
110,CT2214,505_52141_CTR_Vinayakapuram_CT2214,2G+4G,NSN,4G_35721_Vinayakapuram_CT2214,13.21092,79.10042,E-City,Chittoor,Chittoor,SH,Shelter,5421.0,"R&B bunlglow,Vinayakapuram,Chittoor,Chittoor DT.",Chittoor,CHITTOOR,517001.0,NBSNL,BSNL Infra,CT2214,GBT,24.0,24.0,Dual,Agisson,NSN,V.1,3/3/2012,BTS18K_ID,3.0,4-4-4,20/140/270,2.0,OFC,E1,,,,,,,,60.0,Tirupati,V.1,3/17/2012,20/140/270,RRH,3.0,24.0,Dual,Agisson,OFC,FE,,100 Mbps,,,,,,Tiruapti,,4.0,CT2214,CT2214,,,,,CT2214,,,,2015813414@G/FXW/HYD/3156711/2016@K-19012-G/FVC/HYD2891034/2015-CFA DTD 9-12-16,090718-YES(fe+CPE+CTR(CAR)-MADM)+CTR-DWDM+TRP(DWDM)+PE1(2-2-23)090718-YES(fe+CPE+CTR(CAR)-MADM)+CTR-DWDM+TRP(DWDM)+PE1(2-2-23),100 Mbps,505.0,090718-YES(fe+CPE+CTR(CAR)-MADM)+CTR-DWDM+TRP(DWDM)+PE1(2-2-23),CTR,,
111,CT2215,505_52151_CTR_HemamadhuriKM_CT2215,2G+4G,NSN,4G_35732_Hemamadhuri_KM_CT2215,13.21571,79.11314,E-City,CHittoor,Chittoor,NH,Room,5421.0,"Hemamadhuri km,krpalli road,chittoor,Chittoor DT.",Chittoor,CHITTOOR,517001.0,NBSNL,BSNL Infra,CT2215,RTP,9.0,21.0,Dual,Agisson,NSN,V.1,10/25/2011,S12K_ID,3.0,4-4-4,80/150/310,2.0,OFC,E1,,,,,,,,60.0,Tirupati,V.1,4/28/2011,80/150/310,RRH,3.0,21.0,Dual,Agisson,OFC,FE,,100 Mbps,,,,,,Tiruapti,,4.0,CT2215,CT2215,,,,,,,,,,300618-YES(FX+CTR(PTN)+CTR-DWDM+TRP(DWDM)+PE2(2-2-25),100 Mbps,505.0,300618-YES(FX+CTR(PTN)+CTR-DWDM+TRP(DWDM)+PE2(2-2-25),CTR,,
112,CT2216,505_52161_CTR-RamNagarCly2_CT2216,2G+4G,NSN,4G_35742_RamNagarColony2_CT2216,13.21222,79.08674,E-City,Chittoor,Chittoor,,Room,5421.0,"CTR-RamNagarCly2,Ganganapalli,chittoor,Chittoor DT.",Chittoor,CHITTOOR,517001.0,NBSNL,BSNL Infra,CT2216,GBT,30.0,24.0,Dual,Agisson,NSN,V.1,10/25/2010,S12K_ID,3.0,4-4-4,340/120/160,,DMW,,,NEW NEC,0.6 m,BSC60-31_CTR_Greamspet_CT2002A,E1,2.0,,60.0,Tirupati,V.1,5/22/2014,340/120/160,RRH,3.0,24.0,Dual,MOBI (MD2F&3F-65-17&17DE10&8-2015),DMW,,,100 Mbps,NEW NEC,0.6 m,CT2002,FE,,Tiruapti,100 Mbps,4.0,CT2216,CT2216,,,,,,,,,G/FVC/HYD/1466299/2011,"200718-YES(DMW,fe+CTR(CAR)-MADM)+CTR-DWDM+TRP(DWDM)+PE1(2-2-23)",100 Mbps,505.0,"200718-YES(DMW,fe+CTR(CAR)-MADM)+CTR-DWDM+TRP(DWDM)+PE1(2-2-23)",CTR,,
113,CT2217,505_52171_CTR-SamireddySt_CT2217,2G+4G,NSN,4G_35752_Samireddystreet_CT2217,13.21748,79.09505,E-City,Chittoor,Chittoor,,Room,5421.0,"CTR-SamireddySt,near market,chittoor,Chittoor DT.",Chittoor,CHITTOOR,517001.0,NBSNL,BSNL Infra,CT2217,RTP,9.0,21.0,Dual,Agisson,NSN,V.1,2/1/2011,S12K_ID,3.0,4-4-4,20/120/250,,DMW,,,NEW NEC,0.6 m,BSC60-31_CTR_Greamspet_CT2002A,E1,2.0,,60.0,Tirupati,V.1,10/9/2013,20/120/250,RRH,3.0,21.0,Dual,Agisson,DMW,,,100 Mbps,NEW NEC,0.6 m,CT2002,FE,,Tiruapti,100 Mbps,4.0,CT2217,CT2217,,,,,,,,,G/FVC/HYD/1602574/2011,100718-YES(DMW+fe+CTR(CAR)-MADM)+CTR-DWDM+TRP(DWDM)+PE1(2-2-23),100 Mbps,505.0,100718-YES(DMW+fe+CTR(CAR)-MADM)+CTR-DWDM+TRP(DWDM)+PE1(2-2-23),CTR,,
114,CT2220,505_52201_AnkalammaGudi_CT2220,2G,,,13.65416,78.85725,E-City,Anakalammagudi,Pileru,NH,OD Plinth,5386.0,"BSNL TOWER, ANKAMMAGUDI VILLAGE, KALIGIRI MANDAL, CHITTOR DISTRICT, ANDHARA PRADESH-517214",Rajampet,PILER,517214.0,NBSNL,BSNL Infra,CT2220,GBT,40.0,37.0,Dual,Agisson,NSN,V.1,10/28/2010,BTS18K_OD,3.0,4-4-4,80/150/260,1.0,OFC,E1,,,,,,,,68.0,Tirupati,,,,,,,,,,,,,,,,,,,,,CT2220,,,,,,CT2220,,,,,,,505.0,290818-YES-(E1+STR-MADM+STR-STM),STD,,
115,CT2229,504_40531_Cherivi_CT2229,2G+4G,NSN,4G_Cherivi_AP_CT2229,13.52619,79.99435,Rural,Cherivi,Satyavedu,,OD Plinth,5402.0,"No:1/28,Cherivi,Satyvedu mandal,Chittoor DT.",Tirupati,SATYAVEDU,517588.0,NBSNL,BSNL Infra,CT2229,GBT,40.0,37.0,Dual,Agisson,NSN,V.1,8/28/2010,BTS18K_OD,3.0,4-4-4,160/250/330,,DMW,,,"Huawei-2G, NEW NEC-3G",0.6 m,"BSC67-28_Satyaveedu_CT2067A-2G ,IRUGULAM-3G",E1,1.0,,67.0,Tirupati,VII +,3/23/2017,160/250/330,RRH,3.0,37.0,Dual,Agisson,DMW,,,30 Mbps,NEW NEC,0.6 m,CT2067,FE,,Tiruapti,20Mbps,4.0,CT2229,CT2229,,,,,CT2229,,,,G/FVC/HYD/1369235/2010,090818YES(MADM(SKT)+DWDM(SKT)+DWDM(STR)+PE1(2-2-33),30 Mbps,504.0,080818YES(MADM(SKT)+DWDM(SKT)+DWDM(STR)+PE1(2-2-33),STD,,
116,CT2231,504_40541_ChinnaPandur_CT2231,2G+3G,NSN,553_35793_ChinnaPandur_CT2231,13.54522,79.94162,Rural,Chinnapandur,Satyavedu,SH,Room,5402.0,"ChinnaPandur,satyavedu (M),Chittoor DT.",Tirupati,SATYAVEDU,517541.0,BSNL,BSNL Infra,CT2231,GBT,40.0,37.0,Dual,Agisson,NSN,V.1,5/31/2010,BTS18K_ID,3.0,4-4-4,30/150/270,1.0,OFC,E1,,,,,,,,67.0,Tirupati,,,,RRH,,,,,,,,30 Mbps,,,,,,,,553.0,CT2231,,CT2231,,,,CT2231,,,,,140818YES(MADM(SKT)+DWDM(SKT)+DWDM(STR)+PE1(2-2-33),30 Mbps,504.0,140818YES(MADM(SKT)+DWDM(SKT)+DWDM(STR)+PE1(2-2-33),STD,,
117,CT2236,504_40551_daskuppam_CT2236,2G,,,13.33488,79.88547,Rural,Dasukuppam,Satyavedu,NH,Room,5402.0,"Daskuppam V,Satyavedu (M),Chittoor DT.",Tirupati,SATYAVEDU,517588.0,NBSNL,BSNL Infra,CT2236,GBT,40.0,37.0,Dual,Agisson,NSN,V.1,10/26/2010,BTS18K_ID,3.0,4-4-4,30/120/270,1.0,OFC,E1,,,,,,,,67.0,Tirupati,,,,,,,,,,,,,,,,,,,,,CT2236,,,,,,,,,,,,,504.0,010818-YES-(E1+STR-MADM+STR-STM),STD,,
118,CT2239,504_40561_DurgaSamudram_CT2239,2G+3G,NSN,553_35803_DURGASAMUDRAM_CT2239,13.57597,79.39256,DHQ,Durgasamudram,Tirupati (Rural),SH,OD Plinth,5375.0,"DurgaSamudram,TIRUPATI RURAL.,Chittoor DT.",Tirupati,CHANDRAGIRI,517561.0,NBSNL,BSNL Infra,CT2239,GBT,40.0,37.0,Dual,Agisson,NSN,V.1,6/13/2010,BTS18K_OD,3.0,4-4-4,50/130/260,1.0,OFC,E1,,,,,,,,58.0,Tirupati,VII +,10/15/2016,50/130/260,RRH,3.0,37.0,Dual,Agisson,OFC,FE,,100 Mbps,,,,,,Tiruapti,,553.0,CT2239,CT2239,,,,,CT2239,,,,,250718-YES-(RENI_PTN3/11+NIB+PE-GE1(2-2-19)),100 Mbps,504.0,010818-YES-(RENI_PTN3/11+NIB+PE-GE1(2-2-19)),STD,,
119,CT2241,504_40571_Gajulamandyam_CT2241,2G+3G,NSN,553_35813_GAJULAMANDYAM_CT2241,13.59892,79.51261,Rural,Gajulamandyam,Renigunta,SH,Exchange,5376.0,",S.Y.No 1030/1,putuur road ,Gajulamandyam,Renigunta (M),Chittoor DT.-517520",Tirupati,CHANDRAGIRI,517820.0,BSNL,BSNL Infra,CT2241,GBT,40.0,35.0,Dual,Agisson,NSN,V.1,4/19/2010,S8K_ID,3.0,4-4-4,340/140/280,1.0,OFC,E1,,,,,,,,58.0,Tirupati,VII,10/26/2016,340/140/280,RRH,3.0,35.0,Dual,Agisson,OFC,FE,,100 Mbps,,,,,,Tiruapti,,553.0,CT2241,CT2241,,,,,,,,,,270618-YES-(RENI_PTN+NIB+PE-GE1(2-2-19)),100 Mbps,504.0,010818-YES-(RENI_PTN+NIB+PE-GE1(2-2-19)),STD,,
120,CT2250,504_40581_Kandadu_CT2250,2G,,,13.64027,79.62609,Rural,Kandadu,Yerpedu,,OD Plinth,5377.0,"Kandadu,Yerpedu(M),Chittoor DT.",Tirupati,SRI KALAHASTHI,517619.0,NBSNL,BSNL Infra,CT2250,GBT,40.0,37.0,Dual,Agisson,NSN,V.1,1/28/2011,BTS18K_OD,3.0,4-4-4,250/0/70,1.0,OFC,E1,,,,,,,,67.0,Tirupati,,,,,,,,,,,,,,,,,,,,,CT2250,,,,,,CT2250,,,,,,,504.0,240818-YES-(E1+TRP-MADM+STR-STM),STD,,
121,CT2252,504_40591_MarutiNgr_TV_CT2252,2G+3G,ZTE,346_5952_CTR_MaruthiNagar_TV_CT2252A,13.63689,79.43121,DHQ,Tirupati,Tirupati (Urban),,Shelter,5383.0,Korlakunta Tirupati Chittoor Dist,Tirupati,CHANDRAGIRI,517501.0,IP-TV,Tower Vision,TAAPCHI0211,RTT,15.0,24.0,Dual,MOBI (MB2F&3F-65-17&17DE10&8-2015),NSN,V.1,4/19/2012,S12K_ID,3.0,4-4-4,40/140/240,,DMW,,,NEW NEC,0.6 m,BSC58-18_TirpatiMainEx_CT2072A,E1,1.0,,58.0,Tirupati,V.1,12/2/2013,40/140/240,RRH,3.0,24.0,Dual,MOBI (MD2F&3F-65-17&17DE10&8-2015),DMW,,,100 Mbps,NEW NEC,0.6 m,CT2072,FE,,Tiruapti,100 Mbps,346.0,CT2252,,,,,,,,,,2015812068@G/FVC/HYD/3156687/2016@CLEARED ONLINE,,100 Mbps,504.0,"170718-YES-(DMW,E1+TRP-MADM+CAR-STM)",TRP,,
122,CT2255,505_52551_Arogyavaram_CT2255,2G+3G,NSN,553_35822_AROGYAVARAM_CT2255,13.60201,78.53551,E-City,Arogyavaram,Madanapalle,NH,Room,5392.0,"Arogyavaram,S.Y.No 88,CTM Road , bsnl tower on GP land,Arogyavaram,Madanapalli (M),Chittoor DT.-517330",Rajampet,MADANAPALLI,517330.0,NBSNL,BSNL Infra,CT2255,GBT,40.0,32.0,Dual,Agisson,NSN,V.1,11/30/2010,S8K_ID,3.0,4-4-4,0/90/220,1.0,OFC,E1,,,,,,,,68.0,Tirupati,VII +,11/18/2016,0/90/220,RRH,3.0,32.0,Dual,Agisson,OFC,FE,,60 Mbps,,,,,,Tiruapti,,553.0,CT2255,CT2255,,,,,,,,,,220618-YES(FX+MDP3/8(PTN)-CTR(PTN)+CTR-DWDM+TRP(DWDM)+PE2(2-2-27),60 Mbps,505.0,220618-YES(FX+MDP3/8(PTN)-CTR(PTN)+CTR-DWDM+TRP(DWDM)+PE2(2-2-27),STD,,
123,CT2261,505_52611_Mogalimittoor_CT2261,2G+3G,NSN,553_35833_Mogalimittoor_CT2261,13.18573,78.84733,Rural,Mogilimittoor,Bangarupalem,NH,Exchange,5429.0,"Mogili(V),Bangarupalem(M),Chittoor DT.",Chittoor,BANGARUPALYAM,517419.0,BSNL,BSNL Infra,CT2261,GBT,40.0,35.0,Dual,AGISSON,NSN,V.1,4/19/2010,S8K_ID,3.0,4-4-4,7/147/295,,DMW,,,NEW NEC(HFCL),"0.6m,0.9",BSC70-19_Bangarupalem_CT2001A,E1,1.0,,70.0,Tirupati,,,,RRH,,,,,,,,50 Mbps,,,,,,,,553.0,CT2261,,CT2261,,,,,,,,,190818-YES(FX+CTR(PTN)+CTR-DWDM+TRP(DWDM)+PE2(2-2-25),50 Mbps,505.0,190818-YES(FX+CTR(PTN)+CTR-DWDM+TRP(DWDM)+PE2(2-2-25),STD,,
124,CT2271,504_40601_Ramchandrapuram_CT2271,2G+3G,NSN,553_35843_Ramachandraprm_CT2271,13.54371,79.3994,DHQ,Ramachandrapuram,Ramachandrapuram,SH,OD Plinth,5398.0,"Ramchandraprm,s.y.no 25-1,gangi reddy palli village,RamachandraPuram (V&M),Chittoor DT.-517561",Tirupati,CHANDRAGIRI,517561.0,NBSNL,BSNL Infra,CT2271,GBT,40.0,37.0,Dual,Agisson,NSN,V.1,1/28/2011,BTS18K_ID,3.0,4-4-4,20/130/230,,DMW,,,NEW NEC,0.6 m,BSC58-57_Kammapalli_CT2123B,E1,1.0,,58.0,Tirupati,V.1,1/9/2017,20/130/230,RRH,3.0,37.0,Dual,Agisson,DMW,,,100 Mbps,NEW NEC,0.6 m,CT2123,FE,,Tiruapti,45Mbps,553.0,CT2271,CT2271,,,,,,,,,G/FVC/HYD/1466306/2011,080918YES(fe+CPAN(PTR)+DWDM(PTR)+DWDM(TRP_STR)+PE1(2-2-21),100 Mbps,504.0,080918YES(fe+CPAN(PTR)+DWDM(PTR)+DWDM(TRP_STR)+PE1(2-2-21),STD,,
125,CT2273,504_40611_Irugulam_CT2273,2G+4G,NSN,4G_35853_Irugulam_CT2273,13.49874,79.99812,Rural,Irugulam,Varadaiahpalem,,Exchange,5381.0,"Irugulam(V),/Varadayyapalem(M),Chittoor DT.",Tirupati,SATYAVEDU,517588.0,BSNL,BSNL Infra,CT2273,GBT,40.0,37.0,Dual,Agisson,NSN,V.1,2/25/2010,S8K_ID,3.0,4-4-4,0/120/240,1.0,DMW,,,NEW NEC,,Satyaveedu_CT2067,,,,67.0,Tirupati,VII +,3/15/2017,0/120/240,RRH,3.0,37.0,Dual,Agisson,OFC,FE,,30 Mbps,,,,,,Tiruapti,,4.0,CT2273,CT2273,,,,,,,,,,040818YES(FE+MADM(SKT)+DWDM(SKT)+DWDM(STR)+PE1(2-2-33),30 Mbps,504.0,050818YES(FE+MADM(SKT)+DWDM(SKT)+DWDM(STR)+PE1(2-2-33),STD,,
126,CT2275,504_40621_Peddakannali_CT2275,2G+3G,NSN,553_35861_Peddakannali_CT2275,13.7762,79.73055,E-City,Peddakannali,Thottambedu,NH,Shelter,5379.0,"Peddakannali,Thottambedu (M),Chittoor DT.",Tirupati,SRI KALAHASTHI,517642.0,NBSNL,BSNL Infra,CT2275,GBT,40.0,37.0,Dual,Agisson,NSN,V.1,9/3/2010,S8K_ID,3.0,4-4-4,30/120/210,1.0,OFC,E1,,,,,,,,67.0,Tirupati,VII +,3/8/2017,30/120/210,RRH,3.0,37.0,Dual,Agisson,OFC,FE,,45 Mbps,,,,,,Tiruapti,,553.0,CT2275,CT2275,,,,,,,,,,270818YES(FE+MADM(SKT)+DWDM(SKT)+DWDM(STR)+PE1(2-2-33),45 Mbps,504.0,270818YES(FE+MADM(SKT)+DWDM(SKT)+DWDM(STR)+PE1(2-2-33),STD,,
127,CT2279,504_40631_Peradam_CT2279,2G,,,13.38669,79.92244,Rural,Peradam,Satyavedu,SH,OD Plinth,5402.0,"Peradam,,satyavedu mandal,Chittoor DT.",Tirupati,SATYAVEDU,517588.0,NBSNL,BSNL Infra,CT2279,GBT,40.0,37.0,Dual,Agisson,NSN,V.1,10/31/2010,BTS18K_OD,3.0,4-4-4,20/100/210,,DMW,,,Huawei,0.6 m,BSC67-28_Satyaveedu_CT2067A,E1,1.0,,67.0,Tirupati,,,,,,,,,,,,,,,,,,,,,CT2279,,,,,,CT2279,,,,G/FVC/HYD/1466305/2011,,,504.0,280818-YES-(E1+TRP-MADM+STR-STM),STD,,
128,CT2281,505_52811_Talupulapalli_CT2281,2G+3G,NSN,553_35872_Talupulapalli_CT2281,13.39488,79.05655,Rural,Talapulapalli,Puthalapattu,NH,Exchange,5410.0,"Talupulapalli,puthalapattu(M),Chittoor DT.",Chittoor,CHITTOOR,517124.0,BSNL,BSNL Infra,CT2281,GBT,40.0,36.0,Dual,Agisson,NSN,V.1,4/7/2010,S12K_ID,3.0,4-4-4,75/220/320,1.0,OFC,E1,,,,,,,,70.0,Tirupati,VII +,5/9/2017,75/220/320,RRH,3.0,36.0,Dual,Agisson,OFC,FE,,45 Mbps,,,,,,Tiruapti,,553.0,CT2281,CT2281,,,,,,,,,,270718-YES(fe+CTR(CAR)-MADM)+CTR-DWDM+TRP(DWDM)+PE1(2-2-23),45 Mbps,505.0,270718-YES(fe+CTR(CAR)-MADM)+CTR-DWDM+TRP(DWDM)+PE1(2-2-23),STD,,
129,CT2282,505_52821_Pothabolu_CT2282,2G,,,13.60408,78.56182,Rural,Pothabolu,Madanapalle,,OD Plinth,5392.0,"Pothabolu,Madanapalli mandal,Chittoor DT.",Rajampet,MADANAPALLI,517319.0,NBSNL,BSNL Infra,CT2282,GBT,40.0,37.0,Dual,AGISSON,NSN,V.1,10/3/2010,BTS18K_OD,3.0,4-4-4,50/170/270,,DMW,,,FIBERHOME,0.6 m,BSC68-40_Arogyavaram_CT2255B,E1,1.0,,68.0,Tirupati,,,,,,,,,,,,,,,,,,,,,CT2282,,,,,,CT2282,,,,2015813450@G/FXW/HYD/3156724/2016@CLEARED ONLINE,,,505.0,280818-YES-(E1+TRP-MADM+STR-STM),STD,,
130,CT2291,504_40641_Thondamanadu_CT2291,2G+3G,NSN,553_35881_Thondamanadu_CT2291,13.70675,79.66574,E-City,Thondamanadu,Srikalahasti,NH,Room,5378.0,"3-265,Thondamanadu,Srikalahasti (M),Chittoor DT.",Tirupati,SRI KALAHASTHI,517641.0,NBSNL,BSNL Infra,CT2291,GBT,40.0,40.0,Dual,Agisson,NSN,V.1,6/24/2010,BTS18K_ID,3.0,4-4-4,30/180/300,1.0,OFC,E1,,,,,,,,67.0,Tirupati,VII +,3/13/2017,30/180/300,RRH,3.0,39.0,Dual,MOBI (MD2F&3F-65-17&17DE10&8-2015),OFC,FE,,100 Mbps,,,,,,Tiruapti,,553.0,CT2291,CT2291,,,,,CT2291,,,,,140818YES(MADM(SKT)+DWDM(SKT)+DWDM(STR)+PE1(2-2-33),100 Mbps,504.0,140818YES(MADM(SKT)+DWDM(SKT)+DWDM(STR)+PE1(2-2-33),STD,,
131,CT2295,505_52951_Valasapalle_CT2295,2G+3G,NSN,553_35891_Valasapalli_CT2295,13.52348,78.55389,Rural,Valasapalli,Madanapalle,,Exchange,5392.0,"Valasapalle,S.Y.No 219,Valasapalle,Madanapalli mandal,Chittoor DT.-517325",Rajampet,MADANAPALLI,517325.0,NBSNL,BSNL Infra,CT2295,GBT,40.0,37.0,Dual,Agisson,NSN,V.1,10/3/2010,S8K_ID,3.0,4-4-4,60/120/250,1.0,OFC,E1,,,,,,,,68.0,Tirupati,VII +,1/16/2017,60/120/250,RRH,3.0,37.0,Dual,Agisson,OFC,FE,,100 Mbps,,,,,,Tiruapti,,553.0,CT2295,CT2295,,,,,,,,,2017265550@12/9/2017@,200618-YES(FX+MDP3/8(PTN)-CTR(PTN)+CTR-DWDM+TRP(DWDM)+PE2(2-2-27),100 Mbps,505.0,200618-YES(FX+MDP3/8(PTN)-CTR(PTN)+CTR-DWDM+TRP(DWDM)+PE2(2-2-27),STD,,
132,CT2298,504_40651_Vikruthamala_CT2298,2G+3G,NSN,553_35903_VIKRUTHAMALA_CT2298,13.61198,79.55379,Rural,Vikruthamala,Yerpedu,,OD Plinth,5377.0,"Vikruthamala telephone exge,papanaidu pet (M).",Tirupati,SRI KALAHASTHI,517526.0,NBSNL,BSNL Infra,CT2298,GBT,40.0,35.0,Dual,Agisson,NSN,V.1,6/4/2010,BTS18K_OD,3.0,4-4-4,0/120/270,1.0,OFC,E1,,,,,,,,67.0,Tirupati,VII +,3/15/2017,0/120/270,RRH,3.0,35.0,Dual,Agisson,OFC,FE,,45 Mbps,,,,,,Tiruapti,,553.0,CT2298,CT2298,,,,,CT2298,,,,,070818-YES-(fE+CDR_PTN-FX+NIB+PE-GE1(2-2-19)),45 Mbps,504.0,070818-YES-(fE+CDR_PTN-FX+NIB+PE-GE1(2-2-19)),STD,,
133,CT2300,504_40661_Ruya_CT2300,2G+3G,ZTE,346_5953_Ruya_CT2300B,13.64433,79.40616,DHQ,Tirupati,Tirupati (Urban),SH,Room,5383.0,"TRP_Ruya,Tirupati,Chittoor DT.",Tirupati,CHANDRAGIRI,517507.0,NBSNL,BSNL Infra,CT2300,RTP,6.0,16.0,Dual,MOBI (MB2F&3F-65-17&17DE10&8-2015),NSN,IV.5,4/30/2009,BTS6K_OD_AC,3.0,2-2-2,100/220/330,1.0,OFC,E1,,,,,,,,58.0,Tirupati,VII,7/4/2014,100/220/330,RRH,3.0,16.0,Dual,MOBI (MD2F&3F-65-17&17DE10&8-2015),OFC,Optical,,100 Mbps,,,,,,Tiruapti,,346.0,CT2300,,,,,,CT2300,,,,,,100 Mbps,504.0,190718-YES-(E1+TRP-MADM+CAR-STM),TRP,,
134,CT2301,505_53011_CTR_Collectrate_CT2301,2G+4G,NSN,4G_35911_Collectrate_CT2301,13.18318,79.09617,E-City,CHITTOOR,Chittoor,NH,Room,5421.0,"collector office, chittoor,Chittoor DT.",Chittoor,CHITTOOR,517002.0,NBSNL,BSNL Infra,CT2301,RTP,9.0,18.0,Dual,MOBI (MB2F&3F-65-17&17DE10&8-2015),NSN,IV.5,10/26/2009,BTS6K_OD_AC,3.0,4-4-4,120/200/250,1.0,OFC,E1,,,,,,,,60.0,Tirupati,V.1,2/18/2014,120/200/250,RRH,3.0,18.0,Dual,MOBI (MD2F&3F-65-17&17DE10&8-2015),OFC,FE,,100 Mbps,,,,,,Tiruapti,,4.0,CT2301,CT2301,,,,,CT2301,,,,,"250618-YES(CPE,fe+CTR(CAR)-MADM)+CTR-DWDM+TRP(DWDM)+PE1(2-2-23)",100 Mbps,505.0,"250618-YES(CPE,fe+CTR(CAR)-MADM)+CTR-DWDM+TRP(DWDM)+PE1(2-2-23)",CTR,,
135,CT2302,504_40671_Pudipatla_CT2302,2G+3G,ZTE,346_5955_Pudipatla_CT2302A,13.613879,79.3615,DHQ,Pudipatla,Tirupati (Rural),RC,Shelter,5375.0,"Pudipatla,Tirupati Rural.",Tirupati,CHANDRAGIRI,517505.0,NBSNL,BSNL Infra,CT2302,GBT,40.0,37.0,Dual,Agisson,NSN,V.1,10/21/2011,BTS18K_ID,3.0,4-4-4,20/180/240,1.0,OFC,E1,,,,,,,,58.0,Tirupati,V.1,11/6/2013,20/180/240,RRH,3.0,37.0,Dual,Agisson,OFC,FE,,100 Mbps,,,,,,Tiruapti,,346.0,CT2302,,,,,,CT2302,,,,,,100 Mbps,504.0,"220718-YES-(DMW,E1+TRP-MADM+CAR-STM)",TRP,,
136,CT2305,504_40681_Satrawada_CT2305,2G,,,13.32041,79.54844,Rural,Satrawada,Karvetinagar,SH,Room,5408.0,"Satrawada,Karvtinagar(M),Chittoor DT.",Tirupati,PUTTUR,517582.0,NBSNL,BSNL Infra,CT2305,RTP,9.0,18.0,Dual,Agisson,NSN,V.1,10/21/2011,BTS6K_OD_AC,3.0,2-2-2,20/100/280,1.0,OFC,E1,,,,,,,,67.0,Tirupati,,,,,,,,,,,,,,,,,,,,,CT2305,,,,,,CT2305,,,,,,,504.0,190818-YES-(E1+STR-MADM+STR-STM),STD,,
137,CT2306,505_53061_PunganurMW_CT2306,2G+4G,NSN,4G_35923_PunganurMW_CT2306,13.38551,78.58295,E-City,Punganur,Punganur,SH,Room,5415.0,"Micro wave stn,punganur.,Chittoor DT.",Rajampet,PUNGANUR,517247.0,BSNL,BSNL Infra,CT2306,GBT,100.0,40.0,Dual,Agisson,NSN,V.1,3/28/2012,BTS6K_OD_AC,3.0,4-4-4,70/210/290,1.0,OFC,E1,,,,,,,,70.0,Tirupati,VII,2/20/2014,70/210/290,RRH,3.0,40.0,Dual,MOBI (MD2F&3F-65-17&17DE10&8-2015),OFC,FE,,100 Mbps,,,,,,Tiruapti,,4.0,CT2306,CT2306,,,,,CT2306,,,,,250818-YES(FX+PNG(PTN)-CTR(PTN)+CTR-DWDM+TRP(DWDM)+PE2(2-2-27),100 Mbps,505.0,250818-YES(FX+PNG(PTN)-CTR(PTN)+CTR-DWDM+TRP(DWDM)+PE2(2-2-27),PUG,,
138,CT2309,505_53091_MDP_PTClny_CT2309,2G+4G,NSN,4G_35932_MDP-PTColony_CT2309,13.55977,78.49305,E-City,Madanapalle,Madanapalle,,Room,5392.0,"P&T Colony, Madanapalle, Chittoor Dt",Chittoor,MADANAPALLI,517325.0,NBSNL,BSNL Infra,CT2309,RTP,9.0,18.0,Dual,MOBI (MB2F&3F-65-17&17DE10&8-2015),NSN,V.1,1/22/2013,S8K_ID,3.0,4-4-4,0/100/170,1.0,OFC,E1,,,,,,,,68.0,Tirupati,VII,3/27/2014,0/100/170,RRH,3.0,18.0,Dual,MOBI (MD2F&3F-65-17&17DE10&8-2015),OFC,FE,,100 Mbps,,,,,,Tiruapti,,4.0,CT2309,CT2309,,,,,,,,,,230718-YES-(FX(E1)+MADM(STR)+PE2(2-2-29)),100 Mbps,505.0,230718-YES-(FX(E1)+MADM(STR)+PE2(2-2-29)),MDP,,
139,CT2312,504_40691_ShivaJyothiNgr_CT2312,2G+3G,ZTE,346_5956_Sivajyothingr_CT2312A,13.65113,79.42678,DHQ,Tirupati,Tirupati (Urban),SH,Room,5383.0,"Sivajyothi nagar, Tirupati",Tirupati,CHANDRAGIRI,517501.0,NBSNL,BSNL Infra,CT2312,RTP,9.0,18.0,Dual,MOBI (MB2F&3F-65-17&17DE10&8-2015),NSN,V.1,6/27/2012,S8K_ID,3.0,4-4-4,60/210/290,1.0,OFC,E1,,,,,,,,58.0,Tirupati,V.1,6/2/2014,60/210/290,RRH,3.0,18.0,Dual,MOBI (MD2F&3F-65-17&17DE10&8-2015),OFC,FE,,100 Mbps,,,,,,Tiruapti,,346.0,CT2312,,,,,,,,,,,,100 Mbps,504.0,"200718-YES-(DMW,E1+TRP-MADM+CAR-STM)",TRP,,
140,CT2314,504_40701_SKHT-Temple_CT2314,2G+3G,NSN,553_35943_SKHT-Temple_CT2314,13.74784,79.69771,E-City,Srikalahasti,Srikalahasti,,Room,5378.0,"BSNL(CT2314) PRO OFFICE,PRAKASHPARK HOTEL,SRIKALAHSTI TEMPLE,SRIKALAHASTI,CHITTOOR DIST,",Tirupati,SRI KALAHASTHI,517644.0,NBSNL,BSNL Infra,CT2314,RTP,9.0,22.0,Dual,Agisson,NSN,V.1,7/26/2012,S8K_ID,3.0,4-4-4,340/200/270,,DMW,,,NEW NEC,0.6 m,BSC67-23_Srikalhasthi3_CT2167A,E1,1.0,,67.0,Tirupati,VII,9/6/2016,340/200/270,RRH,3.0,22.0,Dual,MOBI (MD2F&3F-65-17&17DE10&8-2015),DMW,,,45 Mbps,NEW NEC,0.6 m,CT2167,FE,,Tiruapti,50Mbps,553.0,CT2314,CT2314,,,,,,,,,2016949257@G/FXW/HYD/3548131/2016@K-19012/G/FVC/HYD/3547937/2016-CFA DTD 22-11-16,310718YES(MADM(SKT)+DWDM(SKT)+DWDM(STR)+PE1(2-2-33),45 Mbps,504.0,310718YES(MADM(SKT)+DWDM(SKT)+DWDM(STR)+PE1(2-2-33),SKT,,
141,CT5000,505_53101_MGStreet_VIOM_CT5000,2G+4G,NSN,4G_35951_MG-Street_CT5000,13.21356,79.0965,E-City,CHittoor,Chittoor,SH,Shelter,5421.0,"h.No: 18-486,MGR street ,Palamaneru road,Saraswathi auto mobile,Near bharat petrol bunk,Chitoor ,Andra pradesh-517001",Chittoor,CHITTOOR,517001.0,IP-VIOM,VIOM Networks,ANPCHI2184,RTT,18.0,18.0,Dual,Agisson,NSN,VII,3/13/2013,BTS18K_ID,3.0,4-4-4,30/70/280,1.0,OFC,E1,,,,,,,,60.0,Tirupati,VII,8/21/2014,30/70/280,RRH,3.0,18.0,Dual,MOBI (MD2F&3F-65-17&17DE10&8-2015),OFC,FE,,100 Mbps,,,,,,Tiruapti,,4.0,CT5000,CT5000,,,,,CT5000,,,,,040718-YES(FX+CTR(PTN)+CTR-DWDM+TRP(DWDM)+PE2(2-2-25),100 Mbps,505.0,040718-YES(FX+CTR(PTN)+CTR-DWDM+TRP(DWDM)+PE2(2-2-25),CTR,,
142,CT5001,505_53111_EshwarammaCly_ATC_CT5001,2G+4G,NSN,4G_35963_EswrmaCly_ATC_CT5001,13.54804,78.50244,E-City,Madanapalli,Madanapalle,,Shelter,5392.0,"SyNo-86-1,Devalamstreetextension,Madanapallitown,Chittoor(D),AndhraPradesh. PIN:517330",Rajampet,MADANAPALLI,517330.0,IP-ATC,ATC,AP5008,RTT,15.0,21.0,Dual,MOBI (MB2F&3F-65-17&17DE10&8-2015),NSN,VII,6/21/2013,BTS18K_ID,3.0,4-4-4,50/140/240,1.0,OFC,E1,,,,,,,,68.0,Tirupati,VII,2/19/2014,50/140/240,RRH,3.0,21.0,Dual,MOBI (MD2F&3F-65-17&17DE10&8-2015),OFC,FE,,100 Mbps,,,,,,Tiruapti,,4.0,CT5001,CT5001,,,,,,,,,,130718-YES-(FX(E1)+MADM(STR)+PE2(2-2-29)),100 Mbps,505.0,130718-YES-(FX(E1)+MADM(STR)+PE2(2-2-29)),MDP,,
143,CT5003,504_40711_Kapilatheertham_GTL_CT5003,2G+3G,ZTE,346_5958_KapilaTheertham_GTL_CT5003A,13.64933,79.42298,DHQ,Tirupati,Tirupati (Urban),SH,Shelter,5383.0,"H.No:18-3-60/D1, SANTHI NAGAR, YALAMURI BUILDING, KD ROAD, TIRUPATHI, CHITTOOR DIST, ANDHRA PRADESH-517501",Tirupati,CHANDRAGIRI,517501.0,IP-GTL,GTL,APR/RTP/B/09379,RTP,9.0,21.0,Dual,MOBI (MB2F&3F-65-17&17DE10&8-2015),NSN,VII,8/22/2014,BTS18K_ID,3.0,4-4-4,0/140/280,1.0,OFC,E1,,,,,,,,58.0,Tirupati,VII,8/25/2014,0/140/280,RRH,3.0,21.0,Dual,MOBI (MD2F&3F-65-17&17DE10&8-2015),OFC,FE,,100 Mbps,,,,,,Tiruapti,,346.0,CT5003,,,,,,,,,,,,100 Mbps,504.0,"210718-YES-(DMW,E1+TRP-MADM+CAR-STM)",TRP,,
144,CT5004,505_53141_DurgangrCly_VIOM_CT5004,2G+4G,NSN,4G_35971_DurgnagarColony_VIOM_CT5004,13.19112,79.09447,E-City,CHITTOOR,Chittoor,NH,Shelter,5421.0,"NEAR P-V-R-K COLLEGE,VELLORE ROAD,CHITTOOR 517002",Chittoor,CHITTOOR,517002.0,IP-VIOM,VIOM Networks,ANPCHI1717,GBT,40.0,35.0,Dual,MOBI (MB2F&3F-65-17&17DE10&8-2015),NSN,VII,5/24/2013,BTS18K_ID,3.0,4-4-4,0/120/220,,DMW,,,NEW NEC,0.6 m,BSC60-31_CTR_Greamspet_CT2002A,E1,1.0,,60.0,Tirupati,VII,4/4/2014,0/120/220,RRH,3.0,35.0,Dual,MOBI (MD2F&3F-65-17&17DE10&8-2015),DMW,,,100 Mbps,NEW NEC,0.6 m,CT2002,FE,,Tiruapti,40Mbps,4.0,CT5004,CT5004,,,,,CT5004,,,,2015812420@G/FXW/HYD/3156700/2016@K-19012-G/FVC/HYD2891034/2015-CFA DTD 9-12-16,200918-YES(fe+CTR(CAR)-MADM)+CTR-DWDM+TRP(DWDM)+PE1(2-2-23),100 Mbps,505.0,200918-YES(fe+CTR(CAR)-MADM)+CTR-DWDM+TRP(DWDM)+PE1(2-2-23),CTR,,
145,CT5005,505_53151_CTR_RagimanSt_VIOM_CT5005,2G+4G,NSN,4G_35983_RagimanuStreet_CT5005,13.22851,79.09705,E-City,CHITTOOR,Chittoor,,Shelter,5421.0,"SELVOME VINAYAKA TEMPLE,SANTHA PET,SRAVAN PALLI, ChittoorDist,AP- 517001",Chittoor,CHITTOOR,517001.0,IP-VIOM,VIOM Networks,ANPCHI1648,GBT,40.0,35.0,Dual,MOBI (MB2F&3F-65-17&17DE10&8-2015),NSN,VII,5/22/2013,S12K_ID,3.0,4-4-4,0/180/260,,DMW,,,NEW NEC,0.6 m,BSC60-27_CTR_Santhpeta_CT2004B,E1,1.0,,60.0,Tirupati,VII,5/21/2014,0/180/260,RRH,3.0,35.0,Dual,MOBI (MD2F&3F-65-17&17DE10&8-2015),DMW,,,100 Mbps,NEW NEC,0.6 m,CT2004,FE,,Tiruapti,100 Mbps,4.0,CT5005,CT5005,,,,,,,,,2015812433@G/FXW/HYD/3156701/2016@K-19012/G/FXW/HYD/2670760/2016-CFA 9-12-16,"260618-YES(DMW,fe+CTR(CAR)-MADM)+CTR-DWDM+TRP(DWDM)+PE1(2-2-23)",100 Mbps,505.0,"260618-YES(DMW,fe+CTR(CAR)-MADM)+CTR-DWDM+TRP(DWDM)+PE1(2-2-23)",CTR,,
146,CT5008,504_40731_Jeevakona2_VIOM_CT5008,2G+3G,ZTE,346_5961_CTR_Jeevakona_VIOM_CT5008A,13.65152,79.43088,DHQ,Tirupati,Tirupati (Urban),,Shelter,5383.0,"B. Gangadharam, S/O Pichanna, H.NO 8-377A Sai Nagar, Satyanarayanapuram, Tirupati.",Tirupati,CHANDRAGIRI,517501.0,IP-VIOM,VIOM Networks,ANPQRL0050,RTT,18.0,24.0,Dual,MOBI (MB2F&3F-65-17&17DE10&8-2015),NSN,VII,4/1/2013,S12K_ID,3.0,4-4-4,45/140/280,1.0,OFC,E1,,,,,,,,58.0,Tirupati,VII,12/18/2013,45/140/280,RRH,3.0,24.0,Dual,MOBI (MD2F&3F-65-17&17DE10&8-2015),OFC,FE,,100 Mbps,,,,,,Tiruapti,,346.0,CT5008,,,,,,,,,,,,100 Mbps,504.0,"200718-YES-(DMW,E1+TRP-MADM+CAR-STM)",TRP,,
147,CT5009,504_40741_RDO-Office_CT5009,2G+3G,ZTE,346_5962_RDO_Office_CT5009A,13.62209,79.41636,DHQ,TIRUPATI,Tirupati (Urban),SH,Shelter,5383.0,"RDO OFFICE,AIRBYPASS ROAD,TIRUPATI",Tirupati,CHANDRAGIRI,517501.0,NBSNL,BSNL Infra,CT5009,RTT,12.0,18.0,Dual,MOBI (MB2F&3F-65-17&17DE10&8-2015),NSN,VII,7/10/2014,S12K_ID,3.0,4-4-4,60/180/260,2.0,OFC,E1,,,,,,,,58.0,Tirupati,VII,7/15/2014,60/180/260,RRH,3.0,18.0,Dual,MOBI (MD2F&3F-65-17&17DE10&8-2015),OFC,FE,,65 Mbps,,,,,,Tiruapti,,346.0,CT5009,,,,,,,,,,,,65 Mbps,504.0,170718-YES-(E1+TRP-MADM+CAR-STM),TRP,,
148,CT5010,505_53201_NGVPalliBuStand_VIOM_CT5010,2G+4G,NSN,4G_36001_NGVPalliBuStand_VIOM_CT5010,13.57206,78.50049,E-City,Madanapalle,Madanapalle,SH,Shelter,5392.0,"H.no.2-250-45-2, , Neeruguttapalli, Madanapalli. Chittoor PIN:517325",Rajampet,MADANAPALLI,517325.0,IP-VIOM,VIOM Networks,ANPCHI1456,RTT,24.0,24.0,Dual,MOBI (MB2F&3F-65-17&17DE10&8-2015),NSN,VII,4/5/2013,BTS18K_ID,3.0,4-4-4,160/220/340,1.0,OFC,E1,,,,,,,,68.0,Tirupati,VII,7/28/2014,160/220/340,RRH,3.0,24.0,Dual,MOBI (MD2F&3F-65-17&17DE10&8-2015),OFC,FE,,100 Mbps,,,,,,Tiruapti,,4.0,CT5010,CT5010,,,,,CT5010,,,,,140718-YES-(FX(E1)+MADM(STR)+PE2(2-2-29)),100 Mbps,505.0,140718-YES-(FX(E1)+MADM(STR)+PE2(2-2-29)),MDP,,
149,CT5011,504_40751_DasariMatam_ITIL_CT5011,2G+3G,ZTE,346_5963_Dasarimatam_ASD_CT5011A,13.62699,79.42408,DHQ,Tiruapti,Tirupati (Urban),RC,Shelter,5383.0,drr lodge; beside D.R.mahal; tirupathi.;address;D.R.mahal,Tirupati,CHANDRAGIRI,517501.0,IP-ITIL,Ascend Telecom Infrastructure PVT LTD,5580,RTT,12.0,21.0,Dual,Agisson,NSN,VII,2/19/2013,S12K_ID,3.0,4-4-4,160/240/340,,DMW,,,NEW NEC,0.6 m,BSC58-21_TRP_TUDA_CT2076A,E1,1.0,,58.0,Tirupati,VII,2/24/2014,160/240/340,RRH,3.0,21.0,Dual,Agisson,DMW,,,100 Mbps,NEW NEC,0.6 m,CT2076,FE,,Tiruapti,80 Mbps,346.0,CT5011,,,,,,,,,,2015812054@G/FXW/HYD/3156686/2016@K-19012-G/FVC/HYD2891034/2015-CFA DTD 9-12-16,,100 Mbps,504.0,"140718-YES-(CPE,FE+TRP-MADM+PE2(2-2-31))",TRP,,
150,CT5014,504_40781_Hotelchakri_GTL_CT5014,2G+3G,ZTE,346_5965_TPT_HotelChakri_GTL_CT5014A,13.62313,79.42973,DHQ,Tirupati,Tirupati (Urban),SH,Room,5383.0,"CHAKRIE REIDENCY HOTEL #19-9-29/A,TIRUCHANUR ROAD,SANKARAMBADI CIRCLE, TIRUPATHI PIN:517501",Tirupati,CHANDRAGIRI,517503.0,IP-GTL,GTL,APR/RTP/K/15058,RTP,6.0,24.0,Dual,MOBI (MB2F&3F-65-17&17DE10&8-2015),NSN,VII,4/5/2013,BTS18K_ID,3.0,4-4-4,340/90/260,2.0,OFC,E1,,,,,,,,58.0,Tirupati,VII,8/22/2013,340/90/260,RRH,3.0,24.0,Dual,MOBI (MD2F&3F-65-17&17DE10&8-2015),OFC,FE,,100 Mbps,,,,,,Tiruapti,,346.0,CT5014,,,,,,,,,,,,100 Mbps,504.0,"140718-YES-(CPE,FE+TRP-MADM+PE2(2-2-31))",TRP,,
151,CT5015,504_40791_RajaGardens_GTL_CT5015,2G+4G,NSN,4G_36421_RajGardns_GTL_CT5015,13.43238,79.55534,E-City,Puttur,Puttur,,Shelter,5407.0,"H-NO:11-2A,Raja Gardens,Nagari Road,Puttur,Chittoor dt.517583",Tirupati,PUTTUR,517583.0,IP-GTL,GTL,APR/RTT/K/15083,RTT,15.0,21.0,Dual,MOBI (MB2F&3F-65-17&17DE10&8-2015),NSN,VII,3/13/2013,S12K_ID,3.0,4-4-4,5/110/240,,DMW,,,NEW NEC,0.6 m,BSC67-14_Puttur_CT2065A,E1,1.0,,67.0,Tirupati,VII,9/23/2016,5/110/240,RRH,3.0,21.0,Dual,MOBI (MD2F&3F-65-17&17DE10&8-2015),DMW,,,100 Mbps,NEW NEC,0.6 m,CT2065,FE,,Tiruapti,25Mbps,4.0,CT5015,CT5015,,CT5015,,,,,,,2015813436@G/FXW/HYD/3156716/2016@CLEARED ONLINE,190818YES(fe+CPAN(PTR)+DWDM(PTR)+DWDM(TRP_STR)+PE1(2-2-21),100 Mbps,504.0,180818YES(fe+CPAN(PTR)+DWDM(PTR)+DWDM(TRP_STR)+PE1(2-2-21),PUT,,
152,CT5016,504_40801_SMangapuram_GTL_CT5016,2G+3G,HUW,102_0101_SMANGAPURAM_GTL_CT5016A,13.60566,79.33043,DHQ,Srinivasamangapuram,Chandragiri,NH,Shelter,5384.0,"S.Y.No:592-4A,Mr. SRINIVASULU, SRINIVASA RESIDENCY,SRINIVASA MANGAPURAM(V),CHANDRAGIRI(M), CHITTOOR (DT),PIN:517101. Mobile No: 9440376824",Tirupati,CHANDRAGIRI,517101.0,IP-GTL,GTL,APR/GBT/K/15248,GBT,40.0,40.0,Dual,MOBI (MB2F&3F-65-17&17DE10&8-2015),NSN,VII,4/2/2013,S12K_ID,3.0,4-4-4,140/270/340,,DMW,,,Huawei,0.6 m,BSC58-17_Chandragiri_CT2032A,E1,1.0,,58.0,Tirupati,VII +,10/26/2016,140/270/340,RRH,3.0,40.0,Dual,MOBI (MD2F&3F-65-17&17DE10&8-2015),DMW,,,100 Mbps,Huawei,0.6 m,CT2032,FE,,Tiruapti,50Mbps,102.0,CT5016,,,,,,,,,,2015812308@G/FXW/HYD/3156691/2016@K-19012-G/FVC/HYD2891034/2015-CFA DTD 9-12-16,,100 Mbps,504.0,300818-YES-(E1+STR-MADM+STR-STM),TRP,,
153,CT5017,505_53211_CTR-Sawanpalli_VIOM_CT5017,2G+4G,NSN,4G_36022_Sawanapalli_VIOM_CT5017,13.22876,79.11124,E-City,CHITTOOR,Chittoor,SH,Shelter,5421.0,"SY-NO-61, KATAMANCHI VILLAGE, CHITTOR MUNICIPALITY, CHITTOR DIST-517001.",Chittoor,CHITTOOR,517001.0,IP-VIOM,VIOM Networks,ANPCHI2841,RTT,18.0,28.0,Dual,MOBI (MB2F&3F-65-17&17DE10&8-2015),NSN,VII,8/26/2013,S12K_ID,3.0,4-4-4,25/170/240,,DMW,,,NEW NEC,0.6 m,BSC60-21_Chittoor_OFC_CT2003A,E1,1.0,,60.0,Tirupati,VII,8/23/2016,25/170/240,RRH,3.0,28.0,Dual,MOBI (MD2F&3F-65-17&17DE10&8-2015),DMW,,,100 Mbps,NEW NEC,0.6 m,CT2003,FE,,Tiruapti,60Mbps,4.0,CT5017,CT5017,,,,,,,,,2015812449@G/FXW/HYD/3156702/2016@K-19012-G/FVC/HYD2891034/2015-CFA DTD 9-12-16,190718-YES(FX+CTR(PTN)+CTR-DWDM+TRP(DWDM)+PE2(2-2-25),100 Mbps,505.0,190718-YES(FX+CTR(PTN)+CTR-DWDM+TRP(DWDM)+PE2(2-2-25),CTR,,
154,CT5018,504_40811_Satyaveedu_VIOM_CT5018,2G+4G,NSN,4G_36032_Satyaved_VIOM_CT5018,13.43718,79.9547,E-City,Satyavedu,Satyavedu,SH,Shelter,5402.0,"Survey No. 333/6, Satyaveedu Village & Mandal, Chittor District,",Tirupati,SATYAVEDU,517588.0,IP-VIOM,VIOM Networks,ANPCHI0049,GBT,40.0,30.0,Dual,MOBI (MB2F&3F-65-17&17DE10&8-2015),NSN,VII,6/24/2013,S12K_ID,3.0,4-4-4,0/120/240,1.0,OFC,E1,,,,,,,,67.0,Tirupati,VII,10/5/2016,0/120/240,RRH,3.0,30.0,Dual,MOBI (MD2F&3F-65-17&17DE10&8-2015),OFC,FE,,50 Mbps,,,,,,Tiruapti,,4.0,CT5018,CT5018,,,,,,,,,,230818YES(MADM(SKT)+DWDM(SKT)+DWDM(STR)+PE1(2-2-33),50 Mbps,504.0,230818YES(MADM(SKT)+DWDM(SKT)+DWDM(STR)+PE1(2-2-33),STV,,
155,CT5019,505_53221_Thenepalli_VIOM_CT5019,2G+3G,NSN,553_36042_TENEPALI_VIOM_CT5019,13.372,79.0861,Rural,Thenepalle,Puthalapattu,NH,Shelter,5410.0,"Sy.No:564/12/A, Thenepalli vill, Puthalapattu Mandal, Chittore-517124",Chittoor,CHITTOOR,517124.0,IP-VIOM,VIOM Networks,ANPCHI2162,GBT,50.0,40.0,Dual,MOBI (MB2F&3F-65-17&17DE10&8-2015),NSN,VII,12/7/2013,BTS18K_ID,3.0,4-4-4,30/165/315,,DMW,,,NEW NEC(HFCL),0.6 m,BSC60-17_Putalapattu_CT2029A,E1,1.0,,60.0,Tirupati,VII +,4/1/2017,30/165/315,RRH,3.0,39.0,Dual,MOBI (MD2F&3F-65-17&17DE10&8-2015),DMW,,,100 Mbps,NEW NEC(HFCL),0.6 m,CT2029,FE,,Tiruapti,30Mbps,553.0,CT5019,CT5019,,,,,CT5019,,,,2015813397@G/FXW/HYD/3156707/2016@K-19012-G/FVC/HYD2891034/2015-CFA DTD 9-12-16,120718-YES(DMW+fe+CTR(CAR)-MADM)+CTR-DWDM+TRP(DWDM)+PE1(2-2-23),100 Mbps,505.0,120718-YES(DMW+fe+CTR(CAR)-MADM)+CTR-DWDM+TRP(DWDM)+PE1(2-2-23),STD,,
156,CT5020,504_40821_PTR-PunnamiHotel_VIOM_CT5020,2G+4G,NSN,4G_36431_PunnamiHotel_CT5020,13.44753,79.55409,E-City,PUTTUR,Puttur,NH,Shelter,5407.0,VIOM(ANPCHI2745) Sy.no. 216/13B; Puttur Village & Mandal; Chittoor Dist.,Tirupati,PUTTUR,517583.0,IP-VIOM,VIOM Networks,ANPCHI2745,GBT,40.0,35.0,Dual,MOBI (MB2F&3F-65-17&17DE10&8-2015),NSN,VII,8/29/2013,BTS18K_ID,3.0,4-4-4,170/220/320,,DMW,,,NEW NEC,0.6 m,BSC67-14_Puttur_CT2065A,E1,1.0,,67.0,Tirupati,VII,3/28/2014,170/220/320,RRH,3.0,35.0,Dual,MOBI (MD2F&3F-65-17&17DE10&8-2015),DMW,,,100 Mbps,NEW NEC,0.6 m,CT2065,FE,,Tiruapti,30Mbps,4.0,CT5020,CT5020,,CT5020,,,CT5020,,,,2015813426@G/FXW/HYD/3156714/2016@CLEARED ONLINE,180818-YES(Fe+PIL(PTN)+CTR-DWDM+TRP(DWDM)+PE2(2-2-27),100 Mbps,504.0,180818-YES(Fe+PIL(PTN)+CTR-DWDM+TRP(DWDM)+PE2(2-2-27),PUT,,
157,CT5021,505_53231_PakalaBusStand_VIOM_CT5021,2G+4G,NSN,4G_36051_Pakala BS_VIO_CT5021,13.44945,79.11978,E-City,Pakala,Pakala,RC,Shelter,5396.0,"MURALI COMLEX,BESIDE BUS STAND,B.N ROAD,PAKALA,CHITTOR DIST PIN:517112",Tirupati,PAKALA,517112.0,IP-VIOM,VIOM Networks,ANPCHI1316,RTT,24.0,27.0,Dual,Agisson,NSN,VII,2/26/2013,S12K_ID,3.0,4-4-4,20/110/250,1.0,OFC,E1,,,,,,,,60.0,Tirupati,VII +,3/9/2017,20/110/250,RRH,3.0,27.0,Dual,Agisson,OFC,FE,,100 Mbps,,,,,,Tiruapti,,4.0,CT5021,CT5021,,,,,,,,,,210618-YES(FX+PKL(PTN)+CTR-DWDM+TRP(DWDM)+PE2(2-2-27),100 Mbps,505.0,210618-YES(FX+PKL(PTN)+CTR-DWDM+TRP(DWDM)+PE2(2-2-27),PKL,,
158,CT5022,505_53241_Kukkalapalle_VIOM_CT5022,2G+3G,NSN,553_36062_KUKALPAL_VIOM_CT5022,13.19203,79.05706,E-City,Kukkalapalle,Yadamarri,NH,Shelter,5430.0,"Sy.No.152/2C, Situated at Kukkalapalle Village, Yadamarri Mandal, Chittoor Dist.",Chittoor,CHITTOOR,517001.0,IP-VIOM,VIOM Networks,ANPCHI2760,GBT,40.0,40.0,Dual,MOBI (MB2F&3F-65-17&17DE10&8-2015),NSN,VII,7/14/2013,BTS18K_ID,3.0,4-4-4,30/190/260,,DMW,,,NEW NEC,0.6 m,BSC60-06_Yadamarri_CT2080A,E1,1.0,,60.0,Tirupati,VII +,4/7/2017,30/190/260,RRH,3.0,40.0,Dual,MOBI (MD2F&3F-65-17&17DE10&8-2015),DMW,,,30 Mbps,NEW NEC,0.6 m,CT2080,FE,,Tiruapti,45Mbps,553.0,CT5022,CT5022,,,,,CT5022,,,,2015812464@G/FXW/HYD/3156703/2016@K-19012-G/FVC/HYD2891034/2015-CFA DTD 9-12-16,130718-YES(DMW+fe+CTR(CAR)-MADM)+CTR-DWDM+TRP(DWDM)+PE1(2-2-23),30 Mbps,505.0,130718-YES(DMW+fe+CTR(CAR)-MADM)+CTR-DWDM+TRP(DWDM)+PE1(2-2-23),STD,,
159,CT5024,504_40831_Renigunta3_CT5024,2G+3G,ZTE,346_6026_Renigunta3_CT5024A,13.63615,79.50425,E-City,Renigunta,Renigunta,RC,Room,5376.0,"Renigunta3,sq no;794near saibaba temple ,gm street,renigunta.517520",Tirupati,CHANDRAGIRI,517520.0,NBSNL,BSNL Infra,CT5024,RTP,6.0,21.0,Dual,XAHT,NSN,VII,2/17/2015,S12K_ID,3.0,4-4-4,60/220/310,,DMW,,,NEW NEC,0.6 m,BSC58-19_TRP_Renigunta_CT2023A,E1,1.0,,58.0,Tirupati,VII,7/13/2016,60/220/310,OD,3.0,21.0,Mono,MOBI (MD2F&3F-65-17&17DE10&8-2015),DMW,,,100 Mbps,NEW NEC,0.6 m,CT2023,FE,,Tiruapti,60 Mbps,346.0,CT5024,,,,,,,,,,2016949264@G/FXW/HYD/3548127/2016@K-19012/G/FVC/HYD/1982154/2013-CFA DT 19/12/16,,100 Mbps,504.0,"090718-YES-(DMW,FE+RENI_PTN-FX3/6+NIB-4/5+PE-GE1(2-2-19))",TRP,,
160,CT5027,504_40841_Gundrajukuppam_CT5027,2G+4G,NSN,4G_36072_GUNDRAJUKUPAM_CT5027,13.34208,79.57011,E-City,Gundrajukuppam,Nagari,NH,Shelter,5406.0,"Sri A.Madhava Reddy, Sy.No 230/1 Gundrajukuppam (V), Nagari Mandal,",Chittoor,PUTTUR,517592.0,NBSNL,BSNL Infra,CT5027,GBT,40.0,38.0,Dual,MOBI (MB2F&3F-65-17&17DE10&8-2015),NSN,VII,3/21/2014,S12K_ID,3.0,4-4-4,80/160/280,,DMW,,,NEW NEC,0.6 m,BSC67-91_Ekambarakupam_CT9002A,E1,1.0,,67.0,Tirupati,VII +,4/3/2017,80/160/280,RRH,3.0,38.0,Dual,MOBI (MD2F&3F-65-17&17DE10&8-2015),DMW,,,100 Mbps,NEW NEC,0.6 m,CT9002,FE,,Tiruapti,50Mbps,4.0,CT5027,CT5027,,,,,,,,,2015813438@G/FXW/HYD/3156717/2016@CLEARED ONLINE,"080618YES(DMW,fe+MADM1-3-1(EKM)+MADM(PTR)+DWDM(PTR)+DWDM(TRP_STR)+PE1(2-2-21)",100 Mbps,504.0,"290718YES(DMW,fe+MADM1-3-1(EKM)+MADM(PTR)+DWDM(PTR)+DWDM(TRP_STR)+PE1(2-2-21)",STD,,
161,CT5030,504_40851_Karani_CT5030,2G,,,13.34317,79.86708,Rural,High Way Karani,Nagalapuram,NH,Shelter,5403.0,"S.Manimeghlai,Karani(v),Nagalapuram (M).",Tirupati,SATYAVEDU,517589.0,NBSNL,BSNL Infra,CT5030,GBT,40.0,38.0,Dual,MOBI (MB2F&3F-65-17&17DE10&8-2015),NSN,VII,3/29/2014,S12K_ID,3.0,4-4-4,140/210/300,1.0,OFC,E1,,,,,,,,67.0,Tirupati,,,,,,,,,,,,,,,,,,,,,CT5030,,,,,,,,,,,,,504.0,010818-YES-(E1+STR-MADM+STR-STM),STD,,
162,CT5032,505_53251_Nalagampalli_CT5032,2G+3G,NSN,553_36081_NGPALLI_CT5032,13.20521,78.94154,Rural,Nalagampalle,Bangarupalem,NH,Shelter,5429.0,"Sy.No.396/3A, Nalagampalle, Bangarupalem mandal",Chittoor,BANGARUPALYAM,517416.0,IP-ATC,ATC,APCHBS1738,GBT,40.0,35.0,Dual,MOBI (MB2F&3F-65-17&17DE10&8-2015),NSN,VII,7/8/2013,S12K_OD,3.0,4-4-4,0/90/220,,DMW,,,NEW NEC,0.6 m,BSC70-19_Bangarupalem_CT2001A,E1,1.0,,70.0,Tirupati,VII +,4/7/2017,0/90/220,RRH,3.0,35.0,Dual,MOBI (MD2F&3F-65-17&17DE10&8-2015),DMW,,,50 Mbps,NEW NEC,0.6 m,CT2001,FE,,Tiruapti,50Mbps,553.0,CT5032,CT5032,,,,,,,,,2015814174@G/FXW/HYD/3156782/2016@K-19012-G/FVC/HYD2891034/2015-CFA DTD 9-12-16,170818-YES(FX+CTR(PTN)+CTR-DWDM+TRP(DWDM)+PE2(2-2-25),50 Mbps,505.0,170818-YES(FX+CTR(PTN)+CTR-DWDM+TRP(DWDM)+PE2(2-2-25),BAN,,
163,CT5033,504_40861_SVEnggcollege_CT5033,2G+3G,ZTE,346_5966_SVEnggcollege_CT5033A,13.65756,79.48644,DHQ,Tirupati,Tirupati (Rural),SH,Shelter,5375.0,"SV ENGG COLLEGE,KarakambadiRoad,Mangalam,Tirupati",Tirupati,CHANDRAGIRI,517501.0,NBSNL,BSNL Infra,CT5033,RTP,9.0,21.0,Dual,MOBI (MB2F&3F-65-17&17DE10&8-2015),NSN,VII,7/30/2014,BTS18K_ID,3.0,4-4-4,10/230/290,,DMW,,,NEW NEC(HFCL),0.6 m,BSC58-19_TRP_Renigunta_CT2023A,E1,1.0,,58.0,Tirupati,VII,7/28/2014,10/230/290,RRH,3.0,21.0,Dual,MOBI (MD2F&3F-65-17&17DE10&8-2015),DMW,,,100 Mbps,NEW NEC,0.6 m,CT2023,FE,,Tiruapti,60Mbps,346.0,CT5033,,,,,,CT5033,,,,2015812341@G/FXW/HYD/3156693/2016@K-19012-G/FVC/HYD2891034/2015-CFA DTD 9-12-16,,100 Mbps,504.0,"110718-YES-(DMW,FE+RENI_PTN-FX3/11+NIB-4/5+PE-GE1(2-2-19))",TRP,,
164,CT5034,504_40871_Pulivanigunta_VIOM_CT5034,2G+3G,ZTE,346_6027_PVgunta_VIOM_CT5034A,13.62719,79.45037,DHQ,Tirupati,Tirupati (Rural),SH,Shelter,5375.0,near h.no. 11-96/opp s.v. cotton mills road; gollavanigunta; panchsyath; area; tirupathi;address;pulivanigunta;517501,Tirupati,CHANDRAGIRI,517501.0,IP-VIOM,VIOM Networks,ANPCHI1176,GBT,40.0,40.0,Dual,MOBI (MB2F&3F-65-17&17DE10&8-2015),NSN,VII,7/25/2014,S12K_ID,3.0,4-4-4,60/170/270,,DMW,,,NEW NEC,0.6 m,BSC58-19_TRP_Renigunta_CT2023A,E1,1.0,,58.0,Tirupati,VII,8/23/2016,60/170/270,RRH,3.0,40.0,Dual,MOBI (MD2F&3F-65-17&17DE10&8-2015),DMW,,,100 Mbps,NEW NEC,0.6 m,CT2023,FE,,Tiruapti,60 Mbps,346.0,CT5034,,,,,,,,,,2015812324@G/FVC/HYD/3156692/2016@CLEARED ONLINE,,100 Mbps,504.0,110718-YES-(DMW+GE+CDR_PTN-FX3/7+NIB-4/5+PE-GE1(2-2-19)),TRP,,
165,CT5035,504_40881_Keshavayanagunta_CT5035,2G+3G,ZTE,346_6012_K-Gunata_CT5035A,13.61738,79.42978,DHQ,TIRUPATI,Tirupati (Rural),,Room,5375.0,"APSPDCL Corporate Office, Tiruchanur Road, Tirupati",tirupati,CHANDRAGIRI,517501.0,NBSNL,BSNL Infra,CT5035,RTP,9.0,21.0,Dual,MOBI (MB2F&3F-65-17&17DE10&8-2015),NSN,VII,12/11/2014,S12K_ID,3.0,4-4-4,40/140/260,1.0,OFC,E1,,,,,,,,58.0,Tirupati,VII,9/4/2015,40/140/260,RRH,3.0,21.0,Dual,MOBI (MD2F&3F-65-17&17DE10&8-2015),OFC,Optical,,100 Mbps,,,,,,Tiruapti,,346.0,CT5035,,,,,,,,,,,,100 Mbps,504.0,120718-YES-(FE+TRP-MADM+PE2(2-2-31)),TRP,,
166,CT5037,504_40891_VidyaNagarCly_CT5037,2G+3G,ZTE,346_5967_VidhayaNagarColony_CT5037A,13.61953,79.37929,DHQ,TIRUPATI,Tirupati (Rural),NH,OD Plinth,5375.0,"SRINIVASA ENCLAVE,OPP TO AGRICULTURECOLLEGE,PERURU ROAD,TIRUPATI,PIN:517505",tirupati,CHANDRAGIRI,517505.0,NBSNL,BSNL Infra,CT5037,RTP,9.0,27.0,Dual,MOBI (MB2F&3F-65-17&17DE10&8-2015),NSN,VII,9/6/2014,S12K_OD,3.0,4-4-4,100/240/340,,DMW,,,NEW NEC,0.6 m,BSC58-15_SVUGuestHouse_CT2037A,E1,1.0,,58.0,Tirupati,VII,8/25/2014,100/240/340,OD,3.0,27.0,Dual,MOBI (MD2F&3F-65-17&17DE10&8-2015),DMW,,,100 Mbps,NEW NEC,0.6 m,CT2037,FE,,Tiruapti,60Mbps,346.0,CT5037,,,,,,,,,,2015812350@G/FXW/HYD/3156694/2016@K-19012-G/FVC/HYD2891034/2015-CFA DTD 9-12-16,,100 Mbps,504.0,"220718-YES-(DMW,E1+TRP-MADM+CAR-STM)",TRP,,
167,CT5038,505_53261_Tenabanda_CT5038,2G+4G,NSN,4G_36092_Thenabanda_CT5038,13.21703,79.08938,E-City,THENEBANDA,Chittoor,,Room,5421.0,"C.J.Vinodh Kumar,Dharma Raju Colony,Thenebanda Road,Chittoor",Chittoor,CHITTOOR,517001.0,NBSNL,BSNL Infra,CT5038,GBT,40.0,37.0,Dual,MOBI (MB2F&3F-65-17&17DE10&8-2015),NSN,VII,4/8/2014,S12K_ID,3.0,4-4-4,20/110/200,,DMW,,,NEW NEC,0.6 m,BSC60-27_CTR_Santhpeta_CT2004B,E1,1.0,,60.0,Tirupati,VII,4/24/2014,20/110/200,RRH,3.0,37.0,Dual,MOBI (MD2F&3F-65-17&17DE10&8-2015),DMW,,,100 Mbps,NEW NEC,0.6 m,CT2004,FE,,Tiruapti,100 Mbps,4.0,CT5038,CT5038,,,,,,,,,2015813401@G/FXW/HYD/3156708/2016@K-19012-G/FVC/HYD2891034/2015-CFA DTD 9-12-16,100718-YES(DMW+fe+CTR(CAR)-MADM)+CTR-DWDM+TRP(DWDM)+PE1(2-2-23),100 Mbps,505.0,100718-YES(DMW+fe+CTR(CAR)-MADM)+CTR-DWDM+TRP(DWDM)+PE1(2-2-23),CTR,,
168,CT5040,505_53271_Thanacheckpost_CT5040,2G+3G,NSN,553_36103_Tanacheckpost_CT5040,13.22163,79.15166,E-City,Thana Village,Gangadhara Nellore,NH,Shelter,5420.0,"Thana_checkpost,BSNL tower ,Thana RTO checkpost , GDNellore mandal , Chittor dist-517125",Chittoor,CHITTOOR,517125.0,NBSNL,BSNL Infra,CT5040,GBT,40.0,37.0,Dual,MOBI (MB2F&3F-65-17&17DE10&8-2015),NSN,VII,9/8/2015,BTS18K_ID,3.0,4-4-4,60/135/280,1.0,OFC,E1,,,,,,,,60.0,Tirupati,,,,RRH,,,,,,,,100 Mbps,,,,,,,,553.0,CT5040,,CT5040,,,,,,,,2016949276@G/FXW/HYD/3548128/2016@K-19012/G/FVC/HYD/3307757/2016-CFA DT 10/1/17,"300518-YES(CPE,fe+CTR(CAR)-MADM)+CTR-DWDM+TRP(DWDM)+PE1(2-2-23)",100 Mbps,505.0,"120618-YES(CPE,fe+CTR(CAR)-MADM)+CTR-DWDM+TRP(DWDM)+PE1(2-2-23)",CTR,,
169,CT5041,505_53281_Barlapalli_CT5041,2G+4G,NSN,4G_36113_BARLAPALLI_CT5041,13.54391,78.43391,Rural,Barlapalli,Madanapalle,NH,Shelter,5392.0,"Barlapalli,S.Y.No 243, barlapalli ,chitoor district -517325",Rajampet,MADANAPALLI,517325.0,NBSNL,BSNL Infra,CT5041,GBT,40.0,37.0,Dual,MOBI (MB2F&3F-65-17&17DE10&8-2015),NSN,VII,2/14/2014,S12K_ID,3.0,4-4-4,100/220/300,1.0,OFC,E1,,,,,,,,68.0,Tirupati,VII +,11/18/2016,100/220/300,RRH,3.0,37.0,Dual,MOBI (MD2F&3F-65-17&17DE10&8-2015),OFC,FE,,100 Mbps,,,,,,Tiruapti,,4.0,CT5041,CT5041,,,,,,,,,,210618-YES-(FX(E1)+MADM(STR)+PE2(2-2-29)),100 Mbps,505.0,210618-YES-(FX(E1)+MADM(STR)+PE2(2-2-29)),MDP,,
170,CT5042,504_40901_Thodaroad_VIOM_CT5042,2G+3G,NSN,553_36121_ThodaRd_VIOM_CT5042,13.74761,79.71376,E-City,Srikalahasti,Srikalahasti,SH,Shelter,5378.0,H-no-1/334 (1) Chennai Road Srikalahasti Chittoor Dist-517644.,Tirupati,SRI KALAHASTHI,517644.0,IP-VIOM,VIOM Networks,ANPCHI1320,RTT,24.0,21.0,Dual,AGISSON,NSN,VII,1/14/2015,S12K_ID,3.0,4-4-4,0/120/270,,DMW,,,NEW NEC,0.6 m,BSC67-15_SrikalhastiMW_CT2069A,E1,1.0,,67.0,Tirupati,,,,RRH,,,,,,,,100 Mbps,,,,,,,,553.0,CT5042,,CT5042,,,,,,,,2015813446@G/FXW/HYD/3156721/2016@K-19012/G/FXW/HYD/3156337/201-CFA 26/2/16,"180518-YES-(DMW+MADM-70Mbps(SKHTe10,RENIo38)+RENI_PTN-FX4/1+NIB-4/5+PE-GE1(2-2-19))",100 Mbps,504.0,"310718-YES-(DMW+MADM-70Mbps(SKHTe10,RENIo38)+RENI_PTN-FX4/1+NIB-4/5+PE-GE1(2-2-19))",SKT,,
171,CT5045,505_53291_Battamdoddi_CT5045,2G+3G,NSN,553_36133_Battamdoddi_CT5045,13.33249,78.61722,Rural,Battamdoddi,Punganur,SH,Shelter,5415.0,"battamdoddi,sy.No 307/1, bandlapalle,battamdoddi village and post ,punganur mandal 517247",Chittoor,PUNGANUR,517247.0,NBSNL,BSNL Infra,CT5045,GBT,40.0,38.0,Mono,MOBI (MB2F&3F-65-17&17DE10&8-2015),NSN,VII,2/26/2015,BTS18K_ID,3.0,4-4-4,10/145/245,,DMW,,,HUAWEI,0.6m,BSC70-20_Punganur_CT2015A,E1,1.0,,70.0,Tirupati,,,,RRH,,,,,,,,20 Mbps,,,,,,,,553.0,CT5045,,CT5045,,,,CT5045,,,,2017265548@12/9/2017@,060818-YES(FE-CTR(PTN)+CTR-DWDM+TRP(DWDM)+PE2(2-2-27),20 Mbps,505.0,060818-YES(FE-CTR(PTN)+CTR-DWDM+TRP(DWDM)+PE2(2-2-27),STD,,
172,CT5046,505_53301_MotherTeresa_CT5046,2G+3G,NSN,553_36141_MotherTeresaInstitute_CT5046,13.24433,78.727747,Rural,PUNGANUR,Gangavaram,SH,Shelter,5417.0,"Holy Cross Educational Society Kallupalli (V), Gangavaram(M)",Chittoor,PALMANER,517408.0,NBSNL,BSNL Infra,CT5046,GBT,40.0,38.0,Dual,MOBI (MB2F&3F-65-17&17DE10&8-2015),NSN,VII,3/24/2014,S12K_ID,3.0,4-4-4,0/90/190,1.0,OFC,E1,,,,,,,,70.0,Tirupati,VII,7/14/2014,0/90/190,RRH,3.0,38.0,Dual,MOBI (MD2F&3F-65-17&17DE10&8-2015),OFC,FE,,45 Mbps,,,,,,Tiruapti,,553.0,CT5046,CT5046,,,,,,,,,2017265551@12/9/2017@,040818YES(FE+PTN(PLM)+PTN(MDP)+PE2(2-2-27),45 Mbps,505.0,040818YES(FE+PTN(PLM)+PTN(MDP)+PE2(2-2-27),STD,,
173,CT5048,505_53311_Patapeta_CT5048,2G+3G,NSN,553_36151_Patapeta_CT5048,12.75431,78.34687,E-City,KUPPAM,kuppam,,Shelter,5427.0,"PATHAPETA_KUPPAM,sy.no 45,ward no 6,HP road , patapeta kuppam,chittor district,517425",Chittoor,KUPPAM,517425.0,NBSNL,BSNL Infra,CT5048,GBT,40.0,40.0,Mono,KATHREIN,NSN,VII,9/23/2014,S12K_ID,3.0,4-4-4,40/140/230,1.0,OFC,E1,,,,,,,,70.0,Tirupati,VII,7/21/2016,40/140/230,RRH,3.0,40.0,Dual,MOBI (MD2F&3F-65-17&17DE10&8-2015),OFC,FE,,45 Mbps,,,,,,Tiruapti,,553.0,CT5048,CT5048,,,,,,,,,,240818YES(FE+MADM(KPM)+MADM(STR)+PE2(2-2-37),45 Mbps,505.0,240818YES(FE+MADM(KPM)+MADM(STR)+PE2(2-2-37),KPM,,
174,CT5050,505_53321_GBoyanapalli_IND_CT5050,2G,,,13.64451,78.7386,Rural,Gboyanapalli,Kalikiri,NH,Shelter,5387.0,gandaboyanapalli village;vayalpad mandal;vayalpad mandal;pin 517277,Rajampet,VAYALPADU,517277.0,IP-IND,Indus Towers,IN-1107269,GBT,40.0,40.0,Mono,KATHREIN,NSN,VII,2/12/2015,BTS18K_OD,3.0,4-4-4,30/120/280,,DMW,,,NEW NEC,0.6 m,BSC68-53_Chinthaparthy_CT2098A,E1,1.0,,68.0,Tirupati,,,,,,,,,,,,,,,,,,,,,CT5050,,,,,,CT5050,,,,2016949282@G/FXW/HYD/3548124/2016@K-19012/G/FVC/HYD/3307757/2016-CFA DT 10/1/17,,,505.0,180818-YES-(E1+TRP-MADM+STR-STM),STD,,
175,CT5051,505_53331_Mungilipattu_CT5051,2G+3G,NSN,553_36161_Mungilipattu_CT5051,13.56039,79.24861,Rural,Mungilipattu,Chandragiri,RC,Room,5384.0,B.Bhaskar Naidu. Cell: 9441492379 Backside of Telephone Excg Mungilipattu,Chittoor,PAKALA,517102.0,BSNL,BSNL Infra,CT5051,GBT,40.0,38.0,Dual,MOBI (MB2F&3F-65-17&17DE10&8-2015),NSN,VII,3/25/2014,S12K_ID,3.0,4-4-4,80/220/40,1.0,OFC,E1,,,,,,,,60.0,Tirupati,VII +,3/3/2017,80/220/40,RRH,2.0,38.0,Dual,MOBI (MD2F&3F-65-17&17DE10&8-2015),OFC,FE,,45 Mbps,,,,,,Tiruapti,,553.0,CT5051,CT5051,,,,,,,,,,230818-YES-(FE+PKA_PTN+NIB+PE-GE1(2-2-19)),45 Mbps,505.0,230818-YES-(FE+PKA_PTN+NIB+PE-GE1(2-2-19)),STD,,
176,CT5052,504_40911_TRPTuda2ndbts_CT5052,2G,,,13.62506,79.41523,DHQ,Tirupati,Tirupati (Urban),,Exchange,5383.0,"TRP_TUDA,TUDA EXGE,Tirupati,Chittoor DT.",Tirupati,CHANDRAGIRI,517501.0,BSNL,BSNL Infra,CT2076,GBT,40.0,40.0,Dual,MOBI (MB2F&3F-65-17&17DE10&8-2015),NSN,VII,7/30/2014,S12K_ID,3.0,4-4-4,180/240/300,2.0,OFC,E1,,,,,,,,58.0,Tirupati,,,,,,,,,,,,,,,,,,,,,CT5052,,,,,,,,,,,,,504.0,180718-YES-(FE+TRP-MADM+PE2(2-2-31)),TRP,,
177,CT5054,504_40921_Palamangalam_CT5054,2G+3G,NSN,553_36173_Palamangalam_CT5054,13.41071,79.68068,Rural,Palamangalam,Narayanavanam,NH,Shelter,5400.0,"Smt K.Anitha at S.No 168-17, Palamangalam (V) Narayanavaram Mandal.",Tirupati,PUTTUR,517581.0,NBSNL,BSNL Infra,CT5054,GBT,40.0,38.0,Dual,MOBI (MB2F&3F-65-17&17DE10&8-2015),NSN,VII,5/24/2014,BTS18K_ID,3.0,4-4-4,90/160/260,1.0,OFC,E1,,,,,,,,67.0,Tirupati,,,,RRH,,,,,,,,45 Mbps,,,,,,,,553.0,CT5054,,CT5054,,,,CT5054,,,,,"260518YES(CPE,fe+CPE+MADM(PTR)+DWDM(PTR)+DWDM(TRP_STR)+PE1(2-2-21)",45 Mbps,504.0,"310718YES(CPE,fe+CPE+MADM(PTR)+DWDM(PTR)+DWDM(TRP_STR)+PE1(2-2-21)",STD,,
178,CT5055,504_40931_Tadukupet_CT5055,2G,,,13.2717,79.58112,Rural,CHITTOOR,Nagari,NH,Shelter,5406.0,"V.Balakrishnaiah,S/o V.Kuppaih,Tadukupeta (V)",Chittoor,PUTTUR,517590.0,NBSNL,BSNL Infra,CT5055,GBT,40.0,37.0,Dual,MOBI (MB2F&3F-65-17&17DE10&8-2015),NSN,VII,4/24/2014,BTS18K_ID,3.0,4-4-4,50/240/330,1.0,OFC,E1,,,,,,,,67.0,Tirupati,,,,,,,,,,,,,,,,,,,,,CT5055,,,,,,CT5055,,,,,,,504.0,070818-YES-(E1+STR-MADM+STR-STM),STD,,
179,CT5056,504_40941_Appalayagunta_CT5056,2G+3G,NSN,553_36181_Appalayagunta_CT5056,13.53869,79.47395,Rural,Appalayagunta,Srikalahasti,,Shelter,5378.0,"R.Subramanyam,Appalayagunta,Chittor Dt.",Tirupati,PUTTUR,517551.0,NBSNL,BSNL Infra,CT5056,GBT,40.0,40.0,Dual,MOBI (MB2F&3F-65-17&17DE10&8-2015),NSN,VII,8/12/2014,BTS18K_ID,3.0,4-4-4,20/130/290,,DMW,,,NEW NEC,0.6 m,BSC67-84_Vadamalpet_CT2078A,E1,1.0,,67.0,Tirupati,,,,RRH,,,,,,,,45 Mbps,,,,,,,,553.0,CT5056,,CT5056,,,,CT5056,,,,2015813442@G/FXW/HYD/3156719/2016@K-19012/G/FXW/HYD/2670760/2016-CFA 9-12-16,"030618YES(CPE,fe+CPE+MADM(PTR)+DWDM(PTR)+DWDM(TRP_STR)+PE1(2-2-21)",45 Mbps,504.0,"290718YES(CPE,fe+CPE+MADM(PTR)+DWDM(PTR)+DWDM(TRP_STR)+PE1(2-2-21)",STD,,
180,CT5058,504_40951_TirpatiMainEx-2nd_CT5058,2G,,,13.63252,79.42218,DHQ,TIRUPATI,Tirupati (Urban),,Exchange,5383.0,"TRP_TirupatiMainExge,Tirupati,Chittoor DT.",Tirupati,CHANDRAGIRI,517501.0,BSNL,BSNL Infra,CT2072,RTT,21.0,27.0,Dual,MOBI (MB2F&3F-65-17&17DE10&8-2015),NSN,VII,7/17/2014,S12K_ID,3.0,4-4-4,0/70/120,2.0,OFC,E1,,,,,,,,58.0,Tirupati,,,,,,,,,,,,,,,,,,,,,CT5058,,,,,,,,,,,,,504.0,240718-YES-(E1+TRP-MADM+CAR-STM),TRP,,
181,CT5060,505_53341_DIRoad_VIOM_CT5060,2G+4G,NSN,4G_36192_DIRoad_VIOM_CT5060,13.22024,79.09946,E-City,CHITTOOR,Chittoor,,Shelter,5421.0,"M. Balakrishna Reddy, H.N0:10-401,M.B.R COMPLEX,D.IROAD,CHITTOOR PIN:517001",Chittoor,CHITTOOR,517001.0,IP-VIOM,VIOM Networks,ANPQRL0054,RTT,18.0,24.0,Dual,MOBI (MB2F&3F-65-17&17DE10&8-2015),NSN,VII,8/5/2014,S12K_ID,3.0,4-4-4,0/130/250,,DMW,,,NEW NEC,0.6 m,BSC60-21_Chittoor_OFC_CT2003A,E1,1.0,,60.0,Tirupati,VII,8/17/2016,0/130/250,RRH,3.0,24.0,Dual,MOBI (MD2F&3F-65-17&17DE10&8-2015),DMW,,,100 Mbps,NEW NEC,0.6 m,CT2003,FE,,Tiruapti,60Mbps,4.0,CT5060,CT5060,,,,,,,,,2015813410@G/FXW/HYD/3156710/2016@K-19012-G/FVC/HYD2891034/2015-CFA DTD 9-12-16,190718-YES(FX+CTR(PTN)+CTR-DWDM+TRP(DWDM)+PE2(2-2-25),100 Mbps,505.0,190718-YES(FX+CTR(PTN)+CTR-DWDM+TRP(DWDM)+PE2(2-2-25),CTR,,
182,CT5065,504_40971_CGollapalli_VIOM_CT5065,2G+3G,NSN,553_36201_CGOLLAPALLI_CT5065,13.59447,79.38134,DHQ,Gollapalli,Tirupati (Rural),NH,Shelter,5375.0,"S.N8.29-1, Gollapally Vlg, Tirupati, Chittoor Dist-AP-517505",tirupati,CHANDRAGIRI,517505.0,IP-VIOM,VIOM Networks,ANPCHI1686,GBT,40.0,35.0,Mono,Agisson,NSN,VII,9/18/2014,S12K_ID,3.0,4-4-4,80/260/300,,DMW,,,NEW NEC,0.6 m,BSC58-26_DurgaSamudram_CT2239B,E1,1.0,,58.0,Tirupati,VII +,10/15/2016,80/260/300,RRH,3.0,35.0,Dual,MOBI (MD2F&3F-65-17&17DE10&8-2015),DMW,,,100 Mbps,NEW NEC,0.6 m,CT2239,FE,,Tiruapti,45Mbps,553.0,CT5065,CT5065,,,,,,,,,2015812372@G/FXW/HYD/3156696/2016@K-19012-G/FVC/HYD2891034/2015-CFA DTD 9-12-16,250718-YES-(RENI_PTN3/11+NIB+PE-GE1(2-2-19)),100 Mbps,504.0,310718-YES-(RENI_PTN3/11+NIB+PE-GE1(2-2-19)),STD,,
183,CT5066,504_40981_SrikalahastiRS_RTEL_CT5066,2G+3G,NSN,553_36211_SKHT-RailwayStation_RTEL_CT5066,13.74617,79.68356,E-City,Srikalahasti,Srikalahasti,RC,Room,5378.0,SRIKALAHASTI RAILWAY STATION SRI KALA HASTI VILL; DIST. CHITOOR.,Tirupati,SRI KALAHASTHI,517644.0,IP-RTEL,Railtel,Railtel_Srikalahasti,GBT,60.0,35.0,Dual,MOBI (MB2F&3F-65-17&17DE10&8-2015),NSN,VII,4/7/2015,S12K_ID,3.0,4-4-4,45/180/270,,DMW,,,NEW NEC,0.6 m,BSC67-15_SrikalhastiMW_CT2069A,E1,1.0,,67.0,Tirupati,VII,10/27/2016,45/180/270,RRH,3.0,35.0,Dual,MOBI (MD2F&3F-65-17&17DE10&8-2015),DMW,,,100 Mbps,NEW NEC,0.6 m,CT2069,FE,,Tiruapti,50Mbps,553.0,CT5066,CT5066,,,,,,,,,2015745927@G/FXW/HYD/2892025/2015]@dated8/10/2015,040818YES(FE+MADM(SKT)+DWDM(SKT)+DWDM(STR)+PE1(2-2-33),100 Mbps,504.0,040818YES(FE+MADM(SKT)+DWDM(SKT)+DWDM(STR)+PE1(2-2-33),SKT,,
184,CT5067,504_40991_Reserviorcolony_VIOM_CT5067,2G+3G,ZTE,346_6033_Reservoir-Colony_VIOM_CT5067A,13.63763,79.41022,DHQ,TIRUPATI,Tirupati (Urban),SH,Shelter,5383.0,"4-4-468,nehru street , reservior colony , tirupati,chitoor district",tirupati,CHANDRAGIRI,517501.0,IP-VIOM,VIOM Networks,ANPCHI1527,RTT,15.0,28.0,Dual,MOBI (MB2F&3F-65-17&17DE10&8-2015),NSN,VII,7/18/2014,S12K_ID,3.0,4-4-4,75/170/285,1.0,OFC,E1,,,,,,,,58.0,Tirupati,VII,9/23/2016,75/170/285,RRH,3.0,28.0,Dual,MOBI (MD2F&3F-65-17&17DE10&8-2015),OFC,FE,,100 Mbps,,,,,,Tiruapti,,346.0,CT5067,,,,,,,,,,,,100 Mbps,504.0,180718-YES-(E1+TRP-MADM+CAR-STM),TRP,,
185,CT5068,504_41171_Narayanagiri_Tirumala_CT5068,2G+3G,NSN,553_36553_Narayanagiri_Tirumala_CT5068,13.67914,79.33315,E-City,TIRUMALA,Tirupati (Urban),PP,Room,5383.0,"Narayanagiri Rd,Srihari Padalu,Tirumala,Tirupati, Andhra Pradesh 517504",Tirupati,CHANDRAGIRI,517504.0,IP-Railtel,Railtel,Railtel_Tirumala2,GBT,40.0,15.0,Dual,MOBI (MB2F&3F-65-17&17DE10&8-2015),NSN,VII,3/19/2015,MTC_ID,3.0,4-4-4,30/80/120,,DMW,,,NEW NEC,0.6 m,283_41_TPT_Tirumala_CT2017A,FE,,65 Mbps,504.0,Tirupati,VIII,9/10/2015,30/80/120,RRH,3.0,15.0,Dual,MOBI (MD2F&3F-65-17&17DE10&8-2015),DMW,,,100 Mbps,NEW NEC,0.6 m,CT2017,FE,,Tiruapti,100 Mbps,553.0,,,,,,,,,,,2015745922@G/FXW/HYD/2892024/2015@K-19012-G/FVC/HYD2891034/2015-CFA DTD 9-12-16,,100 Mbps,,,,,
186,CT5071,505_53351_Durgangrcly_ATC_CT5071,2G+4G,NSN,4G_36223_DurganagarColony_ATC_CT5071,13.19509,79.08821,E-City,CHITTOOR,Chittoor,,Shelter,5421.0,H no:4-1974/1;;Durganagar colony;Chittor;A.P-517001,Chittoor,CHITTOOR,517001.0,IP-ATC,ATC,AP/CH/BS/10746,RTT,15.0,21.0,Dual,MOBI (MB2F&3F-65-17&17DE10&8-2015),NSN,VII,10/9/2013,S12K_ID,3.0,4-4-4,75/200/330,,DMW,,,NEW NEC,0.6 m,BSC60-20_BalmurganDiry_CT2103B,E1,1.0,,60.0,Tirupati,VII,4/4/2014,75/200/330,RRH,3.0,21.0,Dual,MOBI (MD2F&3F-65-17&17DE10&8-2015),DMW,,,100 Mbps,NEW NEC,0.6 m,CT2103,FE,,Tiruapti,45Mbps,4.0,CT5071,CT5071,,,,,,,,,2015812478@G/FXW/HYD/3156704/2016@K-19012-G/FVC/HYD2891034/2015-CFA DTD 9-12-16,"190718-YES(DMW,fe+CTR(CAR)-MADM)+CTR-DWDM+TRP(DWDM)+PE1(2-2-23)",100 Mbps,505.0,"190718-YES(DMW,fe+CTR(CAR)-MADM)+CTR-DWDM+TRP(DWDM)+PE1(2-2-23)",CTR,,
187,CT5072,505_53361_BANS-Hotel_ATC_CT5072,2G+4G,NSN,4G_36231_BANSHotel_ATC_CT5072,13.23634,79.08702,E-City,CHITTOOR,Chittoor,NH,Shelter,5421.0,"H.No.1-81, Openpally Colony, Areagundla Road, Chittoor town & District-517501.",Chittoor,CHITTOOR,517001.0,IP-ATC,ATC,AP/CH/BS/10747,RTT,18.0,24.0,Dual,MOBI (MB2F&3F-65-17&17DE10&8-2015),NSN,VII,11/13/2013,BTS18K_ID,3.0,4-4-4,350/160/230,,DMW,,,NEW NEC,0.6 m,BSC60-27_CTR_Santhpeta_CT2004B,E1,1.0,,60.0,Tirupati,V.1,3/29/2014,350/160/230,RRH,3.0,24.0,Dual,MOBI (MD2F&3F-65-17&17DE10&8-2015),DMW,,,100 Mbps,NEW NEC,0.6 m,CT2004,FE,,Tiruapti,100Mbps,4.0,CT5072,CT5072,,,,,CT5072,,,,2015813418@G/FXW/HYD/3156712/2016@K-19012-G/FVC/HYD2891034/2015-CFA DTD 9-12-16,170718-YES(DMW+fe+CTR(CAR)-MADM)+CTR-DWDM+TRP(DWDM)+PE1(2-2-23),100 Mbps,505.0,170718-YES(DMW+fe+CTR(CAR)-MADM)+CTR-DWDM+TRP(DWDM)+PE1(2-2-23),CTR,,
188,CT5073,505_53371_Basinkonda_ATC_CT5073,2G+4G,NSN,4G_36243_Basinkonda_ATC_CT5073,13.54615,78.51408,E-City,BASINKONDA,Madanapalle,,Shelter,5392.0,"MR. B. ANURADHAH.NO.17/91-4-4-A-1,RAJIV COLY, PUNGANURROAD, MADNAPALLI 517330",Rajampet,MADANAPALLI,517325.0,IP-ATC,ATC,AP3095,RTT,24.0,21.0,Dual,MOBI (MB2F&3F-65-17&17DE10&8-2015),NSN,VII,6/18/2014,BTS18K_ID,3.0,4-4-4,10/140/250,1.0,OFC,E1,,,,,,,,68.0,Tirupati,VII,8/17/2016,10/140/250,RRH,3.0,21.0,Dual,MOBI (MD2F&3F-65-17&17DE10&8-2015),OFC,FE,,100 Mbps,,,,,,Tiruapti,,4.0,CT5073,CT5073,,,,,CT5073,,,,,130718-YES-(FX(E1)+MADM(STR)+PE2(2-2-29)),100 Mbps,505.0,130718-YES-(FX(E1)+MADM(STR)+PE2(2-2-29)),MDP,,
189,CT5074,505_53381_Pnganr-Kothaindlu_ATC_CT5074,2G+4G,NSN,4G_36252_Punganoor_Kothaindlu_CT5074,13.37292,78.56868,E-City,Punganur,Punganur,NH,Shelter,5415.0,"H.No.28-15-5, Kothindlu, Madanapai Road, Punganoor, Chittoor District-517247",Chittoor,PUNGANUR,517247.0,IP-ATC,ATC,AP/CH/BS/10749,RTT,18.0,24.0,Dual,Agisson,NSN,VII,10/9/2013,BTS18K_ID,3.0,4-4-4,340/60/180,1.0,OFC,E1,,,,,,,,70.0,Tirupati,VII,8/19/2014,340/60/180,RRH,3.0,24.0,Dual,Agisson,OFC,FE,,100 Mbps,,,,,,Tiruapti,,4.0,CT5074,CT5074,,,,,CT5074,,,,,060818YES(FE+MADM(PLM)+MADM(STR)+PE1(2-2-35),100 Mbps,505.0,060818YES(FE+MADM(PLM)+MADM(STR)+PE1(2-2-35),PUG,,
190,CT5075,504_41001_Poyya_VIOM_CT5075,2G,,,13.78595,79.75554,Rural,POYYA,Thottambedu,NH,Shelter,5379.0,sy no.141/4; near stone crusier; poyya village; thottambedu mandal; chittor dist.;address;address;517642,Tirupati,SRI KALAHASTHI,517642.0,IP-VIOM,VIOM Networks,ANPCHI1657,GBT,40.0,34.0,Dual,MOBI (MB2F&3F-65-17&17DE10&8-2015),NSN,VII,7/30/2014,S12K_ID,3.0,4-4-4,60/220/280,,DMW,,,NEW NEC,0.6 m,BSC67-07_Peddakannali_CT2275B,E1,1.0,,67.0,Tirupati,,,,,,,,,,,,,,,,,,,,,CT5075,,,,,,,,,,2015813441@G/FXW/HYD/3156718/2016@K-19012/G/FXW/HYD/3156337/201-CFA 26/2/16,,,504.0,030818-YES-(E1+TRP-MADM+STR-STM),STD,,
191,CT5076,505_53391_Palamaneru_VIOM_CT5076,2G+4G,NSN,4G_36263_Palmaner_VIOM_CT5076,13.20041,78.74945,E-City,PALAMANERU,Palamaner,NH,Shelter,5422.0,"D.No.1-55, Pathapeta, Masid street,Palananeru Mandal, Chittor",Chittoor,PALMANER,517408.0,IP-VIOM,VIOM Networks,ANPQRL0184,GBT,40.0,32.0,Dual,MOBI (MB2F&3F-65-17&17DE10&8-2015),NSN,VII,8/18/2014,BTS18K_ID,3.0,4-4-4,60/180/330,,DMW,,,NEW NEC,0.6 m,BSC70-49_Palamaneeru_CT2060A,E1,1.0,,70.0,Tirupati,VII,8/23/2016,60/180/330,RRH,3.0,32.0,Dual,MOBI (MD2F&3F-65-17&17DE10&8-2015),DMW,,,100 Mbps,NEW NEC,0.6 m,CT2060,FE,,Tiruapti,45 Mbps,4.0,CT5076,CT5076,,,,,CT5076,,,,2015814145@G/FXW/HYD/3156781/2016@K-19012-G/FVC/HYD2891034/2015-CFA DTD 9-12-16,050818YES(FE+PTN(PLM)+PTN(MDP)+PE2(2-2-27),100 Mbps,505.0,050818YES(FE+PTN(PLM)+PTN(MDP)+PE2(2-2-27),PLM,,
192,CT5077,505_53401_YellamandaCross_ATC__CT5077,2G+4G,NSN,4G_36271_YelamandaCross_ATC_CT5077,13.66482,78.94425,E-City,Piler,Pileru,,OD Plinth,5386.0,"Sy.No 590, Plot No 11&12,Durga Nagar, Kadapa Road,Piler V & M, Chittoor Dist,",Rajampet,PILER,517214.0,IP-ATC,ATC,AP/CH/BS/10751,GBT,40.0,35.0,Dual,MOBI (MB2F&3F-65-17&17DE10&8-2015),NSN,VII,7/12/2013,S12K_OD,3.0,4-4-4,160/240/320,,OFC,FE,,,,,,,,68.0,Tirupati,VII,9/6/2016,160/240/320,RRH,3.0,35.0,Dual,MOBI (MD2F&3F-65-17&17DE10&8-2015),OFC,FE,,70 Mbps,,,,,,Tiruapti,,4.0,CT5077,CT5077,,,,,,,,,2015813983@G/FXW/HYD/3156769/2016@K-19012-G/FVC/HYD2891034/2015-CFA DTD 9-12-16,160818-YES(Fe+PIL(PTN)+CTR-DWDM+TRP(DWDM)+PE2(2-2-27),70 Mbps,505.0,160818-YES(Fe+PIL(PTN)+CTR-DWDM+TRP(DWDM)+PE2(2-2-27),PIL,,
193,CT5079,504_41021_YSR-Dcolony_ATC_CT5079,2G+3G,ZTE,346_6039_YSRD-Colny_ATC_CT5079A,13.61373,79.46383,DHQ,Tirupati,Tirupati (Rural),NH,OD Plinth,5375.0,"SY.NO.188/1, DAMINEDU VILLAGE, TIRUCHUNUR POST, TIRUPATHI, CHITTOOR DIST-517520.",Tirupati,CHANDRAGIRI,517504.0,IP-ATC,ATC,AP/CH/BS/11111,GBT,40.0,40.0,Dual,MOBI (MB2F&3F-65-17&17DE10&8-2015),NSN,VII,12/4/2013,S12K_OD,3.0,4-4-4,50/110/240,,DMW,,,NEW NEC,0.6 m,BSC58-19_TRP_Renigunta_CT2023A,E1,1.0,,58.0,Tirupati,VII,8/17/2016,50/110/240,OD,3.0,40.0,Dual,MOBI (MD2F&3F-65-17&17DE10&8-2015),DMW,,,100 Mbps,NEW NEC,0.6 m,CT2023,FE,,Tiruapti,60Mbps,346.0,CT5079,,,,,,,,,,2015812361@G/FXW/HYD/3156695/2016@K-19012/G/FXW/HYD/2670760/2016-CFA 9-12-16,,100 Mbps,504.0,110718-YES-(DMW+GE+CDR_PTN-FX3/9+NIB-4/5+PE-GE1(2-2-19)),TRP,,
194,CT5080,504_41181_OCTOPUS_CT5080,2G+3G,NSN,553_36563_Octopus_CT5080,13.67661,79.352,E-City,Tirumala,Tirupati (Urban),PP,Room,5383.0,"OCTOPUS CAMPUS, TIRUMALA",Tirupati,CHANDRAGIRI,517504.0,NBSNL,BSNL Infra,CT5080,RTP,9.0,21.0,Dual,MOBI (MB2F&3F-65-17&17DE10&8-2015),NSN,VII,7/30/2014,MTC_ID,3.0,4-4-4,40/200/290,,OFC,FE,65 Mbps,,,,,,,504.0,Tirupati,VIII,8/19/2014,40/200/290,RRH,3.0,21.0,Dual,MOBI (MD2F&3F-65-17&17DE10&8-2015),OFC,FE,,100 Mbps,,,,,,Tiruapti,,553.0,,,,,,,,,,,,,100 Mbps,,,,,
195,CT5082,504_41031_RMallavaram_CT5082,2G+3G,NSN,553_36293_Rmallavaram_CT5082,13.66836,79.56335,Rural,RMallavaram,Renigunta,NH,OD Plinth,5376.0,"Shree Institute of Technical Education,Krishnapuram(v), Renigunta",Tirupati,SRI KALAHASTHI,517619.0,NBSNL,BSNL Infra,CT5082,GBT,40.0,38.0,Mono,AGISSON,NSN,VII,6/12/2014,S12K_OD,3.0,4-4-4,40/150/240,1.0,OFC,E1,,,,,,,,67.0,Tirupati,VII +,3/9/2017,40/150/240,RRH,3.0,37.0,Mono,MOBI (MD2F&3F-65-17&17DE10&8-2015),OFC,FE,,70 Mbps,,,,,,Tiruapti,,553.0,CT5082,CT5082,,,,,,,,,,140818-YES-(GE+RENI_PTN3/11+NIB-4/5+PE-GE1(2-2-19)),70 Mbps,504.0,140818-YES-(GE+RENI_PTN3/11+NIB-4/5+PE-GE1(2-2-19)),STD,,
196,CT5084,504_41041_ALScheckpost_CT5084,2G,,,13.6465,79.40215,DHQ,TIRUPATI,Tirupati (Urban),SH,Room,5383.0,"ALScheckpost,Police Control room,Alipiri Check post, Alipiri , Tirupati-517501",Tirupati,CHANDRAGIRI,517501.0,NBSNL,BSNL Infra,CT5084,MARR-1,10.0,15.0,Mono,OMNIGSM,NSN,VII,1/29/2015,S8K_ID,3.0,2-0-0,360,,DMW,,,HUAWEI,0.6 m,BSC58-16_TRT_Alipiri_CT2073A,E1,1.0,,58.0,Tirupati,,,,,,,,,,,,,,,,,,,,,CT5084,,,,,,,,,,2015725566@G/FXW/HYD/2892448/2015@K-19012-G/FVC/HYD2891034/2015-CFA DTD 9-12-16,,,504.0,030918-YES-(E1+TRP-MADM+CAR-STM),TRP,,
197,CT5088,504_41192_SANNIDHANAM_CT5088,2G+3G,NSN,553_36572_SANNIDHANAM_CT5088,13.67174,79.34921,E-City,TIRUMALA,Tirupati (Urban),PP,Shelter,5383.0,"sannidanam,sannidanam guest house , tirumala, tirupati-517504",Tirupati,CHANDRAGIRI,517504.0,NBSNL,BSNL Infra,CT5088,RTP,9.0,21.0,Dual,MOBI (MB2F&3F-65-17&17DE10&8-2015),NSN,VII+,2/9/2016,MTC_ID,3.0,4-4-4,0/100/200,,DMW,,,NEW NEC,0.6 m,283_46_OCTOPUS_CT5080A,FE,,65 Mbps,504.0,Tirupati,VIII,5/30/2016,0/100/200,RRH,3.0,21.0,Dual,MOBI (MD2F&3F-65-17&17DE10&8-2015),DMW,,,100 Mbps,NEW NEC,0.6 m,CT5080,FE,,Tiruapti,100 Mbps,553.0,,,,,,,,,,,2015122969@G/FVC/HYD/3381980/2016@K-19012/G/FVC/HYD/23642939/2014-CFA DT9-5-17,,100 Mbps,,,,,
198,CT5089,504_41202_Koustubham_CT5089,2G+3G,NSN,553_36531_Koustubham_CT5089,13.68016,79.35332,E-City,TIRUMALA,Tirupati (Urban),PP,Shelter,5383.0,"koustubam,Koustubam guest house , tirumala-517504",Tirupati,CHANDRAGIRI,517504.0,NBSNL,BSNL Infra,CT5089,RTP,9.0,24.0,Dual,MOBI (MB2F&3F-65-17&17DE10&8-2015),NSN,VII+,11/17/2015,MTC_ID,3.0,4-4-4,0/80/140,,DMW,,,NEW NEC,0.6 m,283_43_Sudharshan_Tirumala_CT2070A,FE,,65 Mbps,504.0,Tirupati,VIII,1/4/2016,0/80/140,RRH,3.0,24.0,Dual,MOBI (MD2F&3F-65-17&17DE10&8-2015),DMW,,,100 Mbps,NEW NEC,0.6 m,CT2070,FE,,Tiruapti,66Mbps,553.0,,,,,,,,,,,2015122942@G/FVC/HYD/3381979/2016@K-19012/G/FVC/HYD/23642939/2014-CFA DT9-5-17,,100 Mbps,,,,,
199,CT5090,504_41212_AKASAGANGA_CT5090,2G+3G,NSN,553_36582_AKASA_GANGA_CT5090,13.7041,79.34438,E-City,TIRUMALA,Tirupati (Urban),PP,Shelter,5383.0,"Akashaganga,Akashaganga near papavinasanam ,Tirumala517504",Tirupati,CHANDRAGIRI,517504.0,NBSNL,BSNL Infra,CT5090,GBT,40.0,38.0,Dual,MOBI (MB2F&3F-65-17&17DE10&8-2015),NSN,VII+,10/16/2016,MTC_ID,3.0,4-4-4,0/140/260,,DMW,,,NEW NEC,0.6 m,283_46_OCTOPUS_CT5080A,FE,,65 Mbps,504.0,Tirupati,VIII,10/16/2016,0/140/260,RRH,3.0,38.0,Dual,MOBI (MD2F&3F-65-17&17DE10&8-2015),DMW,,,100 Mbps,NEW NEC,0.6 m,CT5080,FE,,Tiruapti,60Mbps,553.0,,,,,,,,,,,2016662566@G/FVC/HYD/3611831/2017@K-19012/G/FVC/HYD/23642939/2014-CFA DT9-5-17,,100 Mbps,,,,,
200,CT5091,504_41222_MOKALLAMITTA_CT5091,2G+3G,NSN,553_36593_MOKALLAMITTA_CT5091,13.66742,79.35382,E-City,TIRUMALA,Tirupati (Urban),PP,Shelter,5383.0,"Mokalla mitta,Mokallamitta, Uproad , Tirumala-517504",Tirupati,CHANDRAGIRI,517504.0,NBSNL,BSNL Infra,CT5091,GBT,40.0,38.0,Dual,MOBI (MB2F&3F-65-17&17DE10&8-2015),NSN,VII+,10/5/2016,MTC_ID,3.0,4-4-4,20/120/250,,OFC,FE,65 Mbps,,,,,,,504.0,Tirupati,VIII,10/5/2016,20/120/250,RRH,3.0,38.0,Dual,MOBI (MD2F&3F-65-17&17DE10&8-2015),OFC,FE,,100 Mbps,,,,,,Tiruapti,,553.0,,,,,,,,,,,,,100 Mbps,,,,,
201,CT5092,504_41051_SPMCollege_CT5092,2G+3G,ZTE,346_5853_TRP_SPMCollege_CT5092A,13.63931,79.40045,DHQ,TIRUPATI,Tirupati (Urban),,Room,5383.0,"Padmavati Medical College,Beside BIRRD Hospital,Tirupati.517501",Tirupati,CHANDRAGIRI,517501.0,NBSNL,BSNL Infra,CT5092,RTP,9.0,29.0,Dual,MOBI (MB2F&3F-65-17&17DE10&8-2015),NSN,VII+,1/2/2017,BTS18K_ID,3.0,4-4-4,20/150/240,,DMW,,,NEW NEC,0.6 m,BSC58-16_TRT_Alipiri_CT2073A,E1,1.0,,58.0,Tirupati,VII +,1/2/2017,20/150/240,RRH,3.0,29.0,Dual,MOBI (MD2F&3F-65-17&17DE10&8-2015),DMW,,,100 Mbps,NEW NEC,0.6 m,CT2073,FE,,Tiruapti,100 Mbps,346.0,CT5092,,,,,,CT5092,,,,2016408019@G/FXW/HYD/3755780/2017@K-19012/G/FVC/HYD/23642939/2014-CFA DT9-5-17,,100 Mbps,504.0,190718-YES-(E1+TRP-MADM+CAR-STM),TRP,,
202,CT5093,504_41231_Narayanagiri_GH_CT5093,2G+3G,NSN,553_36602_Narayana_giri_GH_CT5093,13.67971,79.34032,E-City,TIRUMALA,Tirupati (Urban),PP,Shelter,5383.0,"SV_Guest_House,SV Guest House , Tirumala-517504",Tirupati,CHANDRAGIRI,517504.0,NBSNL,BSNL Infra,CT5093,RTP,9.0,27.0,Dual,MOBI (MB2F&3F-65-17&17DE10&8-2015),NSN,VII+,6/9/2016,MTC_ID,3.0,4-4-4,0/70/150,,DMW,,,NEW NEC,0.6 m,283_41_TPT_Tirumala_CT2017A,FE,,65 Mbps,504.0,Tirupati,VIII,6/9/2016,0/70/150,RRH,3.0,27.0,Dual,MOBI (MD2F&3F-65-17&17DE10&8-2015),DMW,,,100 Mbps,NEW NEC,0.6 m,CT2017,FE,,Tiruapti,100 Mbps,553.0,,,,,,,,,,,2016906259@G/FXW/HYD/3504451/2016@K-19012/G/FVC/HYD/23642939/2014-CFA DT9-5-17,,100 Mbps,,,,,
203,CT5096,504_41251_SPGH_CT5096,2G+3G,NSN,553_36611_SPGH_CT5096,13.67752,79.34565,E-City,TIRUMALA,Tirupati (Urban),PP,Shelter,5383.0,"Padmavati_Guest_House,Padmavati Guest House , Tirumala-517504",Tirupati,CHANDRAGIRI,517504.0,NBSNL,BSNL Infra,CT5096,RTP,9.0,15.0,Dual,MOBI (MB2F&3F-65-17&17DE10&8-2015),NSN,VII+,6/9/2016,MTC_ID,3.0,4-4-4,30/100/240,,DMW,,,NEW NEC,0.6 m,283_46_OCTOPUS_CT5080A,FE,,65 Mbps,504.0,Tirupati,VIII,6/9/2016,30/100/240,RRH,3.0,15.0,Dual,MOBI (MD2F&3F-65-17&17DE10&8-2015),DMW,,,100 Mbps,NEW NEC,0.6 m,CT5080,FE,,Tiruapti,100 Mbps,553.0,,,,,,,,,,,2016906204@G/FXW/HYD/3504452/2016@K-19012/G/FVC/HYD/23642939/2014-CFA DT9-5-17,,100 Mbps,,,,,
204,CT5097,504_41061_RRColony_CT5097,2G+3G,ZTE,346_6363_TRP_RRColony_CT5097,13.63541,79.42022,DHQ,Tirupati,Tirupati (Urban),,Room,5383.0,"Reddy&Reddy colony,D.No. 526/527,Reddy&Reddy Colony , Tirupati517501",Tirupati,CHANDRAGIRI,517501.0,NBSNL,BSNL Infra,CT5097,RTP,9.0,21.0,Dual,MOBI (MB2F&3F-65-17&17DE10&8-2015),NSN,VII+,7/1/2017,BTS18K_ID,3.0,4-4-4,30/230/300,1.0,OFC,E1,,,,,,,,58.0,Tirupati,VII +,9/4/2017,30/230/300,RRH,3.0,21.0,Dual,MOBI (MD2F&3F-65-17&17DE10&8-2015),OFC,Optical,,100 Mbps,,,,,,Tiruapti,,346.0,CT5097,,,,,,,,,,,,100 Mbps,504.0,230718-YES-(E1+TRP-MADM+CAR-STM),TRP,,
205,CT5098,505_53411_CTR_Estate_CT5098,2G+4G,NSN,4G_36303_Estate_CT5098,13.22219,79.12708,E-City,CHittoor,Chittoor,,Room,5421.0,"CTR_Estate,27-945/1 ,Industrial estate area chittor -517001",Chittoor,CHITTOOR,517001.0,NBSNL,BSNL Infra,CT5098,MARR,15.0,21.0,Dual,MOBI (MB2F&3F-65-17&17DE10&8-2015),NSN,VII+,9/9/2017,S12K_OD,3.0,4-4-4,70/230/280,1.0,OFC,E1,,,,,,,,60.0,Tirupati,VII +,9/9/2017,70/230/280,RRH,3.0,21.0,Dual,MOBI (MD2F&3F-65-17&17DE10&8-2015),OFC,Optical,,100 Mbps,,,,,,Tiruapti,,4.0,CT5098,CT5098,,,,,,,,,,030718-YES(FX+CTR(PTN)+CTR-DWDM+TRP(DWDM)+PE2(2-2-25),100 Mbps,505.0,030718-YES(FX+CTR(PTN)+CTR-DWDM+TRP(DWDM)+PE2(2-2-25),CTR,,
206,CT5103,504_41101_SKHTCNIL_CT5103,2G+3G,NSN,553_36373_SKHT-CNIL_CT5103,13.75181,79.70676,E-City,Srikalahasti,Srikalahasti,,Shelter,5378.0,DN.7-437; WAR NO.7 P.V ROAD; SRIKALAHASTI.;address;srikalahasti,Tirupati,SRI KALAHASTHI,517644.0,IP,GTL,APR/RTP/K/15266,RTP,9.0,18.0,Dual,MOBI (MB2F&3F-65-17&17DE10&8-2015),NSN,VII+,8/13/2017,BTS18K_ID,3.0,4-4-4,40/150/300,1.0,OFC,E1,,,,,,,,67.0,Tirupati,VII +,3/18/2017,40/150/300,RRH,3.0,18.0,Dual,MOBI (MD2F&3F-65-17&17DE10&8-2015),OFC,FE,,100 Mbps,,,,,,Tiruapti,,553.0,CT5103,CT5103,,,,,,,,,,270818YES(MADM(SKT)+DWDM(SKT)+DWDM(STR)+PE1(2-2-33),100 Mbps,504.0,270818YES(MADM(SKT)+DWDM(SKT)+DWDM(STR)+PE1(2-2-33),SKT,,
207,CT5106,504_41091_TRP-SP Office_CT5106,2G+3G,ZTE,346_6367_TRP_SP_Office_CT5106,13.62999,79.41255,DHQ,TIRUPATI,Tirupati (Urban),,Room,5383.0,"SP Office ,Near NTR Circle, Tirupati-517501",Tirupati,CHANDRAGIRI,517501.0,NBSNL,BSNL Infra,CT5106,RTP,9.0,18.0,Dual,MOBI (MB2F&3F-65-17&17DE10&8-2015),NSN,VII+,,,3.0,4-4-4,60/180/310,1.0,OFC,E1,,,,,,,,58.0,Tirupati,VII +,8/29/2019,60/180/300,RRH,3.0,18.0,Dual,MOBI (MD2F&3F-65-17&17DE10&8-2015),OFC,FE,,100 Mbps,,,,,,Tiruapti,,346.0,CT5106,,,,,,,,,,,,100 Mbps,504.0,220718-YES-(FE+TRP-MADM+PE2(2-2-31)),TRP,,
208,CT5107,505_53441_CTR_SBI_CLY_CT5107,2G+4G,NSN,4G_36362_CTR_SBI_CLY_CT5107,13.21831,79.1173,E-City,Chittoor,TIRUPATI,,ROOM,,,Chittoor,CHITTOOR,517001.0,NBSNL,BSNL INFRA,CT5107,MARR-1,,,,MOBI (MB2F&3F-65-17&17DE10&8-2015),NSN,,7/24/2018,,3.0,4-4-4,,,OFC,,,,,,,,,,,,,,RRH,,,,,,,,100 Mbps,,,,,,,,4.0,,,CT5107,,,CT5107,,,,,,240718-YES(fe+CTR(CAR)-MADM)+CTR-DWDM+TRP(DWDM)+PE1(2-2-23),100 Mbps,505.0,240718-YES(fe+CTR(CAR)-MADM)+CTR-DWDM+TRP(DWDM)+PE1(2-2-23),CTR,,
209,CT5109,504_41071_KALYANI2_VIOM_CT5109,2G+3G,ZTE,346_6366_TRP_Kalyani-2_VIOM_CT5109,13.63689,79.41451,DHQ,Tirupati,Tirupati (Urban),,OD Plinth,5383.0,"D-NO:101,OPPOSITE TO SHYAMALA NURSING HOME,SD ROAD,GAJU VEDHI,TIRUPATI,Chittoor DT.",Tirupati,CHANDRAGIRI,517501.0,IP,VIOM,ANPCHI0071,RTP,9.0,18.0,Dual,Agisson,NSN,V.1,8/29/2019,BTS18K_OD,3.0,4-4-4,60/150/250,,DMW,,,NEW NEC,0.6 m,BSC58-16_TRT_Alipiri_CT2073A,E1,1.0,,58.0,Tirupati,V.1,8/29/2019,60/150/250,OD,3.0,18.0,Dual,Agisson,DMW,,,100 Mbps,NEW NEC,0.6 m,CT2073,FE,,Tiruapti,100 Mbps,346.0,CT5109,,,,,,CT5109,,,,,,100 Mbps,504.0,"240818-YES-(DMW,E1+TRP-MADM+CAR-STM)",TRP,,
210,CT5501,505_53431_Nakkaladinne_GTL_CT5501,2G+4G,NSN,4G_36351_Nakkaladinne _CT5501,13.55422,78.49125,Rural,NakkalaDinne,Madanapalle,NH,Shelter,5392.0,"SY.NO.3,Ponnutapalem Revenue Village,Madanapalli.",Rajampet,MADANAPALLI,517325.0,IP-GTL,GTL,APR/GBT/K/11579,GBT,40.0,37.0,Dual,KATHREIN,NSN,IV.5,3/11/2018,BTS18K_ID,3.0,3-2-3,170/250/320,,OFC,,,,,,,,,68.0,Tirupati,,,,RRH,,,,,,,,100 Mbps,,,,,,,,4.0,CT5501,,CT5501,,,,CT5501,,,,,080618-YES(FX+MDP(PTN)-MDP(STR)+CTR-DWDM+TRP(DWDM)+PE2(2-2-27),100 Mbps,505.0,130618-YES(FX+MDP(PTN)-MDP(STR)+CTR-DWDM+TRP(DWDM)+PE2(2-2-27),MDP,,
211,CT5516,504_41111_TRP-Mangalam_IND_CT5516,2G+3G,NSN,553_36461_553_TRP_Mangalam_CT5516,13.6572,79.46129,DHQ,Tirupati,TIRUPATI,,OD PLINTH,,"MANGALAM,CUDDAPAH ROAD,TIRUPATI,CHITTOOR DIST-517507.",Tirupati,CHANDRAGIRI,517501.0,IP,INDUS,IN-1005950,RTT,24.0,24.0,Dual,MOBI,NSN,VIII,9/29/2018,,3.0,4-4-4,,,OFC,,,,,,,,,,,VIII,,,RRH,,,,,,,,60 Mbps,,,,,,,,553.0,,,CT5516,,,CT5516,,,,,,121018YES(FE+PTN_REN+PE)PE1(2-2-19),60 Mbps,504.0,290918-YES(FE+PTN_REN+PE)PE1(2-2-19),TRP,,
212,CT5517,504_41121_TRP_Vasundharanagar_SR_CT5517,2G,,,13.60323,79.44546,DHQ,Tirupati,TIRUPATI,,ROOM,,"H.no.:1-50-39-50B, Vasundhara Nagar, Tiruchanur, Tirupati, Chittor Dist., Andhra Pradesh 517503",Tirupati,CHANDRAGIRI,,IP,SR TOWERs,TCNR14,RTP,19.0,15.0,,,NSN,VIII,,,,,,,DMW,,,NSN,,YOGI MALLAVARAM,,,,,,,,,,,,,,,,,,,,,,,,,,,,,,,CT5517,,,,,,,,504.0,"011118-YES-(DMW,FE+TRP-MADM+PE2(2-2-31))",TRP,,
213,CT5518,505_53451_Dodipalli_ATC_CT5518,2G+4G,NSN,4G_36391_Dodipalli_CT5518,13.23524,79.11655,E-City,Chittoor,Chittoor,,ROOM,,C. Dayaniathan/8121834367;H No: 35-3; Street: Chamundi nagar; kotrakona road; Town: 75 Doddipalli; Mandal: Chittoor; Dist: Chittoor.-517001,Chittoor,CHITTOOR,,IP,ATC,ANPCHI3488,GBT,30.0,30.0,dual,mobi,NSN,VIII,,,,4-4-4,,,OFC,,,,,,,,,,,VIII,,,RRH,,,,,,,,100 Mbps,,,,,,,,4.0,,,CT5515,,,CT5515,,,,,,171018-YES(fe+DMW+CTR(CAR)-MADM)+CTR-DWDM+TRP(DWDM)+PE1(2-2-23),100 Mbps,505.0,171018-YES(fe+DMW+CTR(CAR)-MADM)+CTR-DWDM+TRP(DWDM)+PE1(2-2-23),CTR,,
214,CT5526,504_4072_TRP_Leelamahal_IND_CT5526,2G+3G,ZTE,346_6022_TRP_Leelamahal_IND_CT5526,13.64154,79.42739,DHQ,TIRUPATI,TIRUPATI(URBAN),OD,OD,,"H.No.18-2-268/16, LEELA MAHAL JUNCTION,Ashok nagar, Tirumala Thirupathi By Pass Road, Tirupathi, Chittoor Dist.AP, PIN CODE : 517501",Tirupati,CHANDRAGIRI,517501.0,IP-INDUS,INDUS NETWORKS,IN-1131389,RTP,22.0,21.0,DUAL,MOBI,NSN,VIII.4,,,,4-4-4,40/150/220,,DMW,,,NEW NEC,0.6,KOLAGUNTA_CT2075,,,,,TIRUPATI,,,,RRH,,,,,DMW,,,100 Mbps,NEW NEC,,,,,,,346.0,CT5526,,,,,,,,,,,,100 Mbps,504.0,,,,
215,CT5536,504_40521_ReniguntaCheckpost_ATC_CT5536,2G+3G,ZTE,346_60191_RenguntaCheckpost_ATC_CT5536,13.64102,79.50896,DHQ,Tirupati,Renigunta,NH,OD Plinth,5376.0,"H.No. 19-431/1 in Sy.No.s 442/4 & 442/5 in Ward No. 17 Near Rajamata Kalyana Mandapam, Balaji Nagar New Checkpost Street, Renigunta Mandal, Chittor-517520",Tirupati,CHANDRAGIRI,517520.0,IP-ATC,ATC,ANPCHI3947,RTT,18.0,25.0,Dual,Agisson,NSN,V.1,3/7/2020,S12K_ID,3.0,4-4-4,80/140/220,,DMW,,,NEW NEC,0.6 m,BSC58-19_TRP_Renigunta_CT2023A,E1,1.0,,58.0,Tirupati,V.1,3/7/2020,80/140/220,RRH,3.0,25.0,Dual,Agisson,DMW,,,100 Mbps,NEW NEC,0.6 m,CT2023,FE,,Tiruapti,60 Mbps,346.0,CT2210,,,,,,,,,,2015812100@G/FVC/HYD/3156689/2016@CLEARED ONLINE,,100 Mbps,504.0,"090718-YES-(DMW,GE+RENI_PTN-FX3/5+NIB-4/5+PE-GE1(2-2-19))",TRP,,
216,CT5540,504_40761_ManasaKC_IND_CT5540,2G+3G,ZTE,346_5964_TPT_ManasaKidnyCentre_IND_CT5540A,13.65286,79.42004,E-City,Tirupati,Tirupati (Urban),,OD,5383.0,"H NO-6-8-1119 NGO'S COLANY K.T.ROAD OPP-SRI KAPILESWARA SWAMI TEMPLE,TIRUPATHI, CHITTOOR DIST AP-517501",Tirupati,CHANDRAGIRI,517501.0,IP-INDUS,INDUS,IN-1297161,RTT,15.0,24.0,DUAL,MOBI,NSN,VII,,,3.0,4-4-4,0/120/240,,OFC,,,,,,,,,,TIRUPATI,,,,RRH,,24.0,DUAL,MOBI,OFC,,,100 Mbps,,,,,,TIRUPATI,,346.0,CT5540,CT5540,,,,,,,,,,,100 Mbps,504.0,,,,
217,CT5546,504_40961_Renigunta-RCF_IND_CT5546,2G+3G,ZTE,346_6031_Rengunta_RCF_IND_CT5546,13.63657,79.47558,E-City,Renigunta,Renigunta,RC,Shelter,5376.0,,tirupati,CHANDRAGIRI,517520.0,IP-INDUS,INDUS,IN-1278570,GBT,40.0,40.0,Dual,MOBI (MB2F&3F-65-17&17DE10&8-2015),NSN,VII,5/17/2020,S12K_ID,3.0,4-4-4,60/260/310,,DMW,,,NEW NEC,0.6 m,BSC58-19_TRP_Renigunta_CT2023A,E1,1.0,,58.0,Tirupati,VII,5/18/2020,60/260/310,RRH,3.0,40.0,Dual,MOBI (MD2F&3F-65-17&17DE10&8-2015),DMW,,,100 Mbps,NEW NEC,0.6 m,CT2023,FE,,Tiruapti,50Mbps,346.0,CT5546,,,,,,,,,,2015812385@G/FXW/HYD/3156697/2016]@dated9/2/2016,,100 Mbps,504.0,"090718-YES-(DMW,FE+RENI_PTN-FX3/8+NIB-4/5+PE-GE1(2-2-19))",TRP,,
218,CT5547,504_41271_TRP_Bhavani Nagar_IND_CT5547,2G+3G,ZTE,346_TRP_Bhavani Nagar_IND_CT5547,13.63837,79.41882,DHQ,Tirupati,Tirupati,,OD Plinth,,"Kamala Residency, H.No.18-1-501A,Tirupati,Chittoor Dist Ap 517501",tirupati,CHANDRAGIRI,,IP-INDUS,INDUS,IN-1321225,RTT,31.0,31.0,Dual,MOBI,NSN,VIII+,6/25/2020,OD,3.0,4-4-4,,,DMW,,,NSN,0.6 m,TirpatiMainEx_CT2072,,,,,,VIII+,6/25/2020,,RRH,3.0,31.0,DUAL,MOBI,DMW,FE,,100,NSN,0.6 m,CT2072,FE,,,,346.0,,,,,,,,,,,,,,0.0,,,,
219,CT5550,504_40771_Ithepalle_IND_CT5550,2G,,,13.58173,79.28013,Rural,Ithepalli,Chandragiri,NH,Shelter,5384.0,"GTL Tower, Ithepalli,Ithapally Village & Panchayathy, Chandragiri Mandal, Chittoor Dist",Tirupati,CHANDRAGIRI,517501.0,IP-INDUS,INDUS,IN-1065548,GBT,40.0,40.0,Dual,Agisson,NSN,VII,4/2/2013,S8K_ID,3.0,4-4-4,30/130/230,1.0,OFC,E1,,,,,,,,58.0,Tirupati,,,,,,,,,,,,,,,,,,,,,CT5550,,,,,,,,,,,110718-YES-(FE+CDR_PTN-FX3/2+NIB-4/5+PE-GE1(2-2-19)),100 Mbps,504.0,300718-YES-(FE+CDR_PTN-FX3/2+NIB-4/5+PE-GE1(2-2-19)),STD,,
220,CT5551,505_53121_Thotaplle_IND_CT5551,2G+3G,NSN,553_53121_Thotaplle_IND_CT5551,13.43116,79.12963,Rural,Thotapalle,Pakala,NH,OD Plinth,5396.0,"D.No.3-60, Thotapalle (V), Pakala (M), Chittoor Dt",Chittoor,PAKALA,517112.0,IP-INDUS,INDUS,IN-1066809,GBT,40.0,30.0,Dual,MOBI (MB2F&3F-65-17&17DE10&8-2015),NSN,VII,12/10/2013,BTS18K_OD,3.0,4-4-4,50/240/340,,DMW,,,NEW NEC(HFCL),0.6 m,BSC60-37_Pakala-SDCA_CT2036A,E1,1.0,,60.0,Tirupati,VII+,,,RRH,3.0,,,,DMW,FE,,,,,,,,Tirupati,,553.0,CT5551,CT5551,,,,,CT5002,,,,2015812489@G/FXW/HYD/3156705/2016@K-19012-G/FVC/HYD2891034/2015-CFA DTD 9-12-16,,,505.0,230618-YES(FX+PKL(PTN)+CTR-DWDM+TRP(DWDM)+PE2(2-2-27),STD,,
221,CT5552,504_41011_Nagari_INDUS_CT5552,2G+3G,NSN,553_36281_Nagari_Indus_CT5552,13.32257,79.58581,E-City,NAGARI,Nagari,SH,OD Plinth,5406.0,"D.NO:-8-44, KASTHURIBHAI MAHAL KALYANA MANDAPAM, PRAKASHAM ROAD; NEAR CHVADI NAGARI (VI&TALUK) CHITTOOR(DT), AP, 517590",Tirupati,PUTTUR,517590.0,IP-INDUS,Indus Towers,IN-1005854,RTT,34.0,34.0,Dual,MOBI (MB2F&3F-65-17&17DE10&8-2015),NSN,VII,7/31/2020,S12K_ID,3.0,4-4-4,0/70/180,,DMW,,,NEW NEC,0.6 m,BSC67-91_Ekambarakupam_CT9002A,E1,1.0,,67.0,Tirupati,VII,7/31/2020,0/70/180,RRH,3.0,34.0,Dual,MOBI (MD2F&3F-65-17&17DE10&8-2015),DMW,,,70 Mbps,NEW NEC,0.6 m,CT9002,FE,,Tiruapti,25Mbps,553.0,CT5078,CT5078,,,,,,,,,2015813444@G/FXW/HYD/3156720/2016@CLEARED ONLINE,060718YES(fe+MADM1-3-3(EKM)+MADM(PTR)+DWDM(PTR)+DWDM(TRP_STR)+PE1(2-2-21),70 Mbps,504.0,280718YES(fe+MADM1-3-3(EKM)+MADM(PTR)+DWDM(PTR)+DWDM(TRP_STR)+PE1(2-2-21),EKM,,
222,CT5561,505_346_PTR_DRDO_CT5561,2G+4G,NSN,4G_PTR_DRDO_AP_CT5561,13.27969,79.31541,Rural,PUTTUR,PUTTUR,,SHELTER,,"DRDO CAMPUS,KOKIRALA KONA",Tirupati,PUTTUR,,NBSNL,BSNL Infra,CT5561,MARR,21.0,21.0,,,NSN,,12/17/2020,,,,,,,,,,,,,,,,,,10/20/2020,0/120/240,ID,3.0,21.0,MONO,MOBI,OFC,FX,,100 MBPS,,,,,,,,4.0,,,,,,,,,,,,,,0.0,,,,
223,CT9002,504_41081_Ekambarakuppam-TE_CT9002,2G+3G,NSN,553_36331_Ekambarakuppam-TE_CT9002,13.3181,79.57031,E-City,Ekambarakuppam,Nagari,RC,Exchange,5406.0,"Ekm exge,Ekm.,Chittoor DT.",Tirupati,PUTTUR,517592.0,BSNL,BSNL Infra,CT9002,GBT,40.0,35.0,Dual,MOBI (MB2F&3F-65-17&17DE10&8-2015),NSN,I,6/6/2004,S12K_ID,3.0,4-4-4,30/90/220,1.0,OFC,E1,,,,,,,,67.0,Tirupati,VII,2/24/2014,30/90/220,ID,3.0,35.0,Dual,MOBI (MD2F&3F-65-17&17DE10&8-2015),OFC,FE,,70 Mbps,,,,,,Tiruapti,,553.0,CT9002,CT9002,,,,,,,,,,070718YES(fe+FE-MADM1-3-4(EKM)+MADM(PTR)+DWDM(PTR)+DWDM(TRP_STR)+PE1(2-2-21),70 Mbps,504.0,210818YES(fe+FE-MADM1-3-4(EKM)+MADM(PTR)+DWDM(PTR)+DWDM(TRP_STR)+PE1(2-2-21),EKM,,
224,CT9005,505_53421_DravidaUniversity_KUP_CT9005,2G+3G,NSN,553_36343_Dravidauniversity_CT9005,12.80146,78.30411,Rural,KUPPAM,kuppam,,Room,5427.0,"Dravidian university,kuppam,Chittoor DT.",Chittoor,KUPPAM,517426.0,NBSNL,BSNL Infra,CT9005,RTP,9.0,15.0,Dual,XAHT,NSN,IV.5,2/16/2010,BTS6K_OD_AC,3.0,2-2-2,100/200/280,2.0,OFC,E1,,,,,,,,70.0,Tirupati,VII +,5/23/2017,100/200/280,RRH,3.0,15.0,Mono,MOBI (MB3F-65-18DE10+MBRET-RCU-003),OFC,FE,,45 Mbps,,,,,,Tiruapti,,553.0,CT9005,CT9005,,,,,CT9005,,,,,240818YES(FE+MADM(KPM)+MADM(STR)+PE2(2-2-37),45 Mbps,505.0,250818YES(FE+MADM(KPM)+MADM(STR)+PE2(2-2-37),KPM,,
