SR.NO,RPID,SITE_NAME_3G,SITE_NAME,TECHNOLOGY,3G_TECH,LATITUDE,LONGITUDE,DHQ,DHQ_NAME,Mandal,ROUT,SHELTER,Mandal_Code,Address,MP_CONS,SDCA,PIN_CODE,BSNL_IP,IP_NAME,IP_ID,Tower_Type,2G_Tower_HT,2G_ Ant_HT,2G_Ant,2G_Ant_Make,2G_BTS,2G_Phase,2G_Commission,2G_Type,2G_SEC,2G_Conf,2G_Azimuth,2G_E1_NO,2G_Media,2G_OFC_E1,2G_FE_BW,2G_DMW,2G_DMW_Ant_DIA,2G_Far_end_RPID,2G_DMW_E1_FE,2G_DMW_E1_NO,2G_DMW_FE_BW,BSC,2G_MSC,3G_PH,3G_Commission,3G_Azimuth,3G_ID,3G_SEC,3G_ANT_HT,3G_ANT_TYPE,Field52,3G_MEDIA,3G_OFC_FE,3G_E1_NO,3G_FE_BW,3G_DMW,3G_DMW_DIA,3G_FAR_RPID,3G_E1_FE,Field61,3G_MSC,Field62,RNC,NSN_2G,NSN_3G,NSN_NEW_3G,NSN_4G,HUW_REDP,NSN_NEW_2G,NOR_IV5,NOR_IV,3G_HUW_FROM,3G_HUW_FROM_TYPE,DMW_SACFA,WORK_C,BW,BSC_PORT,WORK_2G,TOWN,WORK_2G1,TOWN1
1,CT2002,4G_35023_Greamspet_CT2002,505_50021_CTR_Greamspet_CT2002,2G+4G,NSN,13.20171,79.09397,E-City,Chittoor,Chittoor,,Room,5421.0,"4-908,4-910,Old Collectorate Office Road,Greamspet ,Chittoor DT.",Chittoor,CHITTOOR,517002.0,NBSNL,BSNL Infra,CT2002,MARR,12.0,26.0,Dual,MOBI,NSN,I,6/4/2004,BTS18K_ID,3.0,6-6-6,170/260/350,2.0,OFC,E1,,,,,,,,60.0,Tirupati,V.1,3/18/2010,170/260/350,RRH,3.0,30.0,Mono,Agisson,OFC,FE,,100 Mbps,,,,,,Tiruapti,,4,CT2002,CT2002,,,,,CT2002,,,,,121018-YES(FE+CTR(CAR)-MADM)+CTR-DWDM+TRP(DWDM)+PE1(2-2-23),100 Mbps,505,121018-YES(FE+CTR(CAR)-MADM)+CTR-DWDM+TRP(DWDM)+PE1(2-2-23),CTR,,
2,CT2003,4G_35033_OFCStation_CT2003,505_50031_CTR_Chittoor_OFC_CT2003,2G+4G,NSN,13.21576,79.10481,E-City,Chittoor,Chittoor,SH,Room,5421.0,"Chittoor OFC stn,near fly over bridge ,Chittoor.,Chittoor DT.",Chittoor,CHITTOOR,517001.0,BSNL,BSNL Infra,CT2003,GBT,100.0,40.0,Dual,XAHT,NSN,I,6/4/2004,BTS18K_ID,3.0,6-6-6,10/120/270,2.0,OFC,E1,,,,,,,,60.0,Tirupati,V.1,7/14/2010,10/120/270,RRH,3.0,40.0,Mono,Agisson,OFC,Optical,,100 Mbps,,,,,,Tiruapti,,4,CT2003,CT2003,,,,,CT2003,,,,,200718-YES(FX+CTR(PTN)+CTR-DWDM+TRP(DWDM)+PE2(2-2-25),100 Mbps,505,200718-YES(FX+CTR(PTN)+CTR-DWDM+TRP(DWDM)+PE2(2-2-25),CTR,,
3,CT2004,4G_35041_Santhapeta_CT2004,505_50041_CTR_Santhapeta_CT2004,2G+4G,NSN,13.22933,79.09169,E-City,Chittoor,Chittoor,,Exchange,5421.0,"CTR_Santhapeta RSU,Chittoor,Chittoor DT.",Chittoor,CHITTOOR,517004.0,BSNL,BSNL Infra,CT2004,GBT,30.0,30.0,Mono,KATHREIN,NSN,I,6/4/2004,S12K_ID,3.0,4-4-4,20/160/230,1.0,OFC,E1,,,,,,,,60.0,Tirupati,V.1,3/18/2010,20/160/230,RRH,3.0,30.0,Mono,Agisson,OFC,FE,,100 Mbps,,,,,,Tiruapti,,4,CT2004,CT2004,,,,,,,,,,290618-YES(FX+CTR(PTN)+CTR-DWDM+TRP(DWDM)+PE2(2-2-25),100 Mbps,505,290618-YES(FX+CTR(PTN)+CTR-DWDM+TRP(DWDM)+PE2(2-2-25),CTR,,
4,CT2009,4G_35061_Madanapalle-RLU_CT2009,505_50091_MDP_Madanapalle-RLU_CT2009,2G+4G,NSN,13.55058,78.5123,E-City,Madanapalle,Madanapalle,,Exchange,5392.0,"Madanapalli RLU,madanapalli,Chittoor DT.",Rajampet,MADANAPALLI,517325.0,BSNL,BSNL Infra,CT2009,MARR,18.0,27.0,Dual,MOBI (MB2F&3F-65-17&17DE10&8-2015),NSN,IV,9/29/2005,S12K_ID,3.0,6-6-6,0/60/180,1.0,OFC,E1,,,,,,,,68.0,Tirupati,VII,12/16/2013,0/60/180,ID,3.0,27.0,Dual,MOBI (MD2F&3F-65-17&17DE10&8-2015),OFC,FE,,100 Mbps,,,,,,Tiruapti,,4,CT2009,CT2009,,,,,,,,,,270718-YES-(FX(E1)+MADM(STR)+PE2(2-2-29)),100 Mbps,505,270718-YES-(FX(E1)+MADM(STR)+PE2(2-2-29)),MDP,,
5,CT2010,4G_35072_Madanapalle-MW_CT2010,505_50101_MDP_Madanapalle-MW_CT2010,2G+4G,NSN,13.58141,78.52007,E-City,Madanapalle,Madanapalle,NH,Room,5392.0,"MDP_Madanapalle-MW,madanapalli,Chittoor DT.",Rajampet,MADANAPALLI,517325.0,BSNL,BSNL Infra,CT2010,GBT,100.0,30.0,Dual,MOBI (MB2F&3F-65-17&17DE10&8-2015),NSN,IV,6/10/2005,S12K_ID,3.0,4-4-4,5/150/215,2.0,OFC,E1,,,,,,,,68.0,Tirupati,VII,12/18/2013,5/150/215,ID,3.0,30.0,Dual,MOBI (MD2F&3F-65-17&17DE10&8-2015),OFC,FE,,100 Mbps,,,,,,Tiruapti,,4,CT2010,CT2010,,,,,,,,,,190818-YES-(FX(E1)+MADM(STR)+PE2(2-2-29)),100 Mbps,505,190818-YES-(FX(E1)+MADM(STR)+PE2(2-2-29)),MDP,,
6,CT2013,4G_35092_Pileru_CT2013,505_50131_NH18_Pileru_CT2013,2G+4G,NSN,13.65423,78.94377,E-City,Piler,Pileru,NH,Exchange,5386.0,"Piler TE,piler.,Chittoor DT.",Rajampet,PILER,517214.0,BSNL,BSNL Infra,CT2013,GBT,80.0,40.0,Dual,MOBI (MB2F&3F-65-17&17DE10&8-2015),NSN,I,6/4/2004,S12K_ID,3.0,4-4-4,140/310/60,2.0,OFC,E1,,,,,,,,68.0,Tirupati,VII,2/26/2014,140/310/60,RRH,3.0,40.0,Dual,MOBI (MD2F&3F-65-17&17DE10&8-2015),OFC,FE,,100 Mbps,,,,,,Tiruapti,,4,CT2013,CT2013,,,,,,,,,,220818-YES(Fe+PIL(PTN)+CTR-DWDM+TRP(DWDM)+PE2(2-2-27),100 Mbps,505,220818-YES(Fe+PIL(PTN)+CTR-DWDM+TRP(DWDM)+PE2(2-2-27),PIL,,
7,CT2015,4G_35113_Punganur_CT2015,505_50151_Punganur_CT2015,2G+4G,NSN,13.36644,78.572,E-City,Punganur,Punganur,SH,Exchange,5415.0,"punganur exge,busstand area.,Chittoor DT.",Rajampet,PUNGANUR,517247.0,BSNL,BSNL Infra,CT2015,MARR,18.0,30.0,Dual,MOBI (MB2F&3F-65-17&17DE10&8-2015),NSN,III,7/11/2004,S12K_ID,3.0,4-4-4,0/60/120,2.0,OFC,E1,,,,,,,,70.0,Tirupati,VII,12/18/2013,0/60/120,RRH,3.0,30.0,Dual,MOBI (MD2F&3F-65-17&17DE10&8-2015),OFC,FE,,100 Mbps,,,,,,Tiruapti,,4,CT2015,CT2015,,,,,,,,,,060818YES(FE+MADM(PLM)+MADM(STR)+PE1(2-2-35),100 Mbps,505,090818YES(FE+MADM(PLM)+MADM(STR)+PE1(2-2-35),PUG,,
8,CT2025,4G_35143_ChurchStreet_NB_CT2025,505_50251_CTR_ChurchStreet_CT2025,2G+4G,NSN,13.217,79.09834,E-City,Chittoor,Chittoor,,Room,5421.0,"Chanda residency,church st,chittoor.,Chittoor DT.",Chittoor,CHITTOOR,517001.0,NBSNL,BSNL Infra,CT2025,MARR,12.0,30.0,Mono,KATHREIN,NSN,III+,10/14/2004,BTS18K_ID,3.0,6-6-6,10/110/250,2.0,OFC,E1,,,,,,,,60.0,Tirupati,V.1,3/18/2010,10/110/250,RRH,3.0,30.0,Mono,Agisson,OFC,FE,,100 Mbps,,,,,,Tiruapti,,4,CT2025,CT2025,,,,,,,,,,200718-YES(FX+CTR(PTN)+CTR-DWDM+TRP(DWDM)+PE2(2-2-25),100 Mbps,505,200718-YES(FX+CTR(PTN)+CTR-DWDM+TRP(DWDM)+PE2(2-2-25),CTR,,
9,CT2028,4G_35152_Pileru2-NB_CT2028,505_50281_Pileru2-NB_CT2028,2G+4G,NSN,13.65456,78.93688,E-City,Piler,Pileru,NH,Room,5386.0,"Sodam rd, SDOT office Building, Piler,Chittoor DT.",Rajampet,PILER,517214.0,NBSNL,BSNL Infra,CT2028,MARR-1,21.0,27.0,Dual,MOBI (MB2F&3F-65-17&17DE10&8-2015),NSN,IV,6/2/2006,S12K_ID,3.0,4-4-4,80/170/310,2.0,OFC,E1,,,,,,,,68.0,Tirupati,VII,1/16/2014,80/170/310,RRH,3.0,27.0,Dual,MOBI (MD2F&3F-65-17&17DE10&8-2015),OFC,FE,,60 Mbps,,,,,,Tiruapti,,4,CT2028,CT2028,,,,,,,,,,080818-YES(Fe+PIL(PTN)+CTR-DWDM+TRP(DWDM)+PE2(2-2-27),60 Mbps,505,080818-YES(Fe+PIL(PTN)+CTR-DWDM+TRP(DWDM)+PE2(2-2-27),PIL,,
10,CT2031,4G_35173_Rangampeta_HW_CT2031,504_40081_Rangampeta_HW_CT2031,2G+4G,NSN,13.62385,79.27944,DHQ,Rangampeta,Chandragiri,RC,Room,5384.0,"Rangampet (V),Chandragiri(M)",Tirupati,CHANDRAGIRI,517102.0,BSNL,BSNL Infra,CT2031,GBT,40.0,40.0,Dual,MOBI (MB2F&3F-65-17&17DE10&8-2015),NSN,III,11/26/2004,S8K_ID,3.0,4-4-4,88/280/180,1.0,OFC,E1,,,,,,,,58.0,Tirupati,V.1,6/2/2014,88/280/180,RRH,3.0,40.0,Dual,MOBI (MD2F&3F-65-17&17DE10&8-2015),OFC,FE,,100 Mbps,,,,,,Tiruapti,,4,CT2031,CT2031,,,,,,,,,,300818-YES-(FE+CDR_PTN+NIB+PE-GE1(2-2-19)),100 Mbps,504,300818-YES-(FE+CDR_PTN+NIB+PE-GE1(2-2-19)),STD,,
11,CT2033,4G_35193_Varadayyapalem_CT2033,504_40101_Varadayyapalem_CT2033,2G+4G,NSN,13.5999,79.93397,Rural,Varadayyapalem,Varadaiahpalem,SH,Exchange,5381.0,"Varadayyapalem(VM),Chittoor DT.",Tirupati,SATYAVEDU,517541.0,BSNL,BSNL Infra,CT2033,GBT,40.0,38.0,Dual,MOBI (MB2F&3F-65-17&17DE10&8-2015),NSN,IV,10/24/2005,S12K_ID,3.0,4-4-4,64/154/312,1.0,OFC,E1,,,,,,,,67.0,Tirupati,Vii,6/28/2014,64/154/312,RRH,3.0,38.0,Dual,MOBI (MD2F&3F-65-17&17DE10&8-2015),OFC,FE,,100 Mbps,,,,,,Tiruapti,,4,CT2033,CT2033,,,,,,,,,,040818YES(FE+MADM(SKT)+DWDM(SKT)+DWDM(STR)+PE1(2-2-33),100 Mbps,504,040818YES(FE+MADM(SKT)+DWDM(SKT)+DWDM(STR)+PE1(2-2-33),STD,,
12,CT2036,4G_35223_Pakala_CT2036,505_50361_Pakala-SDCA_CT2036,2G+4G,NSN,13.44876,79.11343,E-City,Pakala,Pakala,RC,Exchange,5396.0,"pakala exge.pakala(M),Chittoor DT.",Chittoor,PAKALA,517112.0,BSNL,BSNL Infra,CT2036,MARR,21.0,29.0,Dual,MOBI (MB2F&3F-65-17&17DE10&8-2015),NSN,III+,10/28/2004,S12K_ID,3.0,4-4-4,36/120/277,1.0,OFC,E1,,,,,,,,60.0,Tirupati,VII,4/9/2014,36/120/277,RRH,3.0,29.0,Dual,MOBI (MD2F&3F-65-17&17DE10&8-2015),OFC,FE,,100 Mbps,,,,,,Tiruapti,,4,CT2036,CT2036,,,,,,,,,,210618-YES(FX+PKL(PTN)+CTR-DWDM+TRP(DWDM)+PE2(2-2-27),100 Mbps,505,200618-YES(FX+PKL(PTN)+CTR-DWDM+TRP(DWDM)+PE2(2-2-27),PKL,,
13,CT2044,4G_35253_RamNagarColony_CT2044,505_50441_CTR_RamnagarClny_CT2044,2G+4G,NSN,13.20941,79.09138,E-City,Chittoor,Chittoor,,Room,5421.0,"Ramanagar colony,Chittoor,Chittoor DT.",Chittoor,CHITTOOR,517001.0,NBSNL,BSNL Infra,CT2044,MARR,18.0,27.0,Mono,KATHREIN,NSN,IV,2/13/2006,S12K_ID,3.0,4-4-4,40/135/240,2.0,OFC,E1,,,,,,,,60.0,Tirupati,V.1,3/18/2010,40/135/240,RRH,3.0,27.0,Mono,Agisson,OFC,FE,,100 Mbps,,,,,,Tiruapti,,4,CT2044,CT2044,,,,,,,,,,030718-YES(FX+CTR(PTN)+CTR-DWDM+TRP(DWDM)+PE2(2-2-25),100 Mbps,505,030718-YES(FX+CTR(PTN)+CTR-DWDM+TRP(DWDM)+PE2(2-2-25),CTR,,
14,CT2049,4G_35272_Kalikiri_CT2049,505_50491_Kalikiri_CT2049,2G+4G,NSN,13.64794,78.80433,E-City,Kalikiri,Kalikiri,RC,Exchange,5387.0,"behind rtc bus stand,Kalikiri,Chittoor DT.",Rajampet,VAYALPADU,517224.0,BSNL,BSNL Infra,CT2049,GBT,60.0,40.0,Dual,MOBI (MB2F&3F-65-17&17DE10&8-2015),NSN,III,6/10/2004,S12K_ID,3.0,4-4-4,90/240/290,2.0,OFC,E1,,,,,,,,68.0,Tirupati,VII,5/23/2014,90/240/290,RRH,3.0,40.0,Dual,MOBI (MD2F&3F-65-17&17DE10&8-2015),OFC,FE,,100 Mbps,,,,,,Tiruapti,,4,CT2049,CT2049,,,,,,,,,,070818-YES(FX+VYP(PTN)-CTR(PTN)+CTR-DWDM+TRP(DWDM)+PE2(2-2-27),100 Mbps,505,070818-YES(FX+VYP(PTN)-CTR(PTN)+CTR-DWDM+TRP(DWDM)+PE2(2-2-27),STD,,
15,CT2054,4G_35292_Madanapalle NB_CT2054,505_50541_MDP_Madanapalle-NB_CT2054,2G+4G,NSN,13.56467,78.49897,E-City,Madanapalle,Madanapalle,,Room,5392.0,"REDDY'S COLONY,Madanapalli NB,Madnapalli,Chittoor DT.517325",Rajampet,MADANAPALLI,517325.0,NBSNL,BSNL Infra,CT2054,MARR-1,21.0,27.0,Dual,XAHT,NSN,IV,12/4/2006,BTS18K_ID,3.0,4-4-4,120/280/325,2.0,OFC,E1,,,,,,,,68.0,Tirupati,VII,7/21/2016,120/280/325,RRH,3.0,27.0,Mono,MOBI (MD2F&3F-65-17&17DE10&8-2015),OFC,FE,,100 Mbps,,,,,,Tiruapti,,4,CT2054,CT2054,,,,,,,,,,060918-YES(GE+MDP(PTN)+CTR-DWDM+TRP(DWDM)+PE2(2-2-27),100 Mbps,505,060918-YES(GE+MDP(PTN)+CTR-DWDM+TRP(DWDM)+PE2(2-2-27),MDP,,
16,CT2055,4G_35303_Madanapalle-TE_CT2055,505_50551_MDP_Madanapalle_TE_CT2055,2G+4G,NSN,13.55568,78.50141,E-City,Madanapalle,Madanapalle,,Exchange,5392.0,BESAID POST OFFICE;MADANAPALLI;MADANAPALLI MANDAL.,Rajampet,MADANAPALLI,517325.0,BSNL,BSNL Infra,CT2055,RTT,18.0,30.0,Dual,MOBI (MB2F&3F-65-17&17DE10&8-2015),NSN,I,6/4/2004,BTS18K_ID,3.0,6-6-6,330/110/290,2.0,OFC,E1,,,,,,,,68.0,Tirupati,VII,12/18/2013,330/110/290,RRH,3.0,30.0,Dual,MOBI (MD2F&3F-65-17&17DE10&8-2015),OFC,FE,,100 Mbps,,,,,,Tiruapti,,4,CT2055,CT2055,,,,,,,,,,260718-YES-(FX(E1)+MADM(STR)+PE2(2-2-29)),100 Mbps,505,260718-YES-(FX(E1)+MADM(STR)+PE2(2-2-29)),MDP,,
17,CT2059,4G_36441_NARAYANVANAM_CT2059,504_40151_Narayanavanam_CT2059,2G+4G,NSN,13.42502,79.58997,Rural,Narayanavanam,Narayanavanam,NH,Exchange,5400.0,"Narayanavanam(V&M),Chittoor DT.",Tirupati,PUTTUR,517581.0,BSNL,BSNL Infra,CT2059,GBT,40.0,39.0,Mono,HIGH WAY,NSN,IV,2/9/2006,S8K_ID,3.0,4-4-4,110/212/288,1.0,OFC,E1,,,,,,,,67.0,Tirupati,VII +,3/22/2017,110/212/288,RRH,3.0,38.0,Dual,MOBI (MD2F&3F-65-17&17DE10&8-2015),OFC,FE,,100 Mbps,,,,,,Tiruapti,,4,CT2059,CT2059,,CT2059,,,,,,,,041018YES(fe+CPAN(PTR)+DWDM(PTR)+DWDM(TRP_STR)+PE1(2-2-21),100 Mbps,504,170818YES(Ge+CPAN(PTR)+DWDM(PTR)+DWDM(TRP_STR)+PE1(2-2-21),STD,,
18,CT2060,4G_35313_Palamaneeru_CT2060,505_50601_Palamaneeru_CT2060,2G+4G,NSN,13.20474,78.74561,E-City,palamaneru,Palamaner,NH,Exchange,5422.0,"palamner TE.palamner,Chittoor DT.",Chittoor,PALMANER,517408.0,BSNL,BSNL Infra,CT2060,MARR,21.0,24.0,Dual,MOBI (MB2F&3F-65-17&17DE10&8-2015),NSN,III+,7/15/2004,S12K_ID,3.0,4-4-4,0/60/120,2.0,OFC,E1,,,,,,,,70.0,Tirupati,VII,1/20/2014,0/60/120,RRH,3.0,24.0,Dual,MOBI (MD2F&3F-65-17&17DE10&8-2015),OFC,FE,,100 Mbps,,,,,,Tiruapti,,4,CT2060,CT2060,,,,,,,,,,050818YES(FE+PTN(PLM)+PTN(MDP)+PE2(2-2-27),100 Mbps,505,050818YES(FE+PTN(PLM)+PTN(MDP)+PE2(2-2-27),PLM,,
19,CT2065,4G_36401_CTR_Puttur_CT2065,504_40171_Puttur_CT2065,2G+4G,NSN,13.44035,79.55319,E-City,Puttur,Puttur,RC,Exchange,5407.0,"puttur exge,pttur,Chittoor DT.",Tirupati,PUTTUR,517583.0,BSNL,BSNL Infra,CT2065,GBT,40.0,40.0,Dual,MOBI (MB2F&3F-65-17&17DE10&8-2015),NSN,III,6/8/2004,S12K_ID,3.0,4-4-4,0/150/260,1.0,OFC,E1,,,,,,,,67.0,Tirupati,VII,1/31/2014,0/150/260,RRH,3.0,40.0,Dual,MOBI (MD2F&3F-65-17&17DE10&8-2015),OFC,FE,,100 Mbps,,,,,,Tiruapti,,4,CT2065,CT2065,,CT2065,,,,,,,,170818YES(Ge+CPAN(PTR)+DWDM(PTR)+DWDM(TRP_STR)+PE1(2-2-21),100 Mbps,504,170818YES(Ge+CPAN(PTR)+DWDM(PTR)+DWDM(TRP_STR)+PE1(2-2-21),PUT,,
20,CT2067,4G_35341_Satyaveedu_CT2067,504_40181_Satyaveedu_CT2067,2G+4G,NSN,13.4438,79.9603,E-City,Satyavedu,Satyavedu,SH,Exchange,5402.0,"Satyaveedu exge,Chittoor DT.",Tirupati,SATYAVEDU,517588.0,BSNL,BSNL Infra,CT2067,GBT,40.0,37.0,Dual,MOBI (MB2F&3F-65-17&17DE10&8-2015),NSN,III+,7/8/2004,S12K_ID,3.0,4-4-4,10/210/250,1.0,OFC,E1,,,,,,,,67.0,Tirupati,VII,8/28/2014,10/210/250,RRH,3.0,37.0,Dual,MOBI (MD2F&3F-65-17&17DE10&8-2015),OFC,FE,,100 Mbps,,,,,,Tiruapti,,4,CT2067,CT2067,,,,,,,,,,030818YES(MADM(SKT)+DWDM(SKT)+DWDM(STR)+PE1(2-2-33),100 Mbps,504,030818YES(MADM(SKT)+DWDM(SKT)+DWDM(STR)+PE1(2-2-33),STV,,
21,CT2092,4G_35383_ANUPALLI_CT2092,505_50921_Anupalli_CT2092,2G+4G,NSN,13.16171,79.10314,E-City,Anupalli,Chittoor,NH,OD Plinth,5421.0,"Anupalli ,Gangasagaram V,Chittoor(M&D).",Chittoor,CHITTOOR,517002.0,NBSNL,BSNL Infra,CT2092,GBT,40.0,35.0,Dual,XAHT,NSN,IV.5,4/8/2009,BTS18K_OD,3.0,4-4-4,0/90/155,,DMW,,,NEW NEC,0.6 m,BSC60-31_CTR_Greamspet_CT2002A,E1,1.0,,60.0,Tirupati,VII +,4/1/2017,0/90/155,RRH,3.0,34.0,Mono,MOBI (MB3F-65-18DE10+MBRET-RCU-003),DMW,,,100 Mbps,NEW NEC,0.6 m,CT2002,FE,,Tiruapti,50Mbps,4,CT2092,CT2092,,,,,CT2092,,,,2015813392@G/FXW/HYD/3156706/2016@K-19012-G/FVC/HYD2891034/2015-CFA DTD 9-12-16,010918-YES(fe+CTR(CAR)-MADM)+CTR-DWDM+TRP(DWDM)+PE1(2-2-23),100 Mbps,505,010918-YES(fe+CTR(CAR)-MADM)+CTR-DWDM+TRP(DWDM)+PE1(2-2-23),STD,,
22,CT2101,4G_35401_BCNaidu_Clny_CT2101,505_51011_CTR_BCNaidu_Clny_CT2101,2G+4G,NSN,13.21011,79.11553,E-City,Chittoor,Chittoor,,Room,5421.0,CTR BC NAIDU COLONY B.S.N.L CO LOCATION;H? NO 24-110-2B;CHITTOOR,Chittoor,CHITTOOR,517001.0,NBSNL,BSNL Infra,CT2101,MARR,12.0,21.0,Dual,MOBI (MB2F&3F-65-17&17DE10&8-2015),NSN,IV.5,1/13/2009,BTS18K_ID,3.0,4-4-4,50/220/320,1.0,OFC,E1,,,,,,,,60.0,Tirupati,V.1,1/4/2014,50/220/320,RRH,3.0,21.0,Dual,MOBI (MD2F&3F-65-17&17DE10&8-2015),OFC,FE,,100 Mbps,,,,,,Tiruapti,,4,CT2101,CT2101,,,,,CT2101,,,,,070718-YES(fe+CTR(CAR)-MADM)+CTR-DWDM+TRP(DWDM)+PE1(2-2-23),100 Mbps,505,070718-YES(fe+CTR(CAR)-MADM)+CTR-DWDM+TRP(DWDM)+PE1(2-2-23),CTR,,
23,CT2102,4G_35412_KayanikattuStreet_CT2102,505_51021_CTR_RTCDepotRd_CT2102,2G+4G,NSN,13.21516,79.09257,E-City,Chittoor,Chittoor,,Room,5421.0,"CTR_RTCDepotRd, near Hp gas,chittoor,Chittoor DT.",Chittoor,CHITTOOR,517001.0,NBSNL,BSNL Infra,CT2102,MARR,15.0,21.0,Dual,XAHT,NSN,IV.5,1/6/2009,BTS18K_ID,3.0,4-4-4,28/140/289,2.0,OFC,E1,,,,,,,,60.0,Tirupati,V.1,3/18/2010,28/140/289,RRH,3.0,21.0,Mono,Agisson,OFC,FE,,100 Mbps,,,,,,Tiruapti,,4,CT2102,CT2102,,,,,,,,,,060718-YES(FX+CTR(PTN)+CTR-DWDM+TRP(DWDM)+PE2(2-2-25),100 Mbps,505,060718-YES(FX+CTR(PTN)+CTR-DWDM+TRP(DWDM)+PE2(2-2-25),CTR,,
24,CT2104,4G_35432_CourtBuildings_CT2104,505_51041_CTR_Gandhi-Rd_CT2104,2G+4G,NSN,13.22153,79.10163,E-City,Chittoor,Chittoor,SH,Room,5421.0,"CTR_Gandhi-Rd,nar court buildings,chittoor,Chittoor DT.",Chittoor,CHITTOOR,517001.0,NBSNL,BSNL Infra,CT2104,MARR,12.0,24.0,Dual,AGISSON,NSN,IV.5,1/6/2009,BTS18K_ID,3.0,4-4-4,60/145/330,2.0,OFC,E1,,,,,,,,60.0,Tirupati,V.1,3/18/2010,60/145/330,RRH,3.0,21.0,Mono,AGISSON,OFC,FE,,100 Mbps,,,,,,Tiruapti,,4,CT2104,CT2104,,,,,CT2104,,,,,040718-YES(FX+CTR(PTN)+CTR-DWDM+TRP(DWDM)+PE2(2-2-25),100 Mbps,505,040718-YES(FX+CTR(PTN)+CTR-DWDM+TRP(DWDM)+PE2(2-2-25),CTR,,
25,CT2105,4G_35443_SVEnggCollege_CT2105,505_51051_CTR_SVEnggCollege_CT2105,2G+4G,NSN,13.27072,79.11858,E-City,Chittoor,Chittoor,NH,Room,5421.0,"CTR_SVEnggCollege.Chittoor,Chittoor DT.",Chittoor,CHITTOOR,517127.0,NBSNL,BSNL Infra,CT2105,MARR,15.0,24.0,Dual,MOBI (MB2F&3F-65-17&17DE10&8-2015),NSN,IV.5,2/7/2009,BTS18K_ID,3.0,4-4-4,0/70/190,1.0,OFC,E1,,,,,,,,60.0,Tirupati,V.1,2/6/2014,0/70/190,RRH,3.0,24.0,Dual,MOBI (MD2F&3F-65-17&17DE10&8-2015),OFC,FE,,100 Mbps,,,,,,Tiruapti,,4,CT2105,CT2105,,,,,CT2105,,,,,"070718-YES(CPE,fe+CTR(CAR)-MADM)+CTR-DWDM+TRP(DWDM)+PE1(2-2-23)",100 Mbps,505,"070718-YES(CPE,fe+CTR(CAR)-MADM)+CTR-DWDM+TRP(DWDM)+PE1(2-2-23)",CTR,,
26,CT2120,4G_35503_Kalikiri2_CT2120,505_51201_Kalikiri2_CT2120,2G+4G,NSN,13.64175,78.80133,E-City,Kalikiri,Kalikiri,RC,Room,5387.0,"near rama temple.,Kalikiri,Chittoor DT.",Rajampet,VAYALPADU,517224.0,NBSNL,BSNL Infra,CT2120,MARR,15.0,21.0,Dual,MOBI (MB2F&3F-65-17&17DE10&8-2015),NSN,IV.5,1/29/2009,BTS18K_ID,3.0,4-4-4,80/190/310,1.0,OFC,E1,,,,,,,,68.0,Tirupati,VII,9/6/2016,80/190/310,RRH,3.0,21.0,Dual,MOBI (MD2F&3F-65-17&17DE10&8-2015),OFC,FE,,100 Mbps,,,,,,Tiruapti,,4,CT2120,CT2120,,,,,CT2120,,,,,140818-YES(FX+VYP(PTN)-CTR(PTN)+CTR-DWDM+TRP(DWDM)+PE2(2-2-27),100 Mbps,505,140818-YES(FX+VYP(PTN)-CTR(PTN)+CTR-DWDM+TRP(DWDM)+PE2(2-2-27),STD,,
27,CT2134,4G_35533_NehruBazar_CT2134,505_51341_MDP_NehruBazar_CT2134,2G+4G,NSN,13.55037,78.50316,E-City,Madanapalle,Madanapalle,,Room,5392.0,"Nehru Bazar,Madanapalli,Chittoor DT.",Rajampet,MADANAPALLI,517325.0,NBSNL,BSNL Infra,CT2134,MARR,12.0,21.0,Dual,MOBI (MB2F&3F-65-17&17DE10&8-2015),NSN,IV.5,8/30/2008,S12K_ID,3.0,4-4-4,60/220/310,1.0,OFC,E1,,,,,,,,68.0,Tirupati,VII,12/16/2013,60/220/310,RRH,3.0,21.0,Dual,MOBI (MD2F&3F-65-17&17DE10&8-2015),OFC,FE,,100 Mbps,,,,,,Tiruapti,,4,CT2134,CT2134,,,,,,,,,,140718-YES-(FX(E1)+MADM(STR)+PE2(2-2-29)),100 Mbps,505,140718-YES-(FX(E1)+MADM(STR)+PE2(2-2-29)),MDP,,
28,CT2135,4G_35542_LVKAlyanamandapam_CT2135,505_51351_MDP_LVKAlyanamandapam_CT2135,2G+4G,NSN,13.56409,78.51189,E-City,Madanapalle,Madanapalle,SH,Room,5392.0,lvk mandapam;tirupati road madanapalli;madanapalli mandal;517325,Rajampet,MADANAPALLI,517325.0,NBSNL,BSNL Infra,CT2135,MARR,12.0,24.0,Dual,MOBI (MB2F&3F-65-17&17DE10&8-2015),NSN,IV.5,12/16/2008,BTS18K_ID,3.0,4-4-4,40/150/320,1.0,OFC,E1,,,,,,,,68.0,Tirupati,VII,12/16/2013,40/150/320,RRH,3.0,24.0,Dual,MOBI (MD2F&3F-65-17&17DE10&8-2015),OFC,FE,,100 Mbps,,,,,,Tiruapti,,4,CT2135,CT2135,,,,,CT2135,,,,,210718-YES-(FX(E1)+MADM(STR)+PE2(2-2-29)),100 Mbps,505,210718-YES-(FX(E1)+MADM(STR)+PE2(2-2-29)),MDP,,
29,CT2136,4G_35551_KrishnaLodge_CT2136,505_51361_MDP_Krishnalodge_CT2136,2G+4G,NSN,13.55982,78.4988,E-City,Madanapalle,Madanapalle,,Shelter,5392.0,"KK COMPLEX, NTR CIRCLE, MADHANAPALLE, CHITTOR(DT), Andhra Pradesh 517325",Rajampet,MADANAPALLI,517325.0,NBSNL,BSNL Infra,CT2136,RTP,6.0,19.0,Dual,MOBI (MB2F&3F-65-17&17DE10&8-2015),NSN,IV.5,12/17/2008,BTS18K_ID,3.0,4-4-4,0/120/240,1.0,OFC,E1,,,,,,,,68.0,Tirupati,VII,7/13/2016,0/120/240,RRH,3.0,19.0,Dual,MOBI (MD2F&3F-65-17&17DE10&8-2015),OFC,FE,,100 Mbps,,,,,,Tiruapti,,4,CT2136,CT2136,,,,,CT2136,,,,,120718-YES-(FX(E1)+MADM(STR)+PE2(2-2-29)),100 Mbps,505,120718-YES-(FX(E1)+MADM(STR)+PE2(2-2-29)),MDP,,
30,CT2137,4G_35561_Vijayabank_CT2137,505_51371_MDP_Vijayabank_CT2137,2G+4G,NSN,13.55368,78.50699,E-City,Madanapalle,Madanapalle,,Room,5392.0,"near chittoor bus stand,Vijaya bank building,madanapalli,Chittoor DT.",Rajampet,MADANAPALLI,517325.0,NBSNL,BSNL Infra,CT2137,MARR,15.0,21.0,Dual,MOBI (MB2F&3F-65-17&17DE10&8-2015),NSN,IV.5,12/18/2008,BTS18K_ID,3.0,4-4-4,90/140/240,1.0,OFC,E1,,,,,,,,68.0,Tirupati,VII,12/16/2013,90/140/240,RRH,3.0,21.0,Dual,MOBI (MD2F&3F-65-17&17DE10&8-2015),OFC,FE,,100 Mbps,,,,,,Tiruapti,,4,CT2137,CT2137,,,,,CT2137,,,,,210718-YES-(FX(E1)+MADM(STR)+PE2(2-2-29)),100 Mbps,505,210718-YES-(FX(E1)+MADM(STR)+PE2(2-2-29)),MDP,,
31,CT2149,4G_35573_Palamaneru_CT2149,505_51491_Palamaneru_2_CT2149,2G+4G,NSN,13.20002,78.7459,E-City,palamaneru,Palamaner,NH,Room,5422.0,"oldpet,palamner _2.,Chittoor DT.",Chittoor,PALMANER,517408.0,NBSNL,BSNL Infra,CT2149,GBT,40.0,35.0,Dual,MOBI (MB2F&3F-65-17&17DE10&8-2015),NSN,IV.5,6/10/2009,BTS18K_ID,3.0,4-4-4,95/185/290,2.0,OFC,E1,,,,,,,,70.0,Tirupati,VII,2/1/2014,95/185/290,RRH,3.0,35.0,Dual,MOBI (MD2F&3F-65-17&17DE10&8-2015),OFC,FE,,100 Mbps,,,,,,Tiruapti,,4,CT2149,CT2149,,,,,CT2149,,,,,040818YES(GE+PTN(PLM)+PTN(MDP)+PE2(2-2-27),100 Mbps,505,070818YES(GE+PTN(PLM)+PTN(MDP)+PE2(2-2-27),PLM,,
32,CT2151,4G_36452_P_Mangalam_CT2151,504_40291_ParameswaraMangalam_CT2151,2G+4G,NSN,13.40007,79.56095,Rural,Parameswaramangalam,Puttur,NH,Room,5407.0,"ParameswaraMangalam,Puttur (M),Chittoor DT.",Tirupati,PUTTUR,517584.0,NBSNL,BSNL Infra,CT2151,GBT,40.0,38.0,Dual,XAHT,NSN,IV.5,3/30/2009,BTS18K_ID,3.0,4-4-4,80/195/350,1.0,OFC,E1,,,,,,,,67.0,Tirupati,VII +,4/20/2017,80/195/350,RRH,3.0,38.0,Mono,MOBI (MB3F-65-18DE10+MBRET-RCU-003),OFC,FE,,70 Mbps,,,,,,Tiruapti,,4,CT2151,CT2151,,CT2151,,,CT2151,,,,,160818YES(fe+CPAN(PTR)+DWDM(PTR)+DWDM(TRP_STR)+PE1(2-2-21),70 Mbps,504,160818YES(fe+CPAN(PTR)+DWDM(PTR)+DWDM(TRP_STR)+PE1(2-2-21),STD,,
33,CT2155,4G_35592_Pileru_CT2155,505_51551_Pileru_3_CT2155,2G+4G,NSN,13.65888,78.93305,E-City,Piler,Pileru,RC,Room,5386.0,"Indra nagar,Piler_3,Chittoor DT.",Rajampet,PILER,517214.0,NBSNL,BSNL Infra,CT2155,MARR,15.0,21.0,Dual,MOBI (MB2F&3F-65-17&17DE10&8-2015),NSN,IV.5,2/2/2009,BTS18K_ID,3.0,4-4-4,70/120/280,1.0,OFC,E1,,,,,,,,68.0,Tirupati,VII,1/16/2014,70/120/280,RRH,3.0,21.0,Dual,MOBI (MD2F&3F-65-17&17DE10&8-2015),OFC,FE,,60 Mbps,,,,,,Tiruapti,,4,CT2155,CT2155,,,,,CT2155,,,,,080818-YES(Fe+PIL(PTN)+CTR-DWDM+TRP(DWDM)+PE2(2-2-27),60 Mbps,505,080818-YES(Fe+PIL(PTN)+CTR-DWDM+TRP(DWDM)+PE2(2-2-27),PIL,,
34,CT2158,4G_35602_Punganur-2_CT2158,505_51581_Punganur-2_CT2158,2G+4G,NSN,13.36094,78.56918,E-City,Punganur,Punganur,,Room,5415.0,"Arya vysa kalyanamandapam,punganur,Chittoor DT.",Rajampet,PUNGANUR,517247.0,NBSNL,BSNL Infra,CT2158,MARR,15.0,24.0,Dual,MOBI (MB2F&3F-65-17&17DE10&8-2015),NSN,IV.5,1/11/2009,BTS18K_ID,3.0,4-4-4,20/120/240,2.0,OFC,E1,,,,,,,,70.0,Tirupati,VII,12/20/2013,20/120/240,RRH,3.0,24.0,Dual,MOBI (MD2F&3F-65-17&17DE10&8-2015),OFC,FE,,100 Mbps,,,,,,Tiruapti,,4,CT2158,CT2158,,,,,CT2158,,,,,060818YES(FE+MADM(PLM)+MADM(STR)+PE1(2-2-35),100 Mbps,505,060818YES(FE+MADM(PLM)+MADM(STR)+PE1(2-2-35),PUG,,
35,CT2206,4G_35661_Murakambattu_CT2206,505_52061_CTR_Murukambattu_WTT_CT2206,2G+4G,NSN,13.24763,79.11403,E-City,Chittoor,Chittoor,NH,Shelter,5421.0,BANGALORE TIRUPATHI BYPASS ROAD MURUKAMPATTU CHITTOOR ANDHRA PRADESH 517127.,Chittoor,CHITTOOR,517127.0,IP-WTT,VIOM Networks,ANPCHI1690,GBT,40.0,38.0,Dual,Agisson,NSN,V.1,3/27/2012,S12K_ID,3.0,4-4-4,80/180/280,1.0,OFC,E1,,,,,,,,60.0,Tirupati,V.1,1/2/2014,80/180/280,RRH,3.0,38.0,Dual,Agisson,OFC,FE,,100 Mbps,,,,,,Tiruapti,,4,CT2206,CT2206,,,,,,,,,,300618-YES(FX+CTR(PTN)+CTR-DWDM+TRP(DWDM)+PE2(2-2-25),100 Mbps,505,300618-YES(FX+CTR(PTN)+CTR-DWDM+TRP(DWDM)+PE2(2-2-25),CTR,,
36,CT2207,4G_35673_Piler R-B_CT2207,505_52071_PileruRnB_CT2207,2G+4G,NSN,13.65276,78.9517,E-City,Piler,Pileru,NH,Shelter,5386.0,"R&B bunlglow,tpt rd,piler.,Chittoor DT.",Rajampet,PILER,517214.0,NBSNL,BSNL Infra,CT2207,GBT,40.0,37.0,Dual,MOBI (MB2F&3F-65-17&17DE10&8-2015),NSN,V.1,2/21/2012,S12K_ID,3.0,4-4-4,350/80/270,1.0,OFC,E1,,,,,,,,68.0,Tirupati,VII,1/17/2014,350/80/270,RRH,3.0,37.0,Dual,MOBI (MD2F&3F-65-17&17DE10&8-2015),OFC,FE,,45 Mbps,,,,,,Tiruapti,,4,CT2207,CT2207,,,,,,,,,,020818YES(FE+MADM)+CTR-PTN+PE1(2-2-35),45 Mbps,505,020818YES(FE+MADM)+CTR-PTN+PE1(2-2-35),PIL,,
37,CT2208,4G_36411_Puttur_2_CT2208,504_40501_Puttur_2_CT2208,2G+4G,NSN,13.43862,79.54766,E-City,Puttur,Puttur,NH,Room,5407.0,"15-176,karvetinagaram road,puttur,Chittoor DT.",Tirupati,PUTTUR,517583.0,NBSNL,BSNL Infra,CT2208,RTP,9.0,18.0,Mono,KATHREIN,NSN,V.1,3/26/2012,S12K_ID,3.0,4-4-4,340/160/270,1.0,OFC,E1,,,,,,,,67.0,Tirupati,VII,6/10/2014,340/160/270,RRH,3.0,18.0,Dual,MOBI (MD2F&3F-65-17&17DE10&8-2015),OFC,FE,,100 Mbps,,,,,,Tiruapti,,4,CT2208,CT2208,,CT2208,,,,,,,,160818YES(Ge+CPAN(PTR)+DWDM(PTR)+DWDM(TRP_STR)+PE1(2-2-21),100 Mbps,504,160818YES(Ge+CPAN(PTR)+DWDM(PTR)+DWDM(TRP_STR)+PE1(2-2-21),PUT,,
38,CT2211,4G_35692_RTC-Depot_CT2211,505_52111_MDPRTCDepo_CT2211,2G+4G,NSN,13.55731,78.50857,E-City,Madanapalle,Madanapalle,,Room,5392.0,"near Rtc depot,madanapalli,Chittoor DT.",Rajampet,MADANAPALLI,517325.0,NBSNL,BSNL Infra,CT2211,RTP,9.0,21.0,Dual,MOBI (MB2F&3F-65-17&17DE10&8-2015),NSN,V.1,3/29/2012,S12K_ID,3.0,4-4-4,70/190/300,1.0,OFC,E1,,,,,,,,68.0,Tirupati,VII,12/19/2013,70/190/300,RRH,3.0,21.0,Dual,MOBI (MD2F&3F-65-17&17DE10&8-2015),OFC,FE,,100 Mbps,,,,,,Tiruapti,,4,CT2211,CT2211,,,,,,,,,,120718-YES-(FX(E1)+MADM(STR)+PE2(2-2-29)),100 Mbps,505,120718-YES-(FX(E1)+MADM(STR)+PE2(2-2-29)),MDP,,
39,CT2212,4G_35703_NGV-palli_CT2212,505_52121_Neerugattuvaripalli_CT2212,2G+4G,NSN,13.57095,78.50602,E-City,Madanapalle,Madanapalle,,Room,5392.0,"NGV-palli, 3-146-14-4, bypass road ,chowdeswari circle, NGV palli , Madanapalli, chittor district-517325",Chittoor,MADANAPALLI,517325.0,NBSNL,BSNL Infra,CT2212,RTP,9.0,21.0,Dual,MOBI (MB2F&3F-65-17&17DE10&8-2015),NSN,V.1,2/13/2013,BTS18K_ID,3.0,4-4-4,120/220/300,1.0,OFC,E1,,,,,,,,68.0,Tirupati,VII,7/21/2016,120/220/300,RRH,3.0,21.0,Dual,MOBI (MD2F&3F-65-17&17DE10&8-2015),OFC,FE,,100 Mbps,,,,,,Tiruapti,,4,CT2212,CT2212,,,,,CT2212,,,,,220718-YES-(FX(E1)+MADM(STR)+PE2(2-2-29)),100 Mbps,505,220718-YES-(FX(E1)+MADM(STR)+PE2(2-2-29)),MDP,,
40,CT2213,4G_35712_Ambedkarnagar_CT2213,505_52131_CTR_AmbedkarNgr_CT2213,2G+4G,NSN,13.20176,79.08464,E-City,Chittoor,Chittoor,NH,Shelter,5421.0,"Ambedkarnagar,kajoor,chittoor,Chittoor DT.",Chittoor,CHITTOOR,517001.0,NBSNL,BSNL Infra,CT2213,GBT,24.0,22.0,Dual,Agisson,NSN,V.1,2/28/2012,S12K_ID,3.0,4-4-4,40/100/260,,DMW,,,NEW NEC,0.6 m,BSC60-31_CTR_Greamspet_CT2002A,E1,2.0,,60.0,Tirupati,V.1,1/2/2014,40/100/260,RRH,3.0,22.0,Dual,Agisson,DMW,,,100 Mbps,NEW NEC,0.6 m,CT2002,FE,,Tiruapti,100 Mbps,4,CT2213,CT2213,,,,,,,,,2015813421@G/FXW/HYD/3156713/2016@K-19012/G/FXW/HYD/2670760/2016-CFA 9-12-16,"290618-YES(DMW,fe+CTR(CAR)-MADM)+CTR-DWDM+TRP(DWDM)+PE1(2-2-23)",100 Mbps,505,"290618-YES(DMW,fe+CTR(CAR)-MADM)+CTR-DWDM+TRP(DWDM)+PE1(2-2-23)",CTR,,
41,CT2214,4G_35721_Vinayakapuram_CT2214,505_52141_CTR_Vinayakapuram_CT2214,2G+4G,NSN,13.21092,79.10042,E-City,Chittoor,Chittoor,SH,Shelter,5421.0,"R&B bunlglow,Vinayakapuram,Chittoor,Chittoor DT.",Chittoor,CHITTOOR,517001.0,NBSNL,BSNL Infra,CT2214,GBT,24.0,24.0,Dual,Agisson,NSN,V.1,3/3/2012,BTS18K_ID,3.0,4-4-4,20/140/270,2.0,OFC,E1,,,,,,,,60.0,Tirupati,V.1,3/17/2012,20/140/270,RRH,3.0,24.0,Dual,Agisson,OFC,FE,,100 Mbps,,,,,,Tiruapti,,4,CT2214,CT2214,,,,,CT2214,,,,2015813414@G/FXW/HYD/3156711/2016@K-19012-G/FVC/HYD2891034/2015-CFA DTD 9-12-16,090718-YES(fe+CPE+CTR(CAR)-MADM)+CTR-DWDM+TRP(DWDM)+PE1(2-2-23)090718-YES(fe+CPE+CTR(CAR)-MADM)+CTR-DWDM+TRP(DWDM)+PE1(2-2-23),100 Mbps,505,090718-YES(fe+CPE+CTR(CAR)-MADM)+CTR-DWDM+TRP(DWDM)+PE1(2-2-23),CTR,,
42,CT2215,4G_35732_Hemamadhuri_KM_CT2215,505_52151_CTR_HemamadhuriKM_CT2215,2G+4G,NSN,13.21571,79.11314,E-City,CHittoor,Chittoor,NH,Room,5421.0,"Hemamadhuri km,krpalli road,chittoor,Chittoor DT.",Chittoor,CHITTOOR,517001.0,NBSNL,BSNL Infra,CT2215,RTP,9.0,21.0,Dual,Agisson,NSN,V.1,10/25/2011,S12K_ID,3.0,4-4-4,80/150/310,2.0,OFC,E1,,,,,,,,60.0,Tirupati,V.1,4/28/2011,80/150/310,RRH,3.0,21.0,Dual,Agisson,OFC,FE,,100 Mbps,,,,,,Tiruapti,,4,CT2215,CT2215,,,,,,,,,,300618-YES(FX+CTR(PTN)+CTR-DWDM+TRP(DWDM)+PE2(2-2-25),100 Mbps,505,300618-YES(FX+CTR(PTN)+CTR-DWDM+TRP(DWDM)+PE2(2-2-25),CTR,,
43,CT2216,4G_35742_RamNagarColony2_CT2216,505_52161_CTR-RamNagarCly2_CT2216,2G+4G,NSN,13.21222,79.08674,E-City,Chittoor,Chittoor,,Room,5421.0,"CTR-RamNagarCly2,Ganganapalli,chittoor,Chittoor DT.",Chittoor,CHITTOOR,517001.0,NBSNL,BSNL Infra,CT2216,GBT,30.0,24.0,Dual,Agisson,NSN,V.1,10/25/2010,S12K_ID,3.0,4-4-4,340/120/160,,DMW,,,NEW NEC,0.6 m,BSC60-31_CTR_Greamspet_CT2002A,E1,2.0,,60.0,Tirupati,V.1,5/22/2014,340/120/160,RRH,3.0,24.0,Dual,MOBI (MD2F&3F-65-17&17DE10&8-2015),DMW,,,100 Mbps,NEW NEC,0.6 m,CT2002,FE,,Tiruapti,100 Mbps,4,CT2216,CT2216,,,,,,,,,G/FVC/HYD/1466299/2011,"200718-YES(DMW,fe+CTR(CAR)-MADM)+CTR-DWDM+TRP(DWDM)+PE1(2-2-23)",100 Mbps,505,"200718-YES(DMW,fe+CTR(CAR)-MADM)+CTR-DWDM+TRP(DWDM)+PE1(2-2-23)",CTR,,
44,CT2217,4G_35752_Samireddystreet_CT2217,505_52171_CTR-SamireddySt_CT2217,2G+4G,NSN,13.21748,79.09505,E-City,Chittoor,Chittoor,,Room,5421.0,"CTR-SamireddySt,near market,chittoor,Chittoor DT.",Chittoor,CHITTOOR,517001.0,NBSNL,BSNL Infra,CT2217,RTP,9.0,21.0,Dual,Agisson,NSN,V.1,2/1/2011,S12K_ID,3.0,4-4-4,20/120/250,,DMW,,,NEW NEC,0.6 m,BSC60-31_CTR_Greamspet_CT2002A,E1,2.0,,60.0,Tirupati,V.1,10/9/2013,20/120/250,RRH,3.0,21.0,Dual,Agisson,DMW,,,100 Mbps,NEW NEC,0.6 m,CT2002,FE,,Tiruapti,100 Mbps,4,CT2217,CT2217,,,,,,,,,G/FVC/HYD/1602574/2011,100718-YES(DMW+fe+CTR(CAR)-MADM)+CTR-DWDM+TRP(DWDM)+PE1(2-2-23),100 Mbps,505,100718-YES(DMW+fe+CTR(CAR)-MADM)+CTR-DWDM+TRP(DWDM)+PE1(2-2-23),CTR,,
45,CT2229,4G_Cherivi_AP_CT2229,504_40531_Cherivi_CT2229,2G+4G,NSN,13.52619,79.99435,Rural,Cherivi,Satyavedu,,OD Plinth,5402.0,"No:1/28,Cherivi,Satyvedu mandal,Chittoor DT.",Tirupati,SATYAVEDU,517588.0,NBSNL,BSNL Infra,CT2229,GBT,40.0,37.0,Dual,Agisson,NSN,V.1,8/28/2010,BTS18K_OD,3.0,4-4-4,160/250/330,,DMW,,,"Huawei-2G, NEW NEC-3G",0.6 m,"BSC67-28_Satyaveedu_CT2067A-2G ,IRUGULAM-3G",E1,1.0,,67.0,Tirupati,VII +,3/23/2017,160/250/330,RRH,3.0,37.0,Dual,Agisson,DMW,,,30 Mbps,NEW NEC,0.6 m,CT2067,FE,,Tiruapti,20Mbps,4,CT2229,CT2229,,,,,CT2229,,,,G/FVC/HYD/1369235/2010,090818YES(MADM(SKT)+DWDM(SKT)+DWDM(STR)+PE1(2-2-33),30 Mbps,504,080818YES(MADM(SKT)+DWDM(SKT)+DWDM(STR)+PE1(2-2-33),STD,,
46,CT2273,4G_35853_Irugulam_CT2273,504_40611_Irugulam_CT2273,2G+4G,NSN,13.49874,79.99812,Rural,Irugulam,Varadaiahpalem,,Exchange,5381.0,"Irugulam(V),/Varadayyapalem(M),Chittoor DT.",Tirupati,SATYAVEDU,517588.0,BSNL,BSNL Infra,CT2273,GBT,40.0,37.0,Dual,Agisson,NSN,V.1,2/25/2010,S8K_ID,3.0,4-4-4,0/120/240,1.0,DMW,,,NEW NEC,,Satyaveedu_CT2067,,,,67.0,Tirupati,VII +,3/15/2017,0/120/240,RRH,3.0,37.0,Dual,Agisson,OFC,FE,,30 Mbps,,,,,,Tiruapti,,4,CT2273,CT2273,,,,,,,,,,040818YES(FE+MADM(SKT)+DWDM(SKT)+DWDM(STR)+PE1(2-2-33),30 Mbps,504,050818YES(FE+MADM(SKT)+DWDM(SKT)+DWDM(STR)+PE1(2-2-33),STD,,
47,CT2301,4G_35911_Collectrate_CT2301,505_53011_CTR_Collectrate_CT2301,2G+4G,NSN,13.18318,79.09617,E-City,CHITTOOR,Chittoor,NH,Room,5421.0,"collector office, chittoor,Chittoor DT.",Chittoor,CHITTOOR,517002.0,NBSNL,BSNL Infra,CT2301,RTP,9.0,18.0,Dual,MOBI (MB2F&3F-65-17&17DE10&8-2015),NSN,IV.5,10/26/2009,BTS6K_OD_AC,3.0,4-4-4,120/200/250,1.0,OFC,E1,,,,,,,,60.0,Tirupati,V.1,2/18/2014,120/200/250,RRH,3.0,18.0,Dual,MOBI (MD2F&3F-65-17&17DE10&8-2015),OFC,FE,,100 Mbps,,,,,,Tiruapti,,4,CT2301,CT2301,,,,,CT2301,,,,,"250618-YES(CPE,fe+CTR(CAR)-MADM)+CTR-DWDM+TRP(DWDM)+PE1(2-2-23)",100 Mbps,505,"250618-YES(CPE,fe+CTR(CAR)-MADM)+CTR-DWDM+TRP(DWDM)+PE1(2-2-23)",CTR,,
48,CT2306,4G_35923_PunganurMW_CT2306,505_53061_PunganurMW_CT2306,2G+4G,NSN,13.38551,78.58295,E-City,Punganur,Punganur,SH,Room,5415.0,"Micro wave stn,punganur.,Chittoor DT.",Rajampet,PUNGANUR,517247.0,BSNL,BSNL Infra,CT2306,GBT,100.0,40.0,Dual,Agisson,NSN,V.1,3/28/2012,BTS6K_OD_AC,3.0,4-4-4,70/210/290,1.0,OFC,E1,,,,,,,,70.0,Tirupati,VII,2/20/2014,70/210/290,RRH,3.0,40.0,Dual,MOBI (MD2F&3F-65-17&17DE10&8-2015),OFC,FE,,100 Mbps,,,,,,Tiruapti,,4,CT2306,CT2306,,,,,CT2306,,,,,250818-YES(FX+PNG(PTN)-CTR(PTN)+CTR-DWDM+TRP(DWDM)+PE2(2-2-27),100 Mbps,505,250818-YES(FX+PNG(PTN)-CTR(PTN)+CTR-DWDM+TRP(DWDM)+PE2(2-2-27),PUG,,
49,CT2309,4G_35932_MDP-PTColony_CT2309,505_53091_MDP_PTClny_CT2309,2G+4G,NSN,13.55977,78.49305,E-City,Madanapalle,Madanapalle,,Room,5392.0,"P&T Colony, Madanapalle, Chittoor Dt",Chittoor,MADANAPALLI,517325.0,NBSNL,BSNL Infra,CT2309,RTP,9.0,18.0,Dual,MOBI (MB2F&3F-65-17&17DE10&8-2015),NSN,V.1,1/22/2013,S8K_ID,3.0,4-4-4,0/100/170,1.0,OFC,E1,,,,,,,,68.0,Tirupati,VII,3/27/2014,0/100/170,RRH,3.0,18.0,Dual,MOBI (MD2F&3F-65-17&17DE10&8-2015),OFC,FE,,100 Mbps,,,,,,Tiruapti,,4,CT2309,CT2309,,,,,,,,,,230718-YES-(FX(E1)+MADM(STR)+PE2(2-2-29)),100 Mbps,505,230718-YES-(FX(E1)+MADM(STR)+PE2(2-2-29)),MDP,,
50,CT5000,4G_35951_MG-Street_CT5000,505_53101_MGStreet_VIOM_CT5000,2G+4G,NSN,13.21356,79.0965,E-City,CHittoor,Chittoor,SH,Shelter,5421.0,"h.No: 18-486,MGR street ,Palamaneru road,Saraswathi auto mobile,Near bharat petrol bunk,Chitoor ,Andra pradesh-517001",Chittoor,CHITTOOR,517001.0,IP-VIOM,VIOM Networks,ANPCHI2184,RTT,18.0,18.0,Dual,Agisson,NSN,VII,3/13/2013,BTS18K_ID,3.0,4-4-4,30/70/280,1.0,OFC,E1,,,,,,,,60.0,Tirupati,VII,8/21/2014,30/70/280,RRH,3.0,18.0,Dual,MOBI (MD2F&3F-65-17&17DE10&8-2015),OFC,FE,,100 Mbps,,,,,,Tiruapti,,4,CT5000,CT5000,,,,,CT5000,,,,,040718-YES(FX+CTR(PTN)+CTR-DWDM+TRP(DWDM)+PE2(2-2-25),100 Mbps,505,040718-YES(FX+CTR(PTN)+CTR-DWDM+TRP(DWDM)+PE2(2-2-25),CTR,,
51,CT5001,4G_35963_EswrmaCly_ATC_CT5001,505_53111_EshwarammaCly_ATC_CT5001,2G+4G,NSN,13.54804,78.50244,E-City,Madanapalli,Madanapalle,,Shelter,5392.0,"SyNo-86-1,Devalamstreetextension,Madanapallitown,Chittoor(D),AndhraPradesh. PIN:517330",Rajampet,MADANAPALLI,517330.0,IP-ATC,ATC,AP5008,RTT,15.0,21.0,Dual,MOBI (MB2F&3F-65-17&17DE10&8-2015),NSN,VII,6/21/2013,BTS18K_ID,3.0,4-4-4,50/140/240,1.0,OFC,E1,,,,,,,,68.0,Tirupati,VII,2/19/2014,50/140/240,RRH,3.0,21.0,Dual,MOBI (MD2F&3F-65-17&17DE10&8-2015),OFC,FE,,100 Mbps,,,,,,Tiruapti,,4,CT5001,CT5001,,,,,,,,,,130718-YES-(FX(E1)+MADM(STR)+PE2(2-2-29)),100 Mbps,505,130718-YES-(FX(E1)+MADM(STR)+PE2(2-2-29)),MDP,,
52,CT5004,4G_35971_DurgnagarColony_VIOM_CT5004,505_53141_DurgangrCly_VIOM_CT5004,2G+4G,NSN,13.19112,79.09447,E-City,CHITTOOR,Chittoor,NH,Shelter,5421.0,"NEAR P-V-R-K COLLEGE,VELLORE ROAD,CHITTOOR 517002",Chittoor,CHITTOOR,517002.0,IP-VIOM,VIOM Networks,ANPCHI1717,GBT,40.0,35.0,Dual,MOBI (MB2F&3F-65-17&17DE10&8-2015),NSN,VII,5/24/2013,BTS18K_ID,3.0,4-4-4,0/120/220,,DMW,,,NEW NEC,0.6 m,BSC60-31_CTR_Greamspet_CT2002A,E1,1.0,,60.0,Tirupati,VII,4/4/2014,0/120/220,RRH,3.0,35.0,Dual,MOBI (MD2F&3F-65-17&17DE10&8-2015),DMW,,,100 Mbps,NEW NEC,0.6 m,CT2002,FE,,Tiruapti,40Mbps,4,CT5004,CT5004,,,,,CT5004,,,,2015812420@G/FXW/HYD/3156700/2016@K-19012-G/FVC/HYD2891034/2015-CFA DTD 9-12-16,200918-YES(fe+CTR(CAR)-MADM)+CTR-DWDM+TRP(DWDM)+PE1(2-2-23),100 Mbps,505,200918-YES(fe+CTR(CAR)-MADM)+CTR-DWDM+TRP(DWDM)+PE1(2-2-23),CTR,,
53,CT5005,4G_35983_RagimanuStreet_CT5005,505_53151_CTR_RagimanSt_VIOM_CT5005,2G+4G,NSN,13.22851,79.09705,E-City,CHITTOOR,Chittoor,,Shelter,5421.0,"SELVOME VINAYAKA TEMPLE,SANTHA PET,SRAVAN PALLI, ChittoorDist,AP- 517001",Chittoor,CHITTOOR,517001.0,IP-VIOM,VIOM Networks,ANPCHI1648,GBT,40.0,35.0,Dual,MOBI (MB2F&3F-65-17&17DE10&8-2015),NSN,VII,5/22/2013,S12K_ID,3.0,4-4-4,0/180/260,,DMW,,,NEW NEC,0.6 m,BSC60-27_CTR_Santhpeta_CT2004B,E1,1.0,,60.0,Tirupati,VII,5/21/2014,0/180/260,RRH,3.0,35.0,Dual,MOBI (MD2F&3F-65-17&17DE10&8-2015),DMW,,,100 Mbps,NEW NEC,0.6 m,CT2004,FE,,Tiruapti,100 Mbps,4,CT5005,CT5005,,,,,,,,,2015812433@G/FXW/HYD/3156701/2016@K-19012/G/FXW/HYD/2670760/2016-CFA 9-12-16,"260618-YES(DMW,fe+CTR(CAR)-MADM)+CTR-DWDM+TRP(DWDM)+PE1(2-2-23)",100 Mbps,505,"260618-YES(DMW,fe+CTR(CAR)-MADM)+CTR-DWDM+TRP(DWDM)+PE1(2-2-23)",CTR,,
54,CT5010,4G_36001_NGVPalliBuStand_VIOM_CT5010,505_53201_NGVPalliBuStand_VIOM_CT5010,2G+4G,NSN,13.57206,78.50049,E-City,Madanapalle,Madanapalle,SH,Shelter,5392.0,"H.no.2-250-45-2, , Neeruguttapalli, Madanapalli. Chittoor PIN:517325",Rajampet,MADANAPALLI,517325.0,IP-VIOM,VIOM Networks,ANPCHI1456,RTT,24.0,24.0,Dual,MOBI (MB2F&3F-65-17&17DE10&8-2015),NSN,VII,4/5/2013,BTS18K_ID,3.0,4-4-4,160/220/340,1.0,OFC,E1,,,,,,,,68.0,Tirupati,VII,7/28/2014,160/220/340,RRH,3.0,24.0,Dual,MOBI (MD2F&3F-65-17&17DE10&8-2015),OFC,FE,,100 Mbps,,,,,,Tiruapti,,4,CT5010,CT5010,,,,,CT5010,,,,,140718-YES-(FX(E1)+MADM(STR)+PE2(2-2-29)),100 Mbps,505,140718-YES-(FX(E1)+MADM(STR)+PE2(2-2-29)),MDP,,
55,CT5015,4G_36421_RajGardns_GTL_CT5015,504_40791_RajaGardens_GTL_CT5015,2G+4G,NSN,13.43238,79.55534,E-City,Puttur,Puttur,,Shelter,5407.0,"H-NO:11-2A,Raja Gardens,Nagari Road,Puttur,Chittoor dt.517583",Tirupati,PUTTUR,517583.0,IP-GTL,GTL,APR/RTT/K/15083,RTT,15.0,21.0,Dual,MOBI (MB2F&3F-65-17&17DE10&8-2015),NSN,VII,3/13/2013,S12K_ID,3.0,4-4-4,5/110/240,,DMW,,,NEW NEC,0.6 m,BSC67-14_Puttur_CT2065A,E1,1.0,,67.0,Tirupati,VII,9/23/2016,5/110/240,RRH,3.0,21.0,Dual,MOBI (MD2F&3F-65-17&17DE10&8-2015),DMW,,,100 Mbps,NEW NEC,0.6 m,CT2065,FE,,Tiruapti,25Mbps,4,CT5015,CT5015,,CT5015,,,,,,,2015813436@G/FXW/HYD/3156716/2016@CLEARED ONLINE,190818YES(fe+CPAN(PTR)+DWDM(PTR)+DWDM(TRP_STR)+PE1(2-2-21),100 Mbps,504,180818YES(fe+CPAN(PTR)+DWDM(PTR)+DWDM(TRP_STR)+PE1(2-2-21),PUT,,
56,CT5017,4G_36022_Sawanapalli_VIOM_CT5017,505_53211_CTR-Sawanpalli_VIOM_CT5017,2G+4G,NSN,13.22876,79.11124,E-City,CHITTOOR,Chittoor,SH,Shelter,5421.0,"SY-NO-61, KATAMANCHI VILLAGE, CHITTOR MUNICIPALITY, CHITTOR DIST-517001.",Chittoor,CHITTOOR,517001.0,IP-VIOM,VIOM Networks,ANPCHI2841,RTT,18.0,28.0,Dual,MOBI (MB2F&3F-65-17&17DE10&8-2015),NSN,VII,8/26/2013,S12K_ID,3.0,4-4-4,25/170/240,,DMW,,,NEW NEC,0.6 m,BSC60-21_Chittoor_OFC_CT2003A,E1,1.0,,60.0,Tirupati,VII,8/23/2016,25/170/240,RRH,3.0,28.0,Dual,MOBI (MD2F&3F-65-17&17DE10&8-2015),DMW,,,100 Mbps,NEW NEC,0.6 m,CT2003,FE,,Tiruapti,60Mbps,4,CT5017,CT5017,,,,,,,,,2015812449@G/FXW/HYD/3156702/2016@K-19012-G/FVC/HYD2891034/2015-CFA DTD 9-12-16,190718-YES(FX+CTR(PTN)+CTR-DWDM+TRP(DWDM)+PE2(2-2-25),100 Mbps,505,190718-YES(FX+CTR(PTN)+CTR-DWDM+TRP(DWDM)+PE2(2-2-25),CTR,,
57,CT5018,4G_36032_Satyaved_VIOM_CT5018,504_40811_Satyaveedu_VIOM_CT5018,2G+4G,NSN,13.43718,79.9547,E-City,Satyavedu,Satyavedu,SH,Shelter,5402.0,"Survey No. 333/6, Satyaveedu Village & Mandal, Chittor District,",Tirupati,SATYAVEDU,517588.0,IP-VIOM,VIOM Networks,ANPCHI0049,GBT,40.0,30.0,Dual,MOBI (MB2F&3F-65-17&17DE10&8-2015),NSN,VII,6/24/2013,S12K_ID,3.0,4-4-4,0/120/240,1.0,OFC,E1,,,,,,,,67.0,Tirupati,VII,10/5/2016,0/120/240,RRH,3.0,30.0,Dual,MOBI (MD2F&3F-65-17&17DE10&8-2015),OFC,FE,,50 Mbps,,,,,,Tiruapti,,4,CT5018,CT5018,,,,,,,,,,230818YES(MADM(SKT)+DWDM(SKT)+DWDM(STR)+PE1(2-2-33),50 Mbps,504,230818YES(MADM(SKT)+DWDM(SKT)+DWDM(STR)+PE1(2-2-33),STV,,
58,CT5020,4G_36431_PunnamiHotel_CT5020,504_40821_PTR-PunnamiHotel_VIOM_CT5020,2G+4G,NSN,13.44753,79.55409,E-City,PUTTUR,Puttur,NH,Shelter,5407.0,VIOM(ANPCHI2745) Sy.no. 216/13B; Puttur Village & Mandal; Chittoor Dist.,Tirupati,PUTTUR,517583.0,IP-VIOM,VIOM Networks,ANPCHI2745,GBT,40.0,35.0,Dual,MOBI (MB2F&3F-65-17&17DE10&8-2015),NSN,VII,8/29/2013,BTS18K_ID,3.0,4-4-4,170/220/320,,DMW,,,NEW NEC,0.6 m,BSC67-14_Puttur_CT2065A,E1,1.0,,67.0,Tirupati,VII,3/28/2014,170/220/320,RRH,3.0,35.0,Dual,MOBI (MD2F&3F-65-17&17DE10&8-2015),DMW,,,100 Mbps,NEW NEC,0.6 m,CT2065,FE,,Tiruapti,30Mbps,4,CT5020,CT5020,,CT5020,,,CT5020,,,,2015813426@G/FXW/HYD/3156714/2016@CLEARED ONLINE,180818-YES(Fe+PIL(PTN)+CTR-DWDM+TRP(DWDM)+PE2(2-2-27),100 Mbps,504,180818-YES(Fe+PIL(PTN)+CTR-DWDM+TRP(DWDM)+PE2(2-2-27),PUT,,
59,CT5021,4G_36051_Pakala BS_VIO_CT5021,505_53231_PakalaBusStand_VIOM_CT5021,2G+4G,NSN,13.44945,79.11978,E-City,Pakala,Pakala,RC,Shelter,5396.0,"MURALI COMLEX,BESIDE BUS STAND,B.N ROAD,PAKALA,CHITTOR DIST PIN:517112",Tirupati,PAKALA,517112.0,IP-VIOM,VIOM Networks,ANPCHI1316,RTT,24.0,27.0,Dual,Agisson,NSN,VII,2/26/2013,S12K_ID,3.0,4-4-4,20/110/250,1.0,OFC,E1,,,,,,,,60.0,Tirupati,VII +,3/9/2017,20/110/250,RRH,3.0,27.0,Dual,Agisson,OFC,FE,,100 Mbps,,,,,,Tiruapti,,4,CT5021,CT5021,,,,,,,,,,210618-YES(FX+PKL(PTN)+CTR-DWDM+TRP(DWDM)+PE2(2-2-27),100 Mbps,505,210618-YES(FX+PKL(PTN)+CTR-DWDM+TRP(DWDM)+PE2(2-2-27),PKL,,
60,CT5027,4G_36072_GUNDRAJUKUPAM_CT5027,504_40841_Gundrajukuppam_CT5027,2G+4G,NSN,13.34208,79.57011,E-City,Gundrajukuppam,Nagari,NH,Shelter,5406.0,"Sri A.Madhava Reddy, Sy.No 230/1 Gundrajukuppam (V), Nagari Mandal,",Chittoor,PUTTUR,517592.0,NBSNL,BSNL Infra,CT5027,GBT,40.0,38.0,Dual,MOBI (MB2F&3F-65-17&17DE10&8-2015),NSN,VII,3/21/2014,S12K_ID,3.0,4-4-4,80/160/280,,DMW,,,NEW NEC,0.6 m,BSC67-91_Ekambarakupam_CT9002A,E1,1.0,,67.0,Tirupati,VII +,4/3/2017,80/160/280,RRH,3.0,38.0,Dual,MOBI (MD2F&3F-65-17&17DE10&8-2015),DMW,,,100 Mbps,NEW NEC,0.6 m,CT9002,FE,,Tiruapti,50Mbps,4,CT5027,CT5027,,,,,,,,,2015813438@G/FXW/HYD/3156717/2016@CLEARED ONLINE,"080618YES(DMW,fe+MADM1-3-1(EKM)+MADM(PTR)+DWDM(PTR)+DWDM(TRP_STR)+PE1(2-2-21)",100 Mbps,504,"290718YES(DMW,fe+MADM1-3-1(EKM)+MADM(PTR)+DWDM(PTR)+DWDM(TRP_STR)+PE1(2-2-21)",STD,,
61,CT5038,4G_36092_Thenabanda_CT5038,505_53261_Tenabanda_CT5038,2G+4G,NSN,13.21703,79.08938,E-City,THENEBANDA,Chittoor,,Room,5421.0,"C.J.Vinodh Kumar,Dharma Raju Colony,Thenebanda Road,Chittoor",Chittoor,CHITTOOR,517001.0,NBSNL,BSNL Infra,CT5038,GBT,40.0,37.0,Dual,MOBI (MB2F&3F-65-17&17DE10&8-2015),NSN,VII,4/8/2014,S12K_ID,3.0,4-4-4,20/110/200,,DMW,,,NEW NEC,0.6 m,BSC60-27_CTR_Santhpeta_CT2004B,E1,1.0,,60.0,Tirupati,VII,4/24/2014,20/110/200,RRH,3.0,37.0,Dual,MOBI (MD2F&3F-65-17&17DE10&8-2015),DMW,,,100 Mbps,NEW NEC,0.6 m,CT2004,FE,,Tiruapti,100 Mbps,4,CT5038,CT5038,,,,,,,,,2015813401@G/FXW/HYD/3156708/2016@K-19012-G/FVC/HYD2891034/2015-CFA DTD 9-12-16,100718-YES(DMW+fe+CTR(CAR)-MADM)+CTR-DWDM+TRP(DWDM)+PE1(2-2-23),100 Mbps,505,100718-YES(DMW+fe+CTR(CAR)-MADM)+CTR-DWDM+TRP(DWDM)+PE1(2-2-23),CTR,,
62,CT5041,4G_36113_BARLAPALLI_CT5041,505_53281_Barlapalli_CT5041,2G+4G,NSN,13.54391,78.43391,Rural,Barlapalli,Madanapalle,NH,Shelter,5392.0,"Barlapalli,S.Y.No 243, barlapalli ,chitoor district -517325",Rajampet,MADANAPALLI,517325.0,NBSNL,BSNL Infra,CT5041,GBT,40.0,37.0,Dual,MOBI (MB2F&3F-65-17&17DE10&8-2015),NSN,VII,2/14/2014,S12K_ID,3.0,4-4-4,100/220/300,1.0,OFC,E1,,,,,,,,68.0,Tirupati,VII +,11/18/2016,100/220/300,RRH,3.0,37.0,Dual,MOBI (MD2F&3F-65-17&17DE10&8-2015),OFC,FE,,100 Mbps,,,,,,Tiruapti,,4,CT5041,CT5041,,,,,,,,,,210618-YES-(FX(E1)+MADM(STR)+PE2(2-2-29)),100 Mbps,505,210618-YES-(FX(E1)+MADM(STR)+PE2(2-2-29)),MDP,,
63,CT5060,4G_36192_DIRoad_VIOM_CT5060,505_53341_DIRoad_VIOM_CT5060,2G+4G,NSN,13.22024,79.09946,E-City,CHITTOOR,Chittoor,,Shelter,5421.0,"M. Balakrishna Reddy, H.N0:10-401,M.B.R COMPLEX,D.IROAD,CHITTOOR PIN:517001",Chittoor,CHITTOOR,517001.0,IP-VIOM,VIOM Networks,ANPQRL0054,RTT,18.0,24.0,Dual,MOBI (MB2F&3F-65-17&17DE10&8-2015),NSN,VII,8/5/2014,S12K_ID,3.0,4-4-4,0/130/250,,DMW,,,NEW NEC,0.6 m,BSC60-21_Chittoor_OFC_CT2003A,E1,1.0,,60.0,Tirupati,VII,8/17/2016,0/130/250,RRH,3.0,24.0,Dual,MOBI (MD2F&3F-65-17&17DE10&8-2015),DMW,,,100 Mbps,NEW NEC,0.6 m,CT2003,FE,,Tiruapti,60Mbps,4,CT5060,CT5060,,,,,,,,,2015813410@G/FXW/HYD/3156710/2016@K-19012-G/FVC/HYD2891034/2015-CFA DTD 9-12-16,190718-YES(FX+CTR(PTN)+CTR-DWDM+TRP(DWDM)+PE2(2-2-25),100 Mbps,505,190718-YES(FX+CTR(PTN)+CTR-DWDM+TRP(DWDM)+PE2(2-2-25),CTR,,
64,CT5071,4G_36223_DurganagarColony_ATC_CT5071,505_53351_Durgangrcly_ATC_CT5071,2G+4G,NSN,13.19509,79.08821,E-City,CHITTOOR,Chittoor,,Shelter,5421.0,H no:4-1974/1;;Durganagar colony;Chittor;A.P-517001,Chittoor,CHITTOOR,517001.0,IP-ATC,ATC,AP/CH/BS/10746,RTT,15.0,21.0,Dual,MOBI (MB2F&3F-65-17&17DE10&8-2015),NSN,VII,10/9/2013,S12K_ID,3.0,4-4-4,75/200/330,,DMW,,,NEW NEC,0.6 m,BSC60-20_BalmurganDiry_CT2103B,E1,1.0,,60.0,Tirupati,VII,4/4/2014,75/200/330,RRH,3.0,21.0,Dual,MOBI (MD2F&3F-65-17&17DE10&8-2015),DMW,,,100 Mbps,NEW NEC,0.6 m,CT2103,FE,,Tiruapti,45Mbps,4,CT5071,CT5071,,,,,,,,,2015812478@G/FXW/HYD/3156704/2016@K-19012-G/FVC/HYD2891034/2015-CFA DTD 9-12-16,"190718-YES(DMW,fe+CTR(CAR)-MADM)+CTR-DWDM+TRP(DWDM)+PE1(2-2-23)",100 Mbps,505,"190718-YES(DMW,fe+CTR(CAR)-MADM)+CTR-DWDM+TRP(DWDM)+PE1(2-2-23)",CTR,,
65,CT5072,4G_36231_BANSHotel_ATC_CT5072,505_53361_BANS-Hotel_ATC_CT5072,2G+4G,NSN,13.23634,79.08702,E-City,CHITTOOR,Chittoor,NH,Shelter,5421.0,"H.No.1-81, Openpally Colony, Areagundla Road, Chittoor town & District-517501.",Chittoor,CHITTOOR,517001.0,IP-ATC,ATC,AP/CH/BS/10747,RTT,18.0,24.0,Dual,MOBI (MB2F&3F-65-17&17DE10&8-2015),NSN,VII,11/13/2013,BTS18K_ID,3.0,4-4-4,350/160/230,,DMW,,,NEW NEC,0.6 m,BSC60-27_CTR_Santhpeta_CT2004B,E1,1.0,,60.0,Tirupati,V.1,3/29/2014,350/160/230,RRH,3.0,24.0,Dual,MOBI (MD2F&3F-65-17&17DE10&8-2015),DMW,,,100 Mbps,NEW NEC,0.6 m,CT2004,FE,,Tiruapti,100Mbps,4,CT5072,CT5072,,,,,CT5072,,,,2015813418@G/FXW/HYD/3156712/2016@K-19012-G/FVC/HYD2891034/2015-CFA DTD 9-12-16,170718-YES(DMW+fe+CTR(CAR)-MADM)+CTR-DWDM+TRP(DWDM)+PE1(2-2-23),100 Mbps,505,170718-YES(DMW+fe+CTR(CAR)-MADM)+CTR-DWDM+TRP(DWDM)+PE1(2-2-23),CTR,,
66,CT5073,4G_36243_Basinkonda_ATC_CT5073,505_53371_Basinkonda_ATC_CT5073,2G+4G,NSN,13.54615,78.51408,E-City,BASINKONDA,Madanapalle,,Shelter,5392.0,"MR. B. ANURADHAH.NO.17/91-4-4-A-1,RAJIV COLY, PUNGANURROAD, MADNAPALLI 517330",Rajampet,MADANAPALLI,517325.0,IP-ATC,ATC,AP3095,RTT,24.0,21.0,Dual,MOBI (MB2F&3F-65-17&17DE10&8-2015),NSN,VII,6/18/2014,BTS18K_ID,3.0,4-4-4,10/140/250,1.0,OFC,E1,,,,,,,,68.0,Tirupati,VII,8/17/2016,10/140/250,RRH,3.0,21.0,Dual,MOBI (MD2F&3F-65-17&17DE10&8-2015),OFC,FE,,100 Mbps,,,,,,Tiruapti,,4,CT5073,CT5073,,,,,CT5073,,,,,130718-YES-(FX(E1)+MADM(STR)+PE2(2-2-29)),100 Mbps,505,130718-YES-(FX(E1)+MADM(STR)+PE2(2-2-29)),MDP,,
67,CT5074,4G_36252_Punganoor_Kothaindlu_CT5074,505_53381_Pnganr-Kothaindlu_ATC_CT5074,2G+4G,NSN,13.37292,78.56868,E-City,Punganur,Punganur,NH,Shelter,5415.0,"H.No.28-15-5, Kothindlu, Madanapai Road, Punganoor, Chittoor District-517247",Chittoor,PUNGANUR,517247.0,IP-ATC,ATC,AP/CH/BS/10749,RTT,18.0,24.0,Dual,Agisson,NSN,VII,10/9/2013,BTS18K_ID,3.0,4-4-4,340/60/180,1.0,OFC,E1,,,,,,,,70.0,Tirupati,VII,8/19/2014,340/60/180,RRH,3.0,24.0,Dual,Agisson,OFC,FE,,100 Mbps,,,,,,Tiruapti,,4,CT5074,CT5074,,,,,CT5074,,,,,060818YES(FE+MADM(PLM)+MADM(STR)+PE1(2-2-35),100 Mbps,505,060818YES(FE+MADM(PLM)+MADM(STR)+PE1(2-2-35),PUG,,
68,CT5076,4G_36263_Palmaner_VIOM_CT5076,505_53391_Palamaneru_VIOM_CT5076,2G+4G,NSN,13.20041,78.74945,E-City,PALAMANERU,Palamaner,NH,Shelter,5422.0,"D.No.1-55, Pathapeta, Masid street,Palananeru Mandal, Chittor",Chittoor,PALMANER,517408.0,IP-VIOM,VIOM Networks,ANPQRL0184,GBT,40.0,32.0,Dual,MOBI (MB2F&3F-65-17&17DE10&8-2015),NSN,VII,8/18/2014,BTS18K_ID,3.0,4-4-4,60/180/330,,DMW,,,NEW NEC,0.6 m,BSC70-49_Palamaneeru_CT2060A,E1,1.0,,70.0,Tirupati,VII,8/23/2016,60/180/330,RRH,3.0,32.0,Dual,MOBI (MD2F&3F-65-17&17DE10&8-2015),DMW,,,100 Mbps,NEW NEC,0.6 m,CT2060,FE,,Tiruapti,45 Mbps,4,CT5076,CT5076,,,,,CT5076,,,,2015814145@G/FXW/HYD/3156781/2016@K-19012-G/FVC/HYD2891034/2015-CFA DTD 9-12-16,050818YES(FE+PTN(PLM)+PTN(MDP)+PE2(2-2-27),100 Mbps,505,050818YES(FE+PTN(PLM)+PTN(MDP)+PE2(2-2-27),PLM,,
69,CT5077,4G_36271_YelamandaCross_ATC_CT5077,505_53401_YellamandaCross_ATC__CT5077,2G+4G,NSN,13.66482,78.94425,E-City,Piler,Pileru,,OD Plinth,5386.0,"Sy.No 590, Plot No 11&12,Durga Nagar, Kadapa Road,Piler V & M, Chittoor Dist,",Rajampet,PILER,517214.0,IP-ATC,ATC,AP/CH/BS/10751,GBT,40.0,35.0,Dual,MOBI (MB2F&3F-65-17&17DE10&8-2015),NSN,VII,7/12/2013,S12K_OD,3.0,4-4-4,160/240/320,,OFC,FE,,,,,,,,68.0,Tirupati,VII,9/6/2016,160/240/320,RRH,3.0,35.0,Dual,MOBI (MD2F&3F-65-17&17DE10&8-2015),OFC,FE,,70 Mbps,,,,,,Tiruapti,,4,CT5077,CT5077,,,,,,,,,2015813983@G/FXW/HYD/3156769/2016@K-19012-G/FVC/HYD2891034/2015-CFA DTD 9-12-16,160818-YES(Fe+PIL(PTN)+CTR-DWDM+TRP(DWDM)+PE2(2-2-27),70 Mbps,505,160818-YES(Fe+PIL(PTN)+CTR-DWDM+TRP(DWDM)+PE2(2-2-27),PIL,,
70,CT5098,4G_36303_Estate_CT5098,505_53411_CTR_Estate_CT5098,2G+4G,NSN,13.22219,79.12708,E-City,CHittoor,Chittoor,,Room,5421.0,"CTR_Estate,27-945/1 ,Industrial estate area chittor -517001",Chittoor,CHITTOOR,517001.0,NBSNL,BSNL Infra,CT5098,MARR,15.0,21.0,Dual,MOBI (MB2F&3F-65-17&17DE10&8-2015),NSN,VII+,9/9/2017,S12K_OD,3.0,4-4-4,70/230/280,1.0,OFC,E1,,,,,,,,60.0,Tirupati,VII +,9/9/2017,70/230/280,RRH,3.0,21.0,Dual,MOBI (MD2F&3F-65-17&17DE10&8-2015),OFC,Optical,,100 Mbps,,,,,,Tiruapti,,4,CT5098,CT5098,,,,,,,,,,030718-YES(FX+CTR(PTN)+CTR-DWDM+TRP(DWDM)+PE2(2-2-25),100 Mbps,505,030718-YES(FX+CTR(PTN)+CTR-DWDM+TRP(DWDM)+PE2(2-2-25),CTR,,
71,CT5107,4G_36362_CTR_SBI_CLY_CT5107,505_53441_CTR_SBI_CLY_CT5107,2G+4G,NSN,13.21831,79.1173,E-City,Chittoor,TIRUPATI,,ROOM,,,Chittoor,CHITTOOR,517001.0,NBSNL,BSNL INFRA,CT5107,MARR-1,,,,MOBI (MB2F&3F-65-17&17DE10&8-2015),NSN,,7/24/2018,,3.0,4-4-4,,,OFC,,,,,,,,,,,,,,RRH,,,,,,,,100 Mbps,,,,,,,,4,,,CT5107,,,CT5107,,,,,,240718-YES(fe+CTR(CAR)-MADM)+CTR-DWDM+TRP(DWDM)+PE1(2-2-23),100 Mbps,505,240718-YES(fe+CTR(CAR)-MADM)+CTR-DWDM+TRP(DWDM)+PE1(2-2-23),CTR,,
72,CT5501,4G_36351_Nakkaladinne _CT5501,505_53431_Nakkaladinne_GTL_CT5501,2G+4G,NSN,13.55422,78.49125,Rural,NakkalaDinne,Madanapalle,NH,Shelter,5392.0,"SY.NO.3,Ponnutapalem Revenue Village,Madanapalli.",Rajampet,MADANAPALLI,517325.0,IP-GTL,GTL,APR/GBT/K/11579,GBT,40.0,37.0,Dual,KATHREIN,NSN,IV.5,3/11/2018,BTS18K_ID,3.0,3-2-3,170/250/320,,OFC,,,,,,,,,68.0,Tirupati,,,,RRH,,,,,,,,100 Mbps,,,,,,,,4,CT5501,,CT5501,,,,CT5501,,,,,080618-YES(FX+MDP(PTN)-MDP(STR)+CTR-DWDM+TRP(DWDM)+PE2(2-2-27),100 Mbps,505,130618-YES(FX+MDP(PTN)-MDP(STR)+CTR-DWDM+TRP(DWDM)+PE2(2-2-27),MDP,,
73,CT5518,4G_36391_Dodipalli_CT5518,505_53451_Dodipalli_ATC_CT5518,2G+4G,NSN,13.23524,79.11655,E-City,Chittoor,Chittoor,,ROOM,,C. Dayaniathan/8121834367;H No: 35-3; Street: Chamundi nagar; kotrakona road; Town: 75 Doddipalli; Mandal: Chittoor; Dist: Chittoor.-517001,Chittoor,CHITTOOR,,IP,ATC,ANPCHI3488,GBT,30.0,30.0,dual,mobi,NSN,VIII,,,,4-4-4,,,OFC,,,,,,,,,,,VIII,,,RRH,,,,,,,,100 Mbps,,,,,,,,4,,,CT5515,,,CT5515,,,,,,171018-YES(fe+DMW+CTR(CAR)-MADM)+CTR-DWDM+TRP(DWDM)+PE1(2-2-23),100 Mbps,505,171018-YES(fe+DMW+CTR(CAR)-MADM)+CTR-DWDM+TRP(DWDM)+PE1(2-2-23),CTR,,
74,CT5561,4G_PTR_DRDO_AP_CT5561,505_346_PTR_DRDO_CT5561,2G+4G,NSN,13.27969,79.31541,Rural,PUTTUR,PUTTUR,,SHELTER,,"DRDO CAMPUS,KOKIRALA KONA",Tirupati,PUTTUR,,NBSNL,BSNL Infra,CT5561,MARR,21.0,21.0,,,NSN,,12/17/2020,,,,,,,,,,,,,,,,,,10/20/2020,0/120/240,ID,3.0,21.0,MONO,MOBI,OFC,FX,,100 MBPS,,,,,,,,4,,,,,,,,,,,,,,0,,,,
