SR.NO,RPID,SITE_NAME_3G,SITE_NAME,TECHNOLOGY,3G_TECH,LATITUDE,LONGITUDE,DHQ,DHQ_NAME,Mandal,ROUT,SHELTER,Mandal_Code,Address,MP_CONS,SDCA,PIN_CODE,BSNL_IP,IP_NAME,IP_ID,Tower_Type,2G_Tower_HT,2G_ Ant_HT,2G_Ant,2G_Ant_Make,2G_BTS,2G_Phase,2G_Commission,2G_Type,2G_SEC,2G_Conf,2G_Azimuth,2G_E1_NO,2G_Media,2G_OFC_E1,2G_FE_BW,2G_DMW,2G_DMW_Ant_DIA,2G_Far_end_RPID,2G_DMW_E1_FE,2G_DMW_E1_NO,2G_DMW_FE_BW,BSC,2G_MSC,3G_PH,3G_Commission,3G_Azimuth,3G_ID,3G_SEC,3G_ANT_HT,3G_ANT_TYPE,Field52,3G_MEDIA,3G_OFC_FE,3G_E1_NO,3G_FE_BW,3G_DMW,3G_DMW_DIA,3G_FAR_RPID,3G_E1_FE,Field61,3G_MSC,Field62,RNC,NSN_2G,NSN_3G,NSN_NEW_3G,NSN_4G,HUW_REDP,NSN_NEW_2G,NOR_IV5,NOR_IV,3G_HUW_FROM,3G_HUW_FROM_TYPE,DMW_SACFA,WORK_C,BW,BSC_PORT,WORK_2G,TOWN,WORK_2G1,TOWN1
1,CT2001,553_35012_Bangarupalem_CT2001,505_50011_NH4_Bangarupalem_CT2001,2G+3G,NSN,13.2025,78.91376,Rural,Bangarupalem,Bangarupalem,NH,Exchange,5429.0,"Bangarupalem exge(v&M),Chittoor DT.",Chittoor,BANGARUPALYAM,517416.0,BSNL,BSNL Infra,CT2001,GBT,60.0,40.0,Mono,HIGH WAY,NSN,I,6/12/2004,BTS18K_ID,3.0,4-4-4,100/250/180,,DMW,,,NEW NEC(HFCL),0.91.2,BSC70-12_G_K_Manchi_CT2111,FE,,,70.0,Tirupati,VII +,4/21/2017,100/250/180,RRH,3.0,40.0,Mono,MOBI (MB3F-65-18DE10+MBRET-RCU-003),OFC,FE,,50 Mbps,,,,,,Tiruapti,,553,CT2001,CT2001,,,,,CT2001,,,,,230818-YES(FE+CTR(PTN)+CTR-DWDM+TRP(DWDM)+PE2(2-2-25),50 Mbps,505.0,230818-YES(FE+CTR(PTN)+CTR-DWDM+TRP(DWDM)+PE2(2-2-25),BAN,,
2,CT2007,553_35051_Kalrodpalli_CT2007,505_50071_Kalrodpalli_CT2007,2G+3G,NSN,13.51366,79.21043,Rural,Kalroadpalli,Pakala,RC,Room,5396.0,"Kalrodpalli,pakala(M),Chittoor DT.",Chittoor,PAKALA,517112.0,NBSNL,BSNL Infra,CT2007,GBT,40.0,40.0,Mono,HIGH WAY,NSN,IV,3/9/2006,S8K_OD,3.0,4-4-4,40/120/225,1.0,OFC,E1,,,,,,,,60.0,Tirupati,,,,RRH,,,,,,,,45 Mbps,,,,,,,,553,CT2007,,CT2007,,,,,,,,,"200518YES(CPE,fe1+MADM3/17fx(CDR)+PTN5/5(CDR)+PTN4/5(TRP)+PE-GE1(2-2-19))",45 Mbps,505.0,"130618YES(CPE,fe1+MADM3/17fx(CDR)+PTN5/5(CDR)+PTN4/5(TRP)+PE-GE1(2-2-19))",STD,,
3,CT2012,553_35083_Nagalapuram_CT2012,504_40011_Nagalapuram-CTR_CT2012,2G+3G,NSN,13.38473,79.79882,Rural,Nagalapuram,Nagalapuram,NH,OD Plinth,5403.0,Nagalapuram TE-CTR dt.,Tirupati,SATYAVEDU,517589.0,BSNL,BSNL Infra,CT2012,GBT,40.0,39.0,Mono,HIGH WAY,NSN,IV,5/8/2006,S12K_OD,3.0,4-4-4,70/140/290,1.0,OFC,E1,,,,,,,,67.0,Tirupati,VII +,5/18/2017,70/140/290,RRH,3.0,36.0,Mono,MOBI (MB3F-65-18DE10+MBRET-RCU-003),OFC,FE,,50 Mbps,,,,,,Tiruapti,,553,CT2012,CT2012,,,,,,,,,,140818YES(FX(E1)+MADM1-(EKM)+MADM(PTR)+DWDM(PTR)+DWDM(TRP_STR)+PE1(2-2-21),50 Mbps,504.0,140818YES(FX(E1)+MADM1-(EKM)+MADM(PTR)+DWDM(PTR)+DWDM(TRP_STR)+PE1(2-2-21),STD,,
4,CT2016,553_35121_Srikalahasti-E-seva_CT2016,504_40021_SrikalahastiE-seva_CT2016,2G+3G,NSN,13.75123,79.70339,E-City,Srikalahasti,Srikalahasti,,Room,5378.0,"SrikalahastiE-seva,srikalahasti,Chittoor DT.",Tirupati,SRI KALAHASTHI,517644.0,NBSNL,BSNL Infra,CT2016,MARR,18.0,27.0,Dual,MOBI (MB2F&3F-65-17&17DE10&8-2015),NSN,IV,3/20/2006,S12K_ID,3.0,4-4-4,5/120/249,1.0,OFC,E1,,,,,,,,67.0,Tirupati,VII,2/13/2013,5/120/249,RRH,3.0,27.0,Dual,MOBI (MD2F&3F-65-17&17DE10&8-2015),OFC,FE,,100 Mbps,,,,,,Tiruapti,,553,CT2016,CT2016,,,,,,,,,,040818YES(FE+MADM(SKT)+DWDM(SKT)+DWDM(STR)+PE1(2-2-33),100 Mbps,504.0,040818YES(FE+MADM(SKT)+DWDM(SKT)+DWDM(STR)+PE1(2-2-33),SKT,,
5,CT2017,553_3652_TPT_Tirumala_CT2017,504_41131_TPT_Tirumala_CT2017,2G+3G,NSN,13.68069,79.34947,E-City,Tirumala,Tirupati (Urban),PP,Exchange,5383.0,"Tirumala,Chittoor DT.",Tirupati,CHANDRAGIRI,517504.0,BSNL,BSNL Infra,CT2017,GBT,40.0,40.0,Dual,MOBI (MB2F&3F-65-17&17DE10&8-2015),NSN,II+,6/4/2004,MTC_ID,3.0,6-6-6,0/60/120,,OFC,FE,65 Mbps,,,,,,,504.0,Tirupati,VIII,3/18/2010,0/60/120,RRH,3.0,40.0,Dual,Agisson,OFC,FE,,100 Mbps,,,,,,Tiruapti,,553,,,,,,,,,,,,,100 Mbps,,,,,
6,CT2024,553_35133_Chinnagottigallu_CT2024,505_50241_Chinnagottigallu_CT2024,2G+3G,NSN,13.65255,79.08792,Rural,Chinnagottigallu,Chinnagottigallu,NH,Exchange,5385.0,"Chinnagottigallu(V&M),Chittoor DT.",Rajampet,PILER,517193.0,BSNL,BSNL Infra,CT2024,GBT,40.0,40.0,Dual,MOBI (MB2F&3F-65-17&17DE10&8-2015),NSN,III,6/23/2004,S8K_ID,3.0,4-4-4,20/120/230,1.0,OFC,E1,,,,,,,,68.0,Tirupati,VII,6/11/2014,20/120/230,RRH,3.0,40.0,Dual,MOBI (MD2F&3F-65-17&17DE10&8-2015),OFC,FE,,100 Mbps,,,,,,Tiruapti,,553,CT2024,CT2024,,,,,,,,,,210818-YES(Fe+PIL(PTN)+CTR-DWDM+TRP(DWDM)+PE2(2-2-27),100 Mbps,505.0,210818-YES(Fe+PIL(PTN)+CTR-DWDM+TRP(DWDM)+PE2(2-2-27),STD,,
7,CT2029,553_35161_Putalapattu_CT2029,505_50291_NH18_Putalapattu_CT2029,2G+3G,NSN,13.34398,79.09385,Rural,Puthalapattu,Puthalapattu,NH,Room,5410.0,"putalapattu(V&M),Chittoor DT.",Chittoor,CHITTOOR,517124.0,BSNL,BSNL Infra,CT2029,GBT,60.0,38.0,Mono,HIGH WAY,NSN,I,6/4/2004,S12K_ID,3.0,4-4-4,50/160/260,2.0,OFC,E1,,,,,,,,60.0,Tirupati,VII +,4/22/2017,50/160/260,RRH,3.0,38.0,Mono,MOBI (MB3F-65-18DE10+MBRET-RCU-003),OFC,FE,,100 Mbps,,,,,,Tiruapti,,553,CT2029,CT2029,,,,,,,,,,110718-YES(fe+CTR(CAR)-MADM)+CTR-DWDM+TRP(DWDM)+PE1(2-2-23),100 Mbps,505.0,110718-YES(fe+CTR(CAR)-MADM)+CTR-DWDM+TRP(DWDM)+PE1(2-2-23),STD,,
8,CT2032,553_35182_Chandragiri_CT2032,504_40091_Chandragiri_CT2032,2G+3G,NSN,13.58842,79.31548,DHQ,Chandragiri,Chandragiri,NH,Exchange,5384.0,"Chandragiri TE,busstand area,Chandragiri(m),Chittoor DT.",Tirupati,CHANDRAGIRI,517101.0,BSNL,BSNL Infra,CT2032,GBT,40.0,36.0,Mono,KATHREIN,NSN,II+,6/4/2004,S12K_ID,3.0,4-4-4,40/140/230,1.0,OFC,E1,,,,,,,,58.0,Tirupati,V.1,3/18/2010,40/140/230,RRH,3.0,36.0,Mono,Agisson,OFC,FE,,100 Mbps,,,,,,Tiruapti,,553,CT2032,CT2032,,,,,,,,,,100718-YES-(GE+CDR_PTN-FX3/1+NIB-4/5+PE-GE1(2-2-19)),100 Mbps,504.0,300718-YES-(GE+CDR_PTN-FX3/1+NIB-4/5+PE-GE1(2-2-19)),STD,,
9,CT2034,553_35202_Vayalapadu_CT2034,505_50341_Vayalapadu_CT2034,2G+3G,NSN,13.63963,78.62609,Rural,Chinnagottigallu,Kalikiri,RC,Exchange,5387.0,"Vayalapadu exge,Vayalpad(M),Chittoor DT.",Rajampet,VAYALPADU,517299.0,BSNL,BSNL Infra,CT2034,GBT,60.0,40.0,Dual,MOBI (MB2F&3F-65-17&17DE10&8-2015),NSN,III,9/26/2004,S12K_ID,3.0,4-4-4,80/140/340,1.0,OFC,E1,,,,,,,,68.0,Tirupati,VII,6/10/2014,80/140/340,RRH,3.0,40.0,Dual,MOBI (MD2F&3F-65-17&17DE10&8-2015),OFC,FE,,100 Mbps,,,,,,Tiruapti,,553,CT2034,CT2034,,,,,,,,,,110818-YES(FE+VYD(PTN)+CTR-DWDM+TRP(DWDM)+PE2(2-2-27),100 Mbps,505.0,110818-YES(FE+VYD(PTN)+CTR-DWDM+TRP(DWDM)+PE2(2-2-27),STD,,
10,CT2035,553_35212_PKothakota_CT2035,505_50351_PKothakota_CT2035,2G+3G,NSN,13.40695,79.10927,Rural,P.Kothakota,Puthalapattu,NH,Exchange,5410.0,"P.kothakota,CTR,ptx(M),Chittoor DT.",Chittoor,CHITTOOR,517112.0,BSNL,BSNL Infra,CT2035,GBT,40.0,35.0,Mono,HIGH WAY,NSN,IV,12/30/2005,S8K_ID,3.0,4-4-4,20/140/230,1.0,OFC,E1,,,,,,,,60.0,Tirupati,VII +,3/4/2017,20/140/230,RRH,3.0,35.0,Dual,MOBI (MD2F&3F-65-17&17DE10&8-2015),OFC,FE,,100 Mbps,,,,,,Tiruapti,,553,CT2035,CT2035,,,,,,,,,,230818-YES(FX+PKA(PTN)-CTR(PTN)+CTR-DWDM+TRP(DWDM)+PE2(2-2-27),100 Mbps,505.0,230818-YES(FX+PKA(PTN)-CTR(PTN)+CTR-DWDM+TRP(DWDM)+PE2(2-2-27),STD,,
11,CT2041,553_35231_Bakarapeta_CT2041,505_50411_Bakarapeta_CT2041,2G+3G,NSN,13.65278,79.15939,Rural,Bakarapeta,Chinnagottigallu,NH,Exchange,5385.0,"Bakarapeta(V&M),Chittoor DT.",Rajampet,PILER,517194.0,BSNL,BSNL Infra,CT2041,GBT,40.0,39.0,Mono,KATHREIN,NSN,IV,11/22/2006,BTS18K_ID,3.0,4-4-4,30/130/250,1.0,OFC,E1,,,,,,,,68.0,Tirupati,VII +,3/13/2017,30/130/250,RRH,3.0,38.0,Dual,MOBI (MD2F&3F-65-17&17DE10&8-2015),OFC,FE,,100 Mbps,,,,,,Tiruapti,,553,CT2041,CT2041,,,,,,,,,,200818-YES(Fe+PIL(PTN)+CTR-DWDM+TRP(DWDM)+PE2(2-2-27),100 Mbps,505.0,200818-YES(Fe+PIL(PTN)+CTR-DWDM+TRP(DWDM)+PE2(2-2-27),STD,,
12,CT2042,553_35241_BNKadriga_CT2042,504_40131_BNKadriga_CT2042,2G+3G,NSN,13.69625,79.8548,Rural,BNKandriga,Buchinaidu Kandriga,SH,Exchange,5380.0,"BNKandriga(V&M),Chittoor DT.",Tirupati,SRI KALAHASTHI,517640.0,BSNL,BSNL Infra,CT2042,GBT,40.0,40.0,Mono,HIGH WAY,NSN,IV,9/30/2005,S8K_ID,3.0,4-4-4,41/142/298,1.0,OFC,E1,,,,,,,,67.0,Tirupati,VII +,3/8/2017,41/142/298,RRH,3.0,38.0,Dual,MOBI (MD2F&3F-65-17&17DE10&8-2015),OFC,FE,,100 Mbps,,,,,,Tiruapti,,553,CT2042,CT2042,,,,,,,,,,140818YES(MADM(SKT)+DWDM(SKT)+DWDM(STR)+PE1(2-2-33),100 Mbps,504.0,140818YES(MADM(SKT)+DWDM(SKT)+DWDM(STR)+PE1(2-2-33),STD,,
13,CT2045,553_36503_DharmagiriRoad_CT2045,504_41141_DharmagiriRoad_CT2045,2G+3G,NSN,13.68606,79.34196,E-City,Tirumala,Tirupati (Urban),PP,Shelter,5383.0,"Dharmagiri_Road,tirumala road,Chittoor DT.",Tirupati,CHANDRAGIRI,517504.0,NBSNL,BSNL Infra,CT2045,GBT,30.0,25.0,Dual,MOBI (MB2F&3F-65-17&17DE10&8-2015),NSN,IV,9/19/2006,MTC_ID,3.0,4-4-4,70/120/160,,OFC,FE,65 Mbps,,,,,,,283.0,Tirupati,V.1,8/5/2012,70/120/160,RRH,3.0,25.0,Mono,Agisson,OFC,FE,,100 Mbps,,,,,,Tiruapti,,553,,,,,,,,,,,,,100 Mbps,,,,,
14,CT2050,553_36382_Knipakam_CT2050,505_50501_Kanipakam_CT2050,2G+3G,NSN,13.27727,79.03935,Rural,Kanipakam,Irala,PP,Exchange,5411.0,"Kanipakam exge,Irala(M),Chittoor DT.",Chittoor,BANGARUPALYAM,517131.0,BSNL,BSNL Infra,CT2050,GBT,40.0,40.0,Mono,KATHREIN,NSN,I,6/4/2004,S12K_ID,3.0,4-4-4,25/110/240,1.0,OFC,E1,,,,,,,,70.0,Tirupati,VII +,5/2/2017,25/110/240,RRH,3.0,40.0,Mono,MOBI (MB3F-65-18DE10+MBRET-RCU-003),OFC,FE,,100 Mbps,,,,,,Tiruapti,,553,CT2050,CT2050,,,,,,CT2050,,,,020918-YES(fx+CTR(CAR)-MADM)+CTR-DWDM+TRP(DWDM)+PE1(2-2-23),100 Mbps,505.0,030918-YES(fx+CTR(CAR)-MADM)+CTR-DWDM+TRP(DWDM)+PE1(2-2-23),CTR,,
15,CT2053,553_35282_Kuppam-TE_CT2053,505_50531_Kuppam_CT2053,2G+3G,NSN,12.74673,78.34393,E-City,Kuppam,kuppam,RC,Exchange,5427.0,"kuppam exge,Chittoor DT.",Chittoor,KUPPAM,517425.0,BSNL,BSNL Infra,CT2053,GBT,40.0,40.0,Tri,Agisson,NSN,I,6/4/2004,S12K_ID,3.0,4-4-4,20/170/270,2.0,OFC,E1,,,,,,,,70.0,Tirupati,VII,4/21/2012,20/170/270,RRH,3.0,40.0,TRI,Agisson,OFC,FE,,60 Mbps,,,,,,Tiruapti,,553,CT2053,CT2053,,,,,,,,,,240818YES(FE+MADM(KPM)+MADM(STR)+PE2(2-2-37),60 Mbps,505.0,240818YES(FE+MADM(KPM)+MADM(STR)+PE2(2-2-37),KPM,,
16,CT2063,553_35323_PESMedicalKuppam_CT2063,505_50631_PESMedicalKuppam_CT2063,2G+3G,NSN,12.79077,78.36563,E-City,Kuppam,kuppam,NH,Room,5427.0,"PESMedical college,Kuppam,Chittoor DT.",Chittoor,KUPPAM,517425.0,NBSNL,BSNL Infra,CT2063,MARR,18.0,30.0,Dual,MOBI (MB2F&3F-65-17&17DE10&8-2015),NSN,IV,5/14/2006,S12K_ID,3.0,4-4-4,0/100/240,1.0,OFC,E1,,,,,,,,70.0,Tirupati,VII,2/19/2014,0/100/240,RRH,3.0,30.0,Dual,MOBI (MD2F&3F-65-17&17DE10&8-2015),OFC,FE,,45 Mbps,,,,,,Tiruapti,,553,CT2063,CT2063,,,,,,,,,,240818YES(FE+MADM(KPM)+MADM(STR)+PE2(2-2-37),45 Mbps,505.0,250818YES(FE+MADM(KPM)+MADM(STR)+PE2(2-2-37),KPM,,
17,CT2064,553_35333_Pitchatur_CT2064,504_40161_Pitchatur_CT2064,2G+3G,NSN,13.40089,79.74057,Rural,Pitchatur,Pichatur,NH,Exchange,5401.0,"Pitchatur(V&M),Chittoor DT.",Tirupati,SATYAVEDU,517587.0,BSNL,BSNL Infra,CT2064,GBT,40.0,40.0,Mono,KATHREIN,NSN,IV,3/4/2006,S12K_ID,3.0,4-4-4,109/233/341,1.0,OFC,E1,,,,,,,,67.0,Tirupati,VII +,4/21/2017,109/233/341,RRH,3.0,40.0,Mono,MOBI (MB3F-65-18DE10+MBRET-RCU-003),OFC,FE,,100 Mbps,,,,,,Tiruapti,,553,CT2064,CT2064,,,,,,,,,,300718YES(FX(E1)+MADM1-(EKM)+MADM(PTR)+DWDM(PTR)+DWDM(TRP_STR)+PE1(2-2-21),100 Mbps,504.0,300718YES(FX(E1)+MADM1-(EKM)+MADM(PTR)+DWDM(PTR)+DWDM(TRP_STR)+PE1(2-2-21),STD,,
18,CT2066,553_36651_RRPuram_CT2066,BSC70-40_RRPuram_CT2066A,2G+3G,NSN,13.30895,79.35448,Rural,RRPURAM,Srirangarajapuram,NH,Shelter,5419.0,"R R Puram ,Beside indian oil petrol bunk , pulluru cross road , sri rangarajapuram mandal , chittor district,AP--517167",Tirupati,PUTTUR,517167.0,BSNL,BSNL Infra,CT2066,GBT,40.0,38.0,Mono,KATHREIN,Nortel,IV,12/18/2015,S12K_ID,3.0,4-4-4,80/180/260,,OFC,,,,,BSC67-34_ChinaThayyur_CT2230B,E1,1.0,,67.0,Tirupati,VIII.4,12/30/2019,,RRH,,,,,OFC,FE,,30 Mbps,,,,,,,,553,,,,,CT2066,,,CT2066,BSC67-84_Vadamalpet_CT2078A,ID,2015133687@G/FXW/HYD/3382106/2016@K-19012/G/FVC/HYD/1982154/2013-CFA DT 19/12/16,,30 Mbps,0.0,,,,
19,CT2069,553_35352_SrikalhastiMW_CT2069,504_40191_Srikalahasti_MW_CT2069,2G+3G,NSN,13.75894,79.70275,E-City,Srikalahasti,Srikalahasti,SH,Exchange,5378.0,"Srikalahasti_MW,srikalahasti,Chittoor DT.",Tirupati,SRI KALAHASTHI,517644.0,BSNL,BSNL Infra,CT2069,GBT,100.0,32.0,Dual,MOBI (MB2F&3F-65-17&17DE10&8-2015),NSN,I,6/4/2004,S12K_ID,3.0,4-4-4,60/190/270,1.0,OFC,E1,,,,,,,,67.0,Tirupati,VII,2/6/2014,60/190/270,RRH,3.0,32.0,Dual,MOBI (MD2F&3F-65-17&17DE10&8-2015),OFC,FE,,100 Mbps,,,,,,Tiruapti,,553,CT2069,CT2069,,,,,,,,,,090818YES(MADM(SKT)+DWDM(SKT)+DWDM(STR)+PE1(2-2-33),100 Mbps,504.0,080818YES(MADM(SKT)+DWDM(SKT)+DWDM(STR)+PE1(2-2-33),SKT,,
20,CT2070,553_36511_Sudharshan_Tirumala_CT2070,504_41151_Sudharshan_Tirumala_CT2070,2G+3G,NSN,13.68036,79.35193,E-City,Tirumala,Tirupati (Urban),PP,Room,5383.0,"Sudharshan_ choultry,Tirumala,Chittoor DT.",Tirupati,CHANDRAGIRI,517504.0,NBSNL,BSNL Infra,CT2070,RTP,9.0,18.0,Tri,Agisson,NSN,IV,9/27/2006,MTC_ID,3.0,2-6-4,10/220/320,,OFC,FE,65 Mbps,,,,,,,504.0,Tirupati,VIII,8/5/2012,10/220/320,RRH,3.0,18.0,TRI,Agisson,OFC,FE,,100 Mbps,,,,,,Tiruapti,,553,,,,,,,,,,,,,100 Mbps,,,,,
21,CT2071,553_36641_Thambalapalli_CT2071,BSC68-11_Thambalapalli_CT2071B,2G+3G,NSN,13.82278,78.44932,Rural,Thamballapalli,Thamballapalle,,Shelter,5368.0,"Thamballapalli(V&M),Chittoor DT.",Rajampet,MADANAPALLI,517418.0,NBSNL,BSNL Infra,CT2071,GBT,40.0,37.0,Dual,XAHT,Nortel,IV,5/6/2006,BTS18K_ID,3.0,4-4-4,0/100/240,1.0,OFC,E1,,,,,,,,68.0,Tirupati,VII +,3/25/2017,0/100/240,RRH,3.0,36.0,Mono,MOBI (MB3F-65-18DE10+MBRET-RCU-003),OFC,FE,,100 Mbps,,,,,,Tiruapti,,553,,,,,,,,CT2071,,,,,100 Mbps,0.0,,,,
22,CT2077,553_36543_mundurMitta_CT2077,504_41161_mundurMitta_CT2077,2G+3G,NSN,13.65843,79.38289,E-City,Mamundurmitta,Tirupati (Urban),PP,Room,5383.0,tirumalad2vashanam; ajineyaswamintemple;tirumala;0517507,Tirupati,CHANDRAGIRI,517520.0,NBSNL,BSNL Infra,CT2077,GBT,100.0,30.0,Mono,HIGH WAY,NSN,IV,10/1/2005,MTC_ID,3.0,4-4-4,12/95/280,,OFC,FE,65 Mbps,,,,,,,504.0,Tirupati,VIII,1/2/2013,12/95/280,RRH,3.0,30.0,Mono,Agisson,OFC,FE,,100 Mbps,,,,,,Tiruapti,,553,,,,,,,,,,,,,100 Mbps,,,,,
23,CT2078,553_35363_Vadamalpet_CT2078,504_40251_Vadamalpet_CT2078,2G+3G,NSN,13.5493,79.5249,Rural,Vadamalapeta,Vadamalapeta,RC,Exchange,5399.0,"bsnl exge,Vadamalpet(V&M),Chittoor DT.",Tirupati,PUTTUR,517551.0,BSNL,BSNL Infra,CT2078,GBT,40.0,37.0,Mono,HIGH WAY,NSN,IV,12/30/2005,S8K_ID,3.0,4-4-4,90/200/350,1.0,OFC,E1,,,,,,,,67.0,Tirupati,VII +,4/20/2017,90/200/350,RRH,3.0,37.0,Mono,MOBI (MB3F-65-18DE10+MBRET-RCU-003),OFC,FE,,45 Mbps,,,,,,Tiruapti,,553,CT2078,CT2078,,,,,,,,,,"090618YES(CPE,fe+MADM(PTR)+DWDM(PTR)+DWDM(TRP_STR)+PE1(2-2-21)",45 Mbps,504.0,"290718YES(CPE,fe+MADM(PTR)+DWDM(PTR)+DWDM(TRP_STR)+PE1(2-2-21)",STD,,
24,CT2081,553_35371_Yerpedu_CT2081,504_40261_Yerpedu_CT2081,2G+3G,NSN,13.69362,79.59597,Rural,Yerpedu,Yerpedu,RC,Room,5377.0,"Yerpedu,Chittoor DT.",Tirupati,SRI KALAHASTHI,517619.0,NBSNL,BSNL Infra,CT2081,GBT,40.0,38.0,Dual,MOBI (MB2F&3F-65-17&17DE10&8-2015),NSN,IV,4/30/2006,S8K_OD,3.0,2-2-2,0/110/220,1.0,OFC,E1,,,,,,,,67.0,Tirupati,VII,7/1/2014,0/110/220,RRH,3.0,38.0,Dual,MOBI (MD2F&3F-65-17&17DE10&8-2015),OFC,FE,,100 Mbps,,,,,,Tiruapti,,553,CT2081,CT2081,,,,,,,,,,010818YES(GE+MADM(SKT)+DWDM(SKT)+DWDM(STR)+PE1(2-2-33),100 Mbps,504.0,010818YES(GE+MADM(SKT)+DWDM(SKT)+DWDM(STR)+PE1(2-2-33),STD,,
25,CT2098,553_35393_Chinthaparthy_CT2098,505_50981_Chinthaparthy_CT2098,2G+3G,NSN,13.64082,78.70561,Rural,Chinthaparthy,Kalikiri,RC,Exchange,5387.0,"Chintaparti(V).,Chintaparti (M),Chittoor DT.",Rajampet,VAYALPADU,517317.0,BSNL,BSNL Infra,CT2098,GBT,40.0,38.0,Dual,XAHT,NSN,IV.5,9/4/2008,BTS18K_ID,3.0,4-4-4,90/190/280,1.0,OFC,E1,,,,,,,,68.0,Tirupati,VII +,5/1/2017,90/190/280,RRH,3.0,38.0,Mono,MOBI (MB3F-65-18DE10+MBRET-RCU-003),OFC,FE,,100 Mbps,,,,,,Tiruapti,,553,CT2098,CT2098,,,,,CT2098,,,,,070818-YES(FX+PKL(PTN)+CTR-DWDM+TRP(DWDM)+PE2(2-2-27),100 Mbps,505.0,070818-YES(FX+PKL(PTN)+CTR-DWDM+TRP(DWDM)+PE2(2-2-27),STD,,
26,CT2107,553_35452_CTSamudram_CT2107,505_51071_CT-Samudram_CT2107,2G+3G,NSN,13.6474,78.56329,Rural,CTSamudram,Madanapalle,RC,Exchange,5392.0,"Ctsamudram,Chittoordt.",Rajampet,MADANAPALLI,517319.0,BSNL,BSNL Infra,CT2107,GBT,40.0,40.0,Dual,XAHT,NSN,IV.5,8/30/2008,BTS18K_ID,3.0,4-4-4,90/180/270,1.0,OFC,E1,,,,,,,,68.0,Tirupati,VII +,3/7/2017,90/180/270,RRH,3.0,39.0,Dual,MOBI (MD2F&3F-65-17&17DE10&8-2015),OFC,FE,,100 Mbps,,,,,,Tiruapti,,553,CT2107,CT2107,,,,,,,,,,210618-YES(FX+MDP3/8(PTN)-CTR(PTN)+CTR-DWDM+TRP(DWDM)+PE2(2-2-27),100 Mbps,505.0,210618-YES(FX+MDP3/8(PTN)-CTR(PTN)+CTR-DWDM+TRP(DWDM)+PE2(2-2-27),STD,,
27,CT2108,553_35461_EKM-2_Nagari_CT2108,504_40271_EKM-2_Nagari_CT2108,2G+3G,NSN,13.31931,79.58461,E-City,Nagari,Nagari,SH,Room,5406.0,"EKM-2,Nagari(M),Chittoor DT.",Tirupati,PUTTUR,517590.0,NBSNL,BSNL Infra,CT2108,MARR,15.0,21.0,Dual,MOBI (MB2F&3F-65-17&17DE10&8-2015),NSN,IV.5,1/20/2009,BTS18K_ID,3.0,4-4-4,20/180/260,1.0,OFC,E1,,,,,,,,67.0,Tirupati,VII,4/24/2014,20/180/260,RRH,3.0,21.0,Dual,MOBI (MD2F&3F-65-17&17DE10&8-2015),OFC,FE,,70 Mbps,,,,,,Tiruapti,,553,CT2108,CT2108,,,,,CT2108,,,,,060718YES(GE+MADM1-3-5(EKM)+MADM(PTR)+DWDM(PTR)+DWDM(TRP_STR)+PE1(2-2-21),70 Mbps,504.0,280718YES(GE+MADM1-3-5(EKM)+MADM(PTR)+DWDM(PTR)+DWDM(TRP_STR)+PE1(2-2-21),EKM,,
28,CT2109,553_35471_Gadanki_CT2109,505_51091_Gadanki_CT2109,2G+3G,NSN,13.46101,79.17194,Rural,Gadanki,Pakala,RC,OD Plinth,5396.0,"Gadanki(V),NARL,pakala(M),Chittoor DT.",Chittoor,PAKALA,517112.0,NBSNL,BSNL Infra,CT2109,GBT,40.0,38.0,Dual,XAHT,NSN,IV.5,2/27/2009,BTS18K_OD,3.0,4-4-4,35/235/330,1.0,OFC,E1,,,,,,,,60.0,Tirupati,VII +,3/4/2017,35/235/330,RRH,3.0,38.0,Dual,MOBI (MD2F&3F-65-17&17DE10&8-2015),OFC,FE,,60 Mbps,,,,,,Tiruapti,,553,CT2109,CT2109,,,,,CT2109,,,,,250818-YES-(FE+PKA_PTN+NIB+PE-GE1(2-2-19)),60 Mbps,505.0,250818-YES-(FE+PKA_PTN+NIB+PE-GE1(2-2-19)),STD,,
29,CT2111,553_35481_G_K_Manchi_CT2111,505_51111_G_K_Manchi_CT2111,2G+3G,NSN,13.19635,78.99897,Rural,GKManchi,Bangarupalem,NH,Exchange,5429.0,"G_K_Manchi,Bangarupalem(M),Chittoor DT.",Chittoor,BANGARUPALYAM,517416.0,BSNL,BSNL Infra,CT2111,GBT,60.0,35.0,Dual,XAHT,NSN,IV.5,6/10/2009,S12K_ID,3.0,4-4-4,90/180/280,,DMW,,,NEW NEC(HFCL),1.21.2,BSC60-27_CTR_Santhpeta_CT2004,FE,,,70.0,Tirupati,VII +,5/1/2017,90/180/280,RRH,3.0,35.0,Mono,MOBI (MB3F-65-18DE10+MBRET-RCU-003),OFC,FE,,50 Mbps,,,,,,Tiruapti,,553,CT2111,CT2111,,,,,,,,,,180818-YES(FX+CTR(PTN)+CTR-DWDM+TRP(DWDM)+PE2(2-2-25),50 Mbps,505.0,180818-YES(FX+CTR(PTN)+CTR-DWDM+TRP(DWDM)+PE2(2-2-25),STD,,
30,CT2113,553_36661_Edigapalli_CT2113,505_51131_Edigapalli_CT2113,2G+3G,NSN,13.47056,78.54082,Rural,Edigapalli,Punganur,NH,OD Plinth,5415.0,"Edigapalli(V),Punganu(M),Chittoor DT.-517330",Rajampet,PUNGANUR,517247.0,NBSNL,BSNL Infra,CT2113,GBT,40.0,39.0,Dual,XAHT,NSN,IV.5,11/25/2008,BTS18K_ID,3.0,4-4-4,0/120/240,1.0,OFC,FE,,,,,,,,70.0,Tirupati,,,,,,,,,,,,,,,,,,,,553,CT2113,,,,,,CT2113,,,,2017265549@12/9/2017@,,,505.0,260818-YES-(E1+STR-MADM+STR-STM),STD,,
31,CT2123,553_35511_KAMMAPALLI_CT2123,504_40281_Kammapalli_CT2123,2G+3G,NSN,13.55506,79.45015,Rural,Kammapalli,Ramachandrapuram,,Exchange,5398.0,"BSNL TOWER,Telephone Exchange,Kammapalli(V&M),Chittoor DT.",Tirupati,PUTTUR,517561.0,BSNL,BSNL Infra,CT2123,GBT,40.0,35.0,Dual,XAHT,NSN,IV.5,9/18/2008,BTS18K_ID,3.0,4-4-4,90/220/300,1.0,OFC,E1,,,,,,,,58.0,Tirupati,VII +,1/7/2017,90/220/300,RRH,3.0,37.0,Dual,MOBI (MD2F&3F-65-17&17DE10&8-2015),OFC,FE,,100 Mbps,,,,,,Tiruapti,,553,CT2123,CT2123,,,,,CT2123,,,,,080918YES(fx+CPAN(PTR)+DWDM(PTR)+DWDM(TRP_STR)+PE1(2-2-21),100 Mbps,504.0,080918YES(fx+CPAN(PTR)+DWDM(PTR)+DWDM(TRP_STR)+PE1(2-2-21),STD,,
32,CT2131,553_35521_Kuppam-2_CT2131,505_51311_kuppam-2_CT2131,2G+3G,NSN,12.75078,78.33883,E-City,Kuppam,kuppam,,Room,5427.0,"Kuppam palace,kuppam,Chittoor DT.",Chittoor,KUPPAM,517425.0,NBSNL,BSNL Infra,CT2131,MARR,15.0,21.0,Dual,MOBI (MB2F&3F-65-17&17DE10&8-2015),NSN,IV.5,1/26/2009,BTS18K_ID,3.0,4-4-4,320/90/180,1.0,OFC,E1,,,,,,,,70.0,Tirupati,VII,2/19/2014,320/90/180,RRH,3.0,21.0,Dual,MOBI (MD2F&3F-65-17&17DE10&8-2015),OFC,FE,,60 Mbps,,,,,,Tiruapti,,553,CT2131,CT2131,,,,,CT2131,,,,,240818YES(FE+MADM(KPM)+MADM(STR)+PE2(2-2-37),60 Mbps,505.0,240818YES(FE+MADM(KPM)+MADM(STR)+PE2(2-2-37),KPM,,
33,CT2162,553_35612_Rompicherla_CT2162,505_51621_Rompicherla_CT2162,2G+3G,NSN,13.67065,79.04755,Rural,Rompicherla,Rompicherla,,Exchange,5373.0,"Rompicherla(V&M),Chittoor DT.",Rajampet,PILER,517192.0,BSNL,BSNL Infra,CT2162,GBT,40.0,40.0,Dual,XAHT,NSN,IV,1/11/2008,S8K_ID,3.0,4-4-4,20/190/280,1.0,OFC,E1,,,,,,,,68.0,Tirupati,VII +,3/13/2017,20/190/280,RRH,3.0,39.0,Dual,MOBI (MD2F&3F-65-17&17DE10&8-2015),OFC,FE,,100 Mbps,,,,,,Tiruapti,,553,CT2162,CT2162,,,,,,,,,,200818-YES(Fe+PIL(PTN)+CTR-DWDM+TRP(DWDM)+PE2(2-2-27),100 Mbps,505.0,200818-YES(Fe+PIL(PTN)+CTR-DWDM+TRP(DWDM)+PE2(2-2-27),STD,,
34,CT2167,553_35622_Srikalahasthi-3_CT2167,504_40301_Srikalahasthi-3_CT2167,2G+3G,NSN,13.75225,79.69447,E-City,Srikalahasti,Srikalahasti,SH,Room,5378.0,"srikalahasti,Chittoor DT.",Tirupati,SRI KALAHASTHI,517644.0,NBSNL,BSNL Infra,CT2167,MARR,18.0,24.0,Dual,MOBI (MB2F&3F-65-17&17DE10&8-2015),NSN,IV.5,1/27/2009,BTS18K_ID,3.0,4-4-4,40/135/240,1.0,OFC,E1,,,,,,,,67.0,Tirupati,VII,2/7/2014,40/135/240,RRH,3.0,24.0,Dual,MOBI (MD2F&3F-65-17&17DE10&8-2015),OFC,FE,,45 Mbps,,,,,,Tiruapti,,553,CT2167,CT2167,,,,,CT2167,,,,,300718YES(GE+MADM(SKT)+DWDM(SKT)+DWDM(STR)+PE1(2-2-33),45 Mbps,504.0,300718YES(GE+MADM(SKT)+DWDM(SKT)+DWDM(STR)+PE1(2-2-33),SKT,,
35,CT2168,553_35631_Taduku_CT2168,504_40311_Taduku_CT2168,2G+3G,NSN,13.49745,79.53169,Rural,Taduku,Puttur,RC,Room,5407.0,"Taduku(V),Puttur (M),Chittoor DT.",Tirupati,PUTTUR,517571.0,NBSNL,BSNL Infra,CT2168,GBT,40.0,39.0,Dual,XAHT,NSN,IV.5,7/6/2009,BTS18K_ID,3.0,4-4-4,30/210/310,1.0,OFC,E1,,,,,,,,67.0,Tirupati,,,,RRH,,,,,,,,100 Mbps,,,,,,,,553,CT2168,,CT2168,,,,CT2168,,,,,"030618YES(CPE,fe+CPE+MADM(PTR)+DWDM(PTR)+DWDM(TRP_STR)+PE1(2-2-21)",100 Mbps,504.0,"290718YES(CPE,fe+CPE+MADM(PTR)+DWDM(PTR)+DWDM(TRP_STR)+PE1(2-2-21)",STD,,
36,CT2173,553_35642_GNKandrigaUSO_CT2173,504_40331_GNKandriga-USO_CT2173,2G+3G,NSN,13.40717,79.62796,Rural,GNKandriga,Puttur,NH,OD Plinth,5407.0,"Gnkandriga(V),puttur(M),Chittoor DT.",Tirupati,PUTTUR,517583.0,NBSNL,BSNL Infra,CT2173,GBT,40.0,37.0,Dual,XAHT,NSN,USO,2/19/2010,BTS18K_OD,3.0,4-4-4,90/180/300,1.0,OFC,E1,,,,,,,,67.0,Tirupati,,,,RRH,,,,,,,,70 Mbps,,,,,,,,553,CT2173,,CT2173,,,,CT2173,,,,,020918YES(fe+MADM(PTR)+DWDM(PTR)+DWDM(TRP_STR)+PE1(2-2-21),70 Mbps,504.0,010918YES(fe+MADM(PTR)+DWDM(PTR)+DWDM(TRP_STR)+PE1(2-2-21),STD,,
37,CT2209,553_35683_BahadurpetSrikalhasti_CT2209,504_40511_BahadurpetSrikalhasti_CT2209,2G+3G,NSN,13.7607,79.70872,E-City,Srikalahasti,Srikalahasti,SH,Room,5378.0,"Bahadurpet,Srikalhasti,Chittoor DT.",Tirupati,SRI KALAHASTHI,517644.0,NBSNL,BSNL Infra,CT2209,RTP,9.0,18.0,Dual,Agisson,NSN,V.1,2/1/2011,BTS18K_ID,3.0,4-4-4,60/190/260,,DMW,,,NEW NEC,0.6 m,BSC67-15_SrikalhastiMW_CT2069A,E1,1.0,,67.0,Tirupati,Vii,2/5/2014,60/190/260,RRH,3.0,18.0,Dual,Agisson,DMW,,,100 Mbps,NEW NEC,0.6 m,CT2069,FE,,Tiruapti,30Mbps,553,CT2209,CT2209,,,,,CT2209,,,,G/FVC/HYD/1602570/2011,300718YES(FE+MADM(SKT)+DWDM(SKT)+DWDM(STR)+PE1(2-2-33),100 Mbps,504.0,300718YES(FE+MADM(SKT)+DWDM(SKT)+DWDM(STR)+PE1(2-2-33),SKT,,
38,CT2231,553_35793_ChinnaPandur_CT2231,504_40541_ChinnaPandur_CT2231,2G+3G,NSN,13.54522,79.94162,Rural,Chinnapandur,Satyavedu,SH,Room,5402.0,"ChinnaPandur,satyavedu (M),Chittoor DT.",Tirupati,SATYAVEDU,517541.0,BSNL,BSNL Infra,CT2231,GBT,40.0,37.0,Dual,Agisson,NSN,V.1,5/31/2010,BTS18K_ID,3.0,4-4-4,30/150/270,1.0,OFC,E1,,,,,,,,67.0,Tirupati,,,,RRH,,,,,,,,30 Mbps,,,,,,,,553,CT2231,,CT2231,,,,CT2231,,,,,140818YES(MADM(SKT)+DWDM(SKT)+DWDM(STR)+PE1(2-2-33),30 Mbps,504.0,140818YES(MADM(SKT)+DWDM(SKT)+DWDM(STR)+PE1(2-2-33),STD,,
39,CT2239,553_35803_DURGASAMUDRAM_CT2239,504_40561_DurgaSamudram_CT2239,2G+3G,NSN,13.57597,79.39256,DHQ,Durgasamudram,Tirupati (Rural),SH,OD Plinth,5375.0,"DurgaSamudram,TIRUPATI RURAL.,Chittoor DT.",Tirupati,CHANDRAGIRI,517561.0,NBSNL,BSNL Infra,CT2239,GBT,40.0,37.0,Dual,Agisson,NSN,V.1,6/13/2010,BTS18K_OD,3.0,4-4-4,50/130/260,1.0,OFC,E1,,,,,,,,58.0,Tirupati,VII +,10/15/2016,50/130/260,RRH,3.0,37.0,Dual,Agisson,OFC,FE,,100 Mbps,,,,,,Tiruapti,,553,CT2239,CT2239,,,,,CT2239,,,,,250718-YES-(RENI_PTN3/11+NIB+PE-GE1(2-2-19)),100 Mbps,504.0,010818-YES-(RENI_PTN3/11+NIB+PE-GE1(2-2-19)),STD,,
40,CT2241,553_35813_GAJULAMANDYAM_CT2241,504_40571_Gajulamandyam_CT2241,2G+3G,NSN,13.59892,79.51261,Rural,Gajulamandyam,Renigunta,SH,Exchange,5376.0,",S.Y.No 1030/1,putuur road ,Gajulamandyam,Renigunta (M),Chittoor DT.-517520",Tirupati,CHANDRAGIRI,517820.0,BSNL,BSNL Infra,CT2241,GBT,40.0,35.0,Dual,Agisson,NSN,V.1,4/19/2010,S8K_ID,3.0,4-4-4,340/140/280,1.0,OFC,E1,,,,,,,,58.0,Tirupati,VII,10/26/2016,340/140/280,RRH,3.0,35.0,Dual,Agisson,OFC,FE,,100 Mbps,,,,,,Tiruapti,,553,CT2241,CT2241,,,,,,,,,,270618-YES-(RENI_PTN+NIB+PE-GE1(2-2-19)),100 Mbps,504.0,010818-YES-(RENI_PTN+NIB+PE-GE1(2-2-19)),STD,,
41,CT2255,553_35822_AROGYAVARAM_CT2255,505_52551_Arogyavaram_CT2255,2G+3G,NSN,13.60201,78.53551,E-City,Arogyavaram,Madanapalle,NH,Room,5392.0,"Arogyavaram,S.Y.No 88,CTM Road , bsnl tower on GP land,Arogyavaram,Madanapalli (M),Chittoor DT.-517330",Rajampet,MADANAPALLI,517330.0,NBSNL,BSNL Infra,CT2255,GBT,40.0,32.0,Dual,Agisson,NSN,V.1,11/30/2010,S8K_ID,3.0,4-4-4,0/90/220,1.0,OFC,E1,,,,,,,,68.0,Tirupati,VII +,11/18/2016,0/90/220,RRH,3.0,32.0,Dual,Agisson,OFC,FE,,60 Mbps,,,,,,Tiruapti,,553,CT2255,CT2255,,,,,,,,,,220618-YES(FX+MDP3/8(PTN)-CTR(PTN)+CTR-DWDM+TRP(DWDM)+PE2(2-2-27),60 Mbps,505.0,220618-YES(FX+MDP3/8(PTN)-CTR(PTN)+CTR-DWDM+TRP(DWDM)+PE2(2-2-27),STD,,
42,CT2261,553_35833_Mogalimittoor_CT2261,505_52611_Mogalimittoor_CT2261,2G+3G,NSN,13.18573,78.84733,Rural,Mogilimittoor,Bangarupalem,NH,Exchange,5429.0,"Mogili(V),Bangarupalem(M),Chittoor DT.",Chittoor,BANGARUPALYAM,517419.0,BSNL,BSNL Infra,CT2261,GBT,40.0,35.0,Dual,AGISSON,NSN,V.1,4/19/2010,S8K_ID,3.0,4-4-4,7/147/295,,DMW,,,NEW NEC(HFCL),"0.6m,0.9",BSC70-19_Bangarupalem_CT2001A,E1,1.0,,70.0,Tirupati,,,,RRH,,,,,,,,50 Mbps,,,,,,,,553,CT2261,,CT2261,,,,,,,,,190818-YES(FX+CTR(PTN)+CTR-DWDM+TRP(DWDM)+PE2(2-2-25),50 Mbps,505.0,190818-YES(FX+CTR(PTN)+CTR-DWDM+TRP(DWDM)+PE2(2-2-25),STD,,
43,CT2271,553_35843_Ramachandraprm_CT2271,504_40601_Ramchandrapuram_CT2271,2G+3G,NSN,13.54371,79.3994,DHQ,Ramachandrapuram,Ramachandrapuram,SH,OD Plinth,5398.0,"Ramchandraprm,s.y.no 25-1,gangi reddy palli village,RamachandraPuram (V&M),Chittoor DT.-517561",Tirupati,CHANDRAGIRI,517561.0,NBSNL,BSNL Infra,CT2271,GBT,40.0,37.0,Dual,Agisson,NSN,V.1,1/28/2011,BTS18K_ID,3.0,4-4-4,20/130/230,,DMW,,,NEW NEC,0.6 m,BSC58-57_Kammapalli_CT2123B,E1,1.0,,58.0,Tirupati,V.1,1/9/2017,20/130/230,RRH,3.0,37.0,Dual,Agisson,DMW,,,100 Mbps,NEW NEC,0.6 m,CT2123,FE,,Tiruapti,45Mbps,553,CT2271,CT2271,,,,,,,,,G/FVC/HYD/1466306/2011,080918YES(fe+CPAN(PTR)+DWDM(PTR)+DWDM(TRP_STR)+PE1(2-2-21),100 Mbps,504.0,080918YES(fe+CPAN(PTR)+DWDM(PTR)+DWDM(TRP_STR)+PE1(2-2-21),STD,,
44,CT2275,553_35861_Peddakannali_CT2275,504_40621_Peddakannali_CT2275,2G+3G,NSN,13.7762,79.73055,E-City,Peddakannali,Thottambedu,NH,Shelter,5379.0,"Peddakannali,Thottambedu (M),Chittoor DT.",Tirupati,SRI KALAHASTHI,517642.0,NBSNL,BSNL Infra,CT2275,GBT,40.0,37.0,Dual,Agisson,NSN,V.1,9/3/2010,S8K_ID,3.0,4-4-4,30/120/210,1.0,OFC,E1,,,,,,,,67.0,Tirupati,VII +,3/8/2017,30/120/210,RRH,3.0,37.0,Dual,Agisson,OFC,FE,,45 Mbps,,,,,,Tiruapti,,553,CT2275,CT2275,,,,,,,,,,270818YES(FE+MADM(SKT)+DWDM(SKT)+DWDM(STR)+PE1(2-2-33),45 Mbps,504.0,270818YES(FE+MADM(SKT)+DWDM(SKT)+DWDM(STR)+PE1(2-2-33),STD,,
45,CT2281,553_35872_Talupulapalli_CT2281,505_52811_Talupulapalli_CT2281,2G+3G,NSN,13.39488,79.05655,Rural,Talapulapalli,Puthalapattu,NH,Exchange,5410.0,"Talupulapalli,puthalapattu(M),Chittoor DT.",Chittoor,CHITTOOR,517124.0,BSNL,BSNL Infra,CT2281,GBT,40.0,36.0,Dual,Agisson,NSN,V.1,4/7/2010,S12K_ID,3.0,4-4-4,75/220/320,1.0,OFC,E1,,,,,,,,70.0,Tirupati,VII +,5/9/2017,75/220/320,RRH,3.0,36.0,Dual,Agisson,OFC,FE,,45 Mbps,,,,,,Tiruapti,,553,CT2281,CT2281,,,,,,,,,,270718-YES(fe+CTR(CAR)-MADM)+CTR-DWDM+TRP(DWDM)+PE1(2-2-23),45 Mbps,505.0,270718-YES(fe+CTR(CAR)-MADM)+CTR-DWDM+TRP(DWDM)+PE1(2-2-23),STD,,
46,CT2291,553_35881_Thondamanadu_CT2291,504_40641_Thondamanadu_CT2291,2G+3G,NSN,13.70675,79.66574,E-City,Thondamanadu,Srikalahasti,NH,Room,5378.0,"3-265,Thondamanadu,Srikalahasti (M),Chittoor DT.",Tirupati,SRI KALAHASTHI,517641.0,NBSNL,BSNL Infra,CT2291,GBT,40.0,40.0,Dual,Agisson,NSN,V.1,6/24/2010,BTS18K_ID,3.0,4-4-4,30/180/300,1.0,OFC,E1,,,,,,,,67.0,Tirupati,VII +,3/13/2017,30/180/300,RRH,3.0,39.0,Dual,MOBI (MD2F&3F-65-17&17DE10&8-2015),OFC,FE,,100 Mbps,,,,,,Tiruapti,,553,CT2291,CT2291,,,,,CT2291,,,,,140818YES(MADM(SKT)+DWDM(SKT)+DWDM(STR)+PE1(2-2-33),100 Mbps,504.0,140818YES(MADM(SKT)+DWDM(SKT)+DWDM(STR)+PE1(2-2-33),STD,,
47,CT2295,553_35891_Valasapalli_CT2295,505_52951_Valasapalle_CT2295,2G+3G,NSN,13.52348,78.55389,Rural,Valasapalli,Madanapalle,,Exchange,5392.0,"Valasapalle,S.Y.No 219,Valasapalle,Madanapalli mandal,Chittoor DT.-517325",Rajampet,MADANAPALLI,517325.0,NBSNL,BSNL Infra,CT2295,GBT,40.0,37.0,Dual,Agisson,NSN,V.1,10/3/2010,S8K_ID,3.0,4-4-4,60/120/250,1.0,OFC,E1,,,,,,,,68.0,Tirupati,VII +,1/16/2017,60/120/250,RRH,3.0,37.0,Dual,Agisson,OFC,FE,,100 Mbps,,,,,,Tiruapti,,553,CT2295,CT2295,,,,,,,,,2017265550@12/9/2017@,200618-YES(FX+MDP3/8(PTN)-CTR(PTN)+CTR-DWDM+TRP(DWDM)+PE2(2-2-27),100 Mbps,505.0,200618-YES(FX+MDP3/8(PTN)-CTR(PTN)+CTR-DWDM+TRP(DWDM)+PE2(2-2-27),STD,,
48,CT2298,553_35903_VIKRUTHAMALA_CT2298,504_40651_Vikruthamala_CT2298,2G+3G,NSN,13.61198,79.55379,Rural,Vikruthamala,Yerpedu,,OD Plinth,5377.0,"Vikruthamala telephone exge,papanaidu pet (M).",Tirupati,SRI KALAHASTHI,517526.0,NBSNL,BSNL Infra,CT2298,GBT,40.0,35.0,Dual,Agisson,NSN,V.1,6/4/2010,BTS18K_OD,3.0,4-4-4,0/120/270,1.0,OFC,E1,,,,,,,,67.0,Tirupati,VII +,3/15/2017,0/120/270,RRH,3.0,35.0,Dual,Agisson,OFC,FE,,45 Mbps,,,,,,Tiruapti,,553,CT2298,CT2298,,,,,CT2298,,,,,070818-YES-(fE+CDR_PTN-FX+NIB+PE-GE1(2-2-19)),45 Mbps,504.0,070818-YES-(fE+CDR_PTN-FX+NIB+PE-GE1(2-2-19)),STD,,
49,CT2314,553_35943_SKHT-Temple_CT2314,504_40701_SKHT-Temple_CT2314,2G+3G,NSN,13.74784,79.69771,E-City,Srikalahasti,Srikalahasti,,Room,5378.0,"BSNL(CT2314) PRO OFFICE,PRAKASHPARK HOTEL,SRIKALAHSTI TEMPLE,SRIKALAHASTI,CHITTOOR DIST,",Tirupati,SRI KALAHASTHI,517644.0,NBSNL,BSNL Infra,CT2314,RTP,9.0,22.0,Dual,Agisson,NSN,V.1,7/26/2012,S8K_ID,3.0,4-4-4,340/200/270,,DMW,,,NEW NEC,0.6 m,BSC67-23_Srikalhasthi3_CT2167A,E1,1.0,,67.0,Tirupati,VII,9/6/2016,340/200/270,RRH,3.0,22.0,Dual,MOBI (MD2F&3F-65-17&17DE10&8-2015),DMW,,,45 Mbps,NEW NEC,0.6 m,CT2167,FE,,Tiruapti,50Mbps,553,CT2314,CT2314,,,,,,,,,2016949257@G/FXW/HYD/3548131/2016@K-19012/G/FVC/HYD/3547937/2016-CFA DTD 22-11-16,310718YES(MADM(SKT)+DWDM(SKT)+DWDM(STR)+PE1(2-2-33),45 Mbps,504.0,310718YES(MADM(SKT)+DWDM(SKT)+DWDM(STR)+PE1(2-2-33),SKT,,
50,CT5019,553_36042_TENEPALI_VIOM_CT5019,505_53221_Thenepalli_VIOM_CT5019,2G+3G,NSN,13.372,79.0861,Rural,Thenepalle,Puthalapattu,NH,Shelter,5410.0,"Sy.No:564/12/A, Thenepalli vill, Puthalapattu Mandal, Chittore-517124",Chittoor,CHITTOOR,517124.0,IP-VIOM,VIOM Networks,ANPCHI2162,GBT,50.0,40.0,Dual,MOBI (MB2F&3F-65-17&17DE10&8-2015),NSN,VII,12/7/2013,BTS18K_ID,3.0,4-4-4,30/165/315,,DMW,,,NEW NEC(HFCL),0.6 m,BSC60-17_Putalapattu_CT2029A,E1,1.0,,60.0,Tirupati,VII +,4/1/2017,30/165/315,RRH,3.0,39.0,Dual,MOBI (MD2F&3F-65-17&17DE10&8-2015),DMW,,,100 Mbps,NEW NEC(HFCL),0.6 m,CT2029,FE,,Tiruapti,30Mbps,553,CT5019,CT5019,,,,,CT5019,,,,2015813397@G/FXW/HYD/3156707/2016@K-19012-G/FVC/HYD2891034/2015-CFA DTD 9-12-16,120718-YES(DMW+fe+CTR(CAR)-MADM)+CTR-DWDM+TRP(DWDM)+PE1(2-2-23),100 Mbps,505.0,120718-YES(DMW+fe+CTR(CAR)-MADM)+CTR-DWDM+TRP(DWDM)+PE1(2-2-23),STD,,
51,CT5022,553_36062_KUKALPAL_VIOM_CT5022,505_53241_Kukkalapalle_VIOM_CT5022,2G+3G,NSN,13.19203,79.05706,E-City,Kukkalapalle,Yadamarri,NH,Shelter,5430.0,"Sy.No.152/2C, Situated at Kukkalapalle Village, Yadamarri Mandal, Chittoor Dist.",Chittoor,CHITTOOR,517001.0,IP-VIOM,VIOM Networks,ANPCHI2760,GBT,40.0,40.0,Dual,MOBI (MB2F&3F-65-17&17DE10&8-2015),NSN,VII,7/14/2013,BTS18K_ID,3.0,4-4-4,30/190/260,,DMW,,,NEW NEC,0.6 m,BSC60-06_Yadamarri_CT2080A,E1,1.0,,60.0,Tirupati,VII +,4/7/2017,30/190/260,RRH,3.0,40.0,Dual,MOBI (MD2F&3F-65-17&17DE10&8-2015),DMW,,,30 Mbps,NEW NEC,0.6 m,CT2080,FE,,Tiruapti,45Mbps,553,CT5022,CT5022,,,,,CT5022,,,,2015812464@G/FXW/HYD/3156703/2016@K-19012-G/FVC/HYD2891034/2015-CFA DTD 9-12-16,130718-YES(DMW+fe+CTR(CAR)-MADM)+CTR-DWDM+TRP(DWDM)+PE1(2-2-23),30 Mbps,505.0,130718-YES(DMW+fe+CTR(CAR)-MADM)+CTR-DWDM+TRP(DWDM)+PE1(2-2-23),STD,,
52,CT5032,553_36081_NGPALLI_CT5032,505_53251_Nalagampalli_CT5032,2G+3G,NSN,13.20521,78.94154,Rural,Nalagampalle,Bangarupalem,NH,Shelter,5429.0,"Sy.No.396/3A, Nalagampalle, Bangarupalem mandal",Chittoor,BANGARUPALYAM,517416.0,IP-ATC,ATC,APCHBS1738,GBT,40.0,35.0,Dual,MOBI (MB2F&3F-65-17&17DE10&8-2015),NSN,VII,7/8/2013,S12K_OD,3.0,4-4-4,0/90/220,,DMW,,,NEW NEC,0.6 m,BSC70-19_Bangarupalem_CT2001A,E1,1.0,,70.0,Tirupati,VII +,4/7/2017,0/90/220,RRH,3.0,35.0,Dual,MOBI (MD2F&3F-65-17&17DE10&8-2015),DMW,,,50 Mbps,NEW NEC,0.6 m,CT2001,FE,,Tiruapti,50Mbps,553,CT5032,CT5032,,,,,,,,,2015814174@G/FXW/HYD/3156782/2016@K-19012-G/FVC/HYD2891034/2015-CFA DTD 9-12-16,170818-YES(FX+CTR(PTN)+CTR-DWDM+TRP(DWDM)+PE2(2-2-25),50 Mbps,505.0,170818-YES(FX+CTR(PTN)+CTR-DWDM+TRP(DWDM)+PE2(2-2-25),BAN,,
53,CT5040,553_36103_Tanacheckpost_CT5040,505_53271_Thanacheckpost_CT5040,2G+3G,NSN,13.22163,79.15166,E-City,Thana Village,Gangadhara Nellore,NH,Shelter,5420.0,"Thana_checkpost,BSNL tower ,Thana RTO checkpost , GDNellore mandal , Chittor dist-517125",Chittoor,CHITTOOR,517125.0,NBSNL,BSNL Infra,CT5040,GBT,40.0,37.0,Dual,MOBI (MB2F&3F-65-17&17DE10&8-2015),NSN,VII,9/8/2015,BTS18K_ID,3.0,4-4-4,60/135/280,1.0,OFC,E1,,,,,,,,60.0,Tirupati,,,,RRH,,,,,,,,100 Mbps,,,,,,,,553,CT5040,,CT5040,,,,,,,,2016949276@G/FXW/HYD/3548128/2016@K-19012/G/FVC/HYD/3307757/2016-CFA DT 10/1/17,"300518-YES(CPE,fe+CTR(CAR)-MADM)+CTR-DWDM+TRP(DWDM)+PE1(2-2-23)",100 Mbps,505.0,"120618-YES(CPE,fe+CTR(CAR)-MADM)+CTR-DWDM+TRP(DWDM)+PE1(2-2-23)",CTR,,
54,CT5042,553_36121_ThodaRd_VIOM_CT5042,504_40901_Thodaroad_VIOM_CT5042,2G+3G,NSN,13.74761,79.71376,E-City,Srikalahasti,Srikalahasti,SH,Shelter,5378.0,H-no-1/334 (1) Chennai Road Srikalahasti Chittoor Dist-517644.,Tirupati,SRI KALAHASTHI,517644.0,IP-VIOM,VIOM Networks,ANPCHI1320,RTT,24.0,21.0,Dual,AGISSON,NSN,VII,1/14/2015,S12K_ID,3.0,4-4-4,0/120/270,,DMW,,,NEW NEC,0.6 m,BSC67-15_SrikalhastiMW_CT2069A,E1,1.0,,67.0,Tirupati,,,,RRH,,,,,,,,100 Mbps,,,,,,,,553,CT5042,,CT5042,,,,,,,,2015813446@G/FXW/HYD/3156721/2016@K-19012/G/FXW/HYD/3156337/201-CFA 26/2/16,"180518-YES-(DMW+MADM-70Mbps(SKHTe10,RENIo38)+RENI_PTN-FX4/1+NIB-4/5+PE-GE1(2-2-19))",100 Mbps,504.0,"310718-YES-(DMW+MADM-70Mbps(SKHTe10,RENIo38)+RENI_PTN-FX4/1+NIB-4/5+PE-GE1(2-2-19))",SKT,,
55,CT5045,553_36133_Battamdoddi_CT5045,505_53291_Battamdoddi_CT5045,2G+3G,NSN,13.33249,78.61722,Rural,Battamdoddi,Punganur,SH,Shelter,5415.0,"battamdoddi,sy.No 307/1, bandlapalle,battamdoddi village and post ,punganur mandal 517247",Chittoor,PUNGANUR,517247.0,NBSNL,BSNL Infra,CT5045,GBT,40.0,38.0,Mono,MOBI (MB2F&3F-65-17&17DE10&8-2015),NSN,VII,2/26/2015,BTS18K_ID,3.0,4-4-4,10/145/245,,DMW,,,HUAWEI,0.6m,BSC70-20_Punganur_CT2015A,E1,1.0,,70.0,Tirupati,,,,RRH,,,,,,,,20 Mbps,,,,,,,,553,CT5045,,CT5045,,,,CT5045,,,,2017265548@12/9/2017@,060818-YES(FE-CTR(PTN)+CTR-DWDM+TRP(DWDM)+PE2(2-2-27),20 Mbps,505.0,060818-YES(FE-CTR(PTN)+CTR-DWDM+TRP(DWDM)+PE2(2-2-27),STD,,
56,CT5046,553_36141_MotherTeresaInstitute_CT5046,505_53301_MotherTeresa_CT5046,2G+3G,NSN,13.24433,78.727747,Rural,PUNGANUR,Gangavaram,SH,Shelter,5417.0,"Holy Cross Educational Society Kallupalli (V), Gangavaram(M)",Chittoor,PALMANER,517408.0,NBSNL,BSNL Infra,CT5046,GBT,40.0,38.0,Dual,MOBI (MB2F&3F-65-17&17DE10&8-2015),NSN,VII,3/24/2014,S12K_ID,3.0,4-4-4,0/90/190,1.0,OFC,E1,,,,,,,,70.0,Tirupati,VII,7/14/2014,0/90/190,RRH,3.0,38.0,Dual,MOBI (MD2F&3F-65-17&17DE10&8-2015),OFC,FE,,45 Mbps,,,,,,Tiruapti,,553,CT5046,CT5046,,,,,,,,,2017265551@12/9/2017@,040818YES(FE+PTN(PLM)+PTN(MDP)+PE2(2-2-27),45 Mbps,505.0,040818YES(FE+PTN(PLM)+PTN(MDP)+PE2(2-2-27),STD,,
57,CT5048,553_36151_Patapeta_CT5048,505_53311_Patapeta_CT5048,2G+3G,NSN,12.75431,78.34687,E-City,KUPPAM,kuppam,,Shelter,5427.0,"PATHAPETA_KUPPAM,sy.no 45,ward no 6,HP road , patapeta kuppam,chittor district,517425",Chittoor,KUPPAM,517425.0,NBSNL,BSNL Infra,CT5048,GBT,40.0,40.0,Mono,KATHREIN,NSN,VII,9/23/2014,S12K_ID,3.0,4-4-4,40/140/230,1.0,OFC,E1,,,,,,,,70.0,Tirupati,VII,7/21/2016,40/140/230,RRH,3.0,40.0,Dual,MOBI (MD2F&3F-65-17&17DE10&8-2015),OFC,FE,,45 Mbps,,,,,,Tiruapti,,553,CT5048,CT5048,,,,,,,,,,240818YES(FE+MADM(KPM)+MADM(STR)+PE2(2-2-37),45 Mbps,505.0,240818YES(FE+MADM(KPM)+MADM(STR)+PE2(2-2-37),KPM,,
58,CT5051,553_36161_Mungilipattu_CT5051,505_53331_Mungilipattu_CT5051,2G+3G,NSN,13.56039,79.24861,Rural,Mungilipattu,Chandragiri,RC,Room,5384.0,B.Bhaskar Naidu. Cell: 9441492379 Backside of Telephone Excg Mungilipattu,Chittoor,PAKALA,517102.0,BSNL,BSNL Infra,CT5051,GBT,40.0,38.0,Dual,MOBI (MB2F&3F-65-17&17DE10&8-2015),NSN,VII,3/25/2014,S12K_ID,3.0,4-4-4,80/220/40,1.0,OFC,E1,,,,,,,,60.0,Tirupati,VII +,3/3/2017,80/220/40,RRH,2.0,38.0,Dual,MOBI (MD2F&3F-65-17&17DE10&8-2015),OFC,FE,,45 Mbps,,,,,,Tiruapti,,553,CT5051,CT5051,,,,,,,,,,230818-YES-(FE+PKA_PTN+NIB+PE-GE1(2-2-19)),45 Mbps,505.0,230818-YES-(FE+PKA_PTN+NIB+PE-GE1(2-2-19)),STD,,
59,CT5054,553_36173_Palamangalam_CT5054,504_40921_Palamangalam_CT5054,2G+3G,NSN,13.41071,79.68068,Rural,Palamangalam,Narayanavanam,NH,Shelter,5400.0,"Smt K.Anitha at S.No 168-17, Palamangalam (V) Narayanavaram Mandal.",Tirupati,PUTTUR,517581.0,NBSNL,BSNL Infra,CT5054,GBT,40.0,38.0,Dual,MOBI (MB2F&3F-65-17&17DE10&8-2015),NSN,VII,5/24/2014,BTS18K_ID,3.0,4-4-4,90/160/260,1.0,OFC,E1,,,,,,,,67.0,Tirupati,,,,RRH,,,,,,,,45 Mbps,,,,,,,,553,CT5054,,CT5054,,,,CT5054,,,,,"260518YES(CPE,fe+CPE+MADM(PTR)+DWDM(PTR)+DWDM(TRP_STR)+PE1(2-2-21)",45 Mbps,504.0,"310718YES(CPE,fe+CPE+MADM(PTR)+DWDM(PTR)+DWDM(TRP_STR)+PE1(2-2-21)",STD,,
60,CT5056,553_36181_Appalayagunta_CT5056,504_40941_Appalayagunta_CT5056,2G+3G,NSN,13.53869,79.47395,Rural,Appalayagunta,Srikalahasti,,Shelter,5378.0,"R.Subramanyam,Appalayagunta,Chittor Dt.",Tirupati,PUTTUR,517551.0,NBSNL,BSNL Infra,CT5056,GBT,40.0,40.0,Dual,MOBI (MB2F&3F-65-17&17DE10&8-2015),NSN,VII,8/12/2014,BTS18K_ID,3.0,4-4-4,20/130/290,,DMW,,,NEW NEC,0.6 m,BSC67-84_Vadamalpet_CT2078A,E1,1.0,,67.0,Tirupati,,,,RRH,,,,,,,,45 Mbps,,,,,,,,553,CT5056,,CT5056,,,,CT5056,,,,2015813442@G/FXW/HYD/3156719/2016@K-19012/G/FXW/HYD/2670760/2016-CFA 9-12-16,"030618YES(CPE,fe+CPE+MADM(PTR)+DWDM(PTR)+DWDM(TRP_STR)+PE1(2-2-21)",45 Mbps,504.0,"290718YES(CPE,fe+CPE+MADM(PTR)+DWDM(PTR)+DWDM(TRP_STR)+PE1(2-2-21)",STD,,
61,CT5065,553_36201_CGOLLAPALLI_CT5065,504_40971_CGollapalli_VIOM_CT5065,2G+3G,NSN,13.59447,79.38134,DHQ,Gollapalli,Tirupati (Rural),NH,Shelter,5375.0,"S.N8.29-1, Gollapally Vlg, Tirupati, Chittoor Dist-AP-517505",tirupati,CHANDRAGIRI,517505.0,IP-VIOM,VIOM Networks,ANPCHI1686,GBT,40.0,35.0,Mono,Agisson,NSN,VII,9/18/2014,S12K_ID,3.0,4-4-4,80/260/300,,DMW,,,NEW NEC,0.6 m,BSC58-26_DurgaSamudram_CT2239B,E1,1.0,,58.0,Tirupati,VII +,10/15/2016,80/260/300,RRH,3.0,35.0,Dual,MOBI (MD2F&3F-65-17&17DE10&8-2015),DMW,,,100 Mbps,NEW NEC,0.6 m,CT2239,FE,,Tiruapti,45Mbps,553,CT5065,CT5065,,,,,,,,,2015812372@G/FXW/HYD/3156696/2016@K-19012-G/FVC/HYD2891034/2015-CFA DTD 9-12-16,250718-YES-(RENI_PTN3/11+NIB+PE-GE1(2-2-19)),100 Mbps,504.0,310718-YES-(RENI_PTN3/11+NIB+PE-GE1(2-2-19)),STD,,
62,CT5066,553_36211_SKHT-RailwayStation_RTEL_CT5066,504_40981_SrikalahastiRS_RTEL_CT5066,2G+3G,NSN,13.74617,79.68356,E-City,Srikalahasti,Srikalahasti,RC,Room,5378.0,SRIKALAHASTI RAILWAY STATION SRI KALA HASTI VILL; DIST. CHITOOR.,Tirupati,SRI KALAHASTHI,517644.0,IP-RTEL,Railtel,Railtel_Srikalahasti,GBT,60.0,35.0,Dual,MOBI (MB2F&3F-65-17&17DE10&8-2015),NSN,VII,4/7/2015,S12K_ID,3.0,4-4-4,45/180/270,,DMW,,,NEW NEC,0.6 m,BSC67-15_SrikalhastiMW_CT2069A,E1,1.0,,67.0,Tirupati,VII,10/27/2016,45/180/270,RRH,3.0,35.0,Dual,MOBI (MD2F&3F-65-17&17DE10&8-2015),DMW,,,100 Mbps,NEW NEC,0.6 m,CT2069,FE,,Tiruapti,50Mbps,553,CT5066,CT5066,,,,,,,,,2015745927@G/FXW/HYD/2892025/2015]@dated8/10/2015,040818YES(FE+MADM(SKT)+DWDM(SKT)+DWDM(STR)+PE1(2-2-33),100 Mbps,504.0,040818YES(FE+MADM(SKT)+DWDM(SKT)+DWDM(STR)+PE1(2-2-33),SKT,,
63,CT5068,553_36553_Narayanagiri_Tirumala_CT5068,504_41171_Narayanagiri_Tirumala_CT5068,2G+3G,NSN,13.67914,79.33315,E-City,TIRUMALA,Tirupati (Urban),PP,Room,5383.0,"Narayanagiri Rd,Srihari Padalu,Tirumala,Tirupati, Andhra Pradesh 517504",Tirupati,CHANDRAGIRI,517504.0,IP-Railtel,Railtel,Railtel_Tirumala2,GBT,40.0,15.0,Dual,MOBI (MB2F&3F-65-17&17DE10&8-2015),NSN,VII,3/19/2015,MTC_ID,3.0,4-4-4,30/80/120,,DMW,,,NEW NEC,0.6 m,283_41_TPT_Tirumala_CT2017A,FE,,65 Mbps,504.0,Tirupati,VIII,9/10/2015,30/80/120,RRH,3.0,15.0,Dual,MOBI (MD2F&3F-65-17&17DE10&8-2015),DMW,,,100 Mbps,NEW NEC,0.6 m,CT2017,FE,,Tiruapti,100 Mbps,553,,,,,,,,,,,2015745922@G/FXW/HYD/2892024/2015@K-19012-G/FVC/HYD2891034/2015-CFA DTD 9-12-16,,100 Mbps,,,,,
64,CT5080,553_36563_Octopus_CT5080,504_41181_OCTOPUS_CT5080,2G+3G,NSN,13.67661,79.352,E-City,Tirumala,Tirupati (Urban),PP,Room,5383.0,"OCTOPUS CAMPUS, TIRUMALA",Tirupati,CHANDRAGIRI,517504.0,NBSNL,BSNL Infra,CT5080,RTP,9.0,21.0,Dual,MOBI (MB2F&3F-65-17&17DE10&8-2015),NSN,VII,7/30/2014,MTC_ID,3.0,4-4-4,40/200/290,,OFC,FE,65 Mbps,,,,,,,504.0,Tirupati,VIII,8/19/2014,40/200/290,RRH,3.0,21.0,Dual,MOBI (MD2F&3F-65-17&17DE10&8-2015),OFC,FE,,100 Mbps,,,,,,Tiruapti,,553,,,,,,,,,,,,,100 Mbps,,,,,
65,CT5082,553_36293_Rmallavaram_CT5082,504_41031_RMallavaram_CT5082,2G+3G,NSN,13.66836,79.56335,Rural,RMallavaram,Renigunta,NH,OD Plinth,5376.0,"Shree Institute of Technical Education,Krishnapuram(v), Renigunta",Tirupati,SRI KALAHASTHI,517619.0,NBSNL,BSNL Infra,CT5082,GBT,40.0,38.0,Mono,AGISSON,NSN,VII,6/12/2014,S12K_OD,3.0,4-4-4,40/150/240,1.0,OFC,E1,,,,,,,,67.0,Tirupati,VII +,3/9/2017,40/150/240,RRH,3.0,37.0,Mono,MOBI (MD2F&3F-65-17&17DE10&8-2015),OFC,FE,,70 Mbps,,,,,,Tiruapti,,553,CT5082,CT5082,,,,,,,,,,140818-YES-(GE+RENI_PTN3/11+NIB-4/5+PE-GE1(2-2-19)),70 Mbps,504.0,140818-YES-(GE+RENI_PTN3/11+NIB-4/5+PE-GE1(2-2-19)),STD,,
66,CT5088,553_36572_SANNIDHANAM_CT5088,504_41192_SANNIDHANAM_CT5088,2G+3G,NSN,13.67174,79.34921,E-City,TIRUMALA,Tirupati (Urban),PP,Shelter,5383.0,"sannidanam,sannidanam guest house , tirumala, tirupati-517504",Tirupati,CHANDRAGIRI,517504.0,NBSNL,BSNL Infra,CT5088,RTP,9.0,21.0,Dual,MOBI (MB2F&3F-65-17&17DE10&8-2015),NSN,VII+,2/9/2016,MTC_ID,3.0,4-4-4,0/100/200,,DMW,,,NEW NEC,0.6 m,283_46_OCTOPUS_CT5080A,FE,,65 Mbps,504.0,Tirupati,VIII,5/30/2016,0/100/200,RRH,3.0,21.0,Dual,MOBI (MD2F&3F-65-17&17DE10&8-2015),DMW,,,100 Mbps,NEW NEC,0.6 m,CT5080,FE,,Tiruapti,100 Mbps,553,,,,,,,,,,,2015122969@G/FVC/HYD/3381980/2016@K-19012/G/FVC/HYD/23642939/2014-CFA DT9-5-17,,100 Mbps,,,,,
67,CT5089,553_36531_Koustubham_CT5089,504_41202_Koustubham_CT5089,2G+3G,NSN,13.68016,79.35332,E-City,TIRUMALA,Tirupati (Urban),PP,Shelter,5383.0,"koustubam,Koustubam guest house , tirumala-517504",Tirupati,CHANDRAGIRI,517504.0,NBSNL,BSNL Infra,CT5089,RTP,9.0,24.0,Dual,MOBI (MB2F&3F-65-17&17DE10&8-2015),NSN,VII+,11/17/2015,MTC_ID,3.0,4-4-4,0/80/140,,DMW,,,NEW NEC,0.6 m,283_43_Sudharshan_Tirumala_CT2070A,FE,,65 Mbps,504.0,Tirupati,VIII,1/4/2016,0/80/140,RRH,3.0,24.0,Dual,MOBI (MD2F&3F-65-17&17DE10&8-2015),DMW,,,100 Mbps,NEW NEC,0.6 m,CT2070,FE,,Tiruapti,66Mbps,553,,,,,,,,,,,2015122942@G/FVC/HYD/3381979/2016@K-19012/G/FVC/HYD/23642939/2014-CFA DT9-5-17,,100 Mbps,,,,,
68,CT5090,553_36582_AKASA_GANGA_CT5090,504_41212_AKASAGANGA_CT5090,2G+3G,NSN,13.7041,79.34438,E-City,TIRUMALA,Tirupati (Urban),PP,Shelter,5383.0,"Akashaganga,Akashaganga near papavinasanam ,Tirumala517504",Tirupati,CHANDRAGIRI,517504.0,NBSNL,BSNL Infra,CT5090,GBT,40.0,38.0,Dual,MOBI (MB2F&3F-65-17&17DE10&8-2015),NSN,VII+,10/16/2016,MTC_ID,3.0,4-4-4,0/140/260,,DMW,,,NEW NEC,0.6 m,283_46_OCTOPUS_CT5080A,FE,,65 Mbps,504.0,Tirupati,VIII,10/16/2016,0/140/260,RRH,3.0,38.0,Dual,MOBI (MD2F&3F-65-17&17DE10&8-2015),DMW,,,100 Mbps,NEW NEC,0.6 m,CT5080,FE,,Tiruapti,60Mbps,553,,,,,,,,,,,2016662566@G/FVC/HYD/3611831/2017@K-19012/G/FVC/HYD/23642939/2014-CFA DT9-5-17,,100 Mbps,,,,,
69,CT5091,553_36593_MOKALLAMITTA_CT5091,504_41222_MOKALLAMITTA_CT5091,2G+3G,NSN,13.66742,79.35382,E-City,TIRUMALA,Tirupati (Urban),PP,Shelter,5383.0,"Mokalla mitta,Mokallamitta, Uproad , Tirumala-517504",Tirupati,CHANDRAGIRI,517504.0,NBSNL,BSNL Infra,CT5091,GBT,40.0,38.0,Dual,MOBI (MB2F&3F-65-17&17DE10&8-2015),NSN,VII+,10/5/2016,MTC_ID,3.0,4-4-4,20/120/250,,OFC,FE,65 Mbps,,,,,,,504.0,Tirupati,VIII,10/5/2016,20/120/250,RRH,3.0,38.0,Dual,MOBI (MD2F&3F-65-17&17DE10&8-2015),OFC,FE,,100 Mbps,,,,,,Tiruapti,,553,,,,,,,,,,,,,100 Mbps,,,,,
70,CT5093,553_36602_Narayana_giri_GH_CT5093,504_41231_Narayanagiri_GH_CT5093,2G+3G,NSN,13.67971,79.34032,E-City,TIRUMALA,Tirupati (Urban),PP,Shelter,5383.0,"SV_Guest_House,SV Guest House , Tirumala-517504",Tirupati,CHANDRAGIRI,517504.0,NBSNL,BSNL Infra,CT5093,RTP,9.0,27.0,Dual,MOBI (MB2F&3F-65-17&17DE10&8-2015),NSN,VII+,6/9/2016,MTC_ID,3.0,4-4-4,0/70/150,,DMW,,,NEW NEC,0.6 m,283_41_TPT_Tirumala_CT2017A,FE,,65 Mbps,504.0,Tirupati,VIII,6/9/2016,0/70/150,RRH,3.0,27.0,Dual,MOBI (MD2F&3F-65-17&17DE10&8-2015),DMW,,,100 Mbps,NEW NEC,0.6 m,CT2017,FE,,Tiruapti,100 Mbps,553,,,,,,,,,,,2016906259@G/FXW/HYD/3504451/2016@K-19012/G/FVC/HYD/23642939/2014-CFA DT9-5-17,,100 Mbps,,,,,
71,CT5096,553_36611_SPGH_CT5096,504_41251_SPGH_CT5096,2G+3G,NSN,13.67752,79.34565,E-City,TIRUMALA,Tirupati (Urban),PP,Shelter,5383.0,"Padmavati_Guest_House,Padmavati Guest House , Tirumala-517504",Tirupati,CHANDRAGIRI,517504.0,NBSNL,BSNL Infra,CT5096,RTP,9.0,15.0,Dual,MOBI (MB2F&3F-65-17&17DE10&8-2015),NSN,VII+,6/9/2016,MTC_ID,3.0,4-4-4,30/100/240,,DMW,,,NEW NEC,0.6 m,283_46_OCTOPUS_CT5080A,FE,,65 Mbps,504.0,Tirupati,VIII,6/9/2016,30/100/240,RRH,3.0,15.0,Dual,MOBI (MD2F&3F-65-17&17DE10&8-2015),DMW,,,100 Mbps,NEW NEC,0.6 m,CT5080,FE,,Tiruapti,100 Mbps,553,,,,,,,,,,,2016906204@G/FXW/HYD/3504452/2016@K-19012/G/FVC/HYD/23642939/2014-CFA DT9-5-17,,100 Mbps,,,,,
72,CT5103,553_36373_SKHT-CNIL_CT5103,504_41101_SKHTCNIL_CT5103,2G+3G,NSN,13.75181,79.70676,E-City,Srikalahasti,Srikalahasti,,Shelter,5378.0,DN.7-437; WAR NO.7 P.V ROAD; SRIKALAHASTI.;address;srikalahasti,Tirupati,SRI KALAHASTHI,517644.0,IP,GTL,APR/RTP/K/15266,RTP,9.0,18.0,Dual,MOBI (MB2F&3F-65-17&17DE10&8-2015),NSN,VII+,8/13/2017,BTS18K_ID,3.0,4-4-4,40/150/300,1.0,OFC,E1,,,,,,,,67.0,Tirupati,VII +,3/18/2017,40/150/300,RRH,3.0,18.0,Dual,MOBI (MD2F&3F-65-17&17DE10&8-2015),OFC,FE,,100 Mbps,,,,,,Tiruapti,,553,CT5103,CT5103,,,,,,,,,,270818YES(MADM(SKT)+DWDM(SKT)+DWDM(STR)+PE1(2-2-33),100 Mbps,504.0,270818YES(MADM(SKT)+DWDM(SKT)+DWDM(STR)+PE1(2-2-33),SKT,,
73,CT5515,553_36671_Pathikonda_ATC_CT5515,BSC70-51_Pathikonda_ATC_CT5515,2G+3G,NSN,13.18298,78.63658,Rural,Pathikonda,Palamaner,,OD Plinth,5422.0,"Pathikonda,palamner (M),Chittoor DT.",Chittoor,PALMANER,517432.0,IP-ATC,ATC,AP3092,GBT,40.0,37.0,Mono,HIGH WAY,Nortel,IV,5/3/2006,S8K_OD,3.0,4-4-4,174/251/336,,DMW,,,NEW NEC,0.6m,BSC70-69_Dandapalle_CT2235B,E1,1.0,,70.0,Tirupati,VIII.4,12/28/2019,,RRH,,,,,DMW,,,,,,,,,,,553,,,,,,,,CT2061,,,,,,0.0,,,,
74,CT5516,553_36461_553_TRP_Mangalam_CT5516,504_41111_TRP-Mangalam_IND_CT5516,2G+3G,NSN,13.6572,79.46129,DHQ,Tirupati,TIRUPATI,,OD PLINTH,,"MANGALAM,CUDDAPAH ROAD,TIRUPATI,CHITTOOR DIST-517507.",Tirupati,CHANDRAGIRI,517501.0,IP,INDUS,IN-1005950,RTT,24.0,24.0,Dual,MOBI,NSN,VIII,9/29/2018,,3.0,4-4-4,,,OFC,,,,,,,,,,,VIII,,,RRH,,,,,,,,60 Mbps,,,,,,,,553,,,CT5516,,,CT5516,,,,,,121018YES(FE+PTN_REN+PE)PE1(2-2-19),60 Mbps,504.0,290918-YES(FE+PTN_REN+PE)PE1(2-2-19),TRP,,
75,CT5551,553_53121_Thotaplle_IND_CT5551,505_53121_Thotaplle_IND_CT5551,2G+3G,NSN,13.43116,79.12963,Rural,Thotapalle,Pakala,NH,OD Plinth,5396.0,"D.No.3-60, Thotapalle (V), Pakala (M), Chittoor Dt",Chittoor,PAKALA,517112.0,IP-INDUS,INDUS,IN-1066809,GBT,40.0,30.0,Dual,MOBI (MB2F&3F-65-17&17DE10&8-2015),NSN,VII,12/10/2013,BTS18K_OD,3.0,4-4-4,50/240/340,,DMW,,,NEW NEC(HFCL),0.6 m,BSC60-37_Pakala-SDCA_CT2036A,E1,1.0,,60.0,Tirupati,VII+,,,RRH,3.0,,,,DMW,FE,,,,,,,,Tirupati,,553,CT5551,CT5551,,,,,CT5002,,,,2015812489@G/FXW/HYD/3156705/2016@K-19012-G/FVC/HYD2891034/2015-CFA DTD 9-12-16,,,505.0,230618-YES(FX+PKL(PTN)+CTR-DWDM+TRP(DWDM)+PE2(2-2-27),STD,,
76,CT5552,553_36281_Nagari_Indus_CT5552,504_41011_Nagari_INDUS_CT5552,2G+3G,NSN,13.32257,79.58581,E-City,NAGARI,Nagari,SH,OD Plinth,5406.0,"D.NO:-8-44, KASTHURIBHAI MAHAL KALYANA MANDAPAM, PRAKASHAM ROAD; NEAR CHVADI NAGARI (VI&TALUK) CHITTOOR(DT), AP, 517590",Tirupati,PUTTUR,517590.0,IP-INDUS,Indus Towers,IN-1005854,RTT,34.0,34.0,Dual,MOBI (MB2F&3F-65-17&17DE10&8-2015),NSN,VII,7/31/2020,S12K_ID,3.0,4-4-4,0/70/180,,DMW,,,NEW NEC,0.6 m,BSC67-91_Ekambarakupam_CT9002A,E1,1.0,,67.0,Tirupati,VII,7/31/2020,0/70/180,RRH,3.0,34.0,Dual,MOBI (MD2F&3F-65-17&17DE10&8-2015),DMW,,,70 Mbps,NEW NEC,0.6 m,CT9002,FE,,Tiruapti,25Mbps,553,CT5078,CT5078,,,,,,,,,2015813444@G/FXW/HYD/3156720/2016@CLEARED ONLINE,060718YES(fe+MADM1-3-3(EKM)+MADM(PTR)+DWDM(PTR)+DWDM(TRP_STR)+PE1(2-2-21),70 Mbps,504.0,280718YES(fe+MADM1-3-3(EKM)+MADM(PTR)+DWDM(PTR)+DWDM(TRP_STR)+PE1(2-2-21),EKM,,
77,CT5565,553_36691_IIT_Tirupati_CT5565,IIT_Tirupati_CT5565,3G,NSN,,,RURAL,YERPEDU,YERPEDU,,SHELTER,,,TIRUPATI,SRI KALAHASTHI,,NBSNL,BSNL INFRA,CT5565,RTT,,,,,,,,,,,,,,,,,,,,,,,,,1/8/2021,,,,,,,OFC,FX,,,,,,,,,,553,,,,,,,,,,,,,,0.0,,,,
78,CT9002,553_36331_Ekambarakuppam-TE_CT9002,504_41081_Ekambarakuppam-TE_CT9002,2G+3G,NSN,13.3181,79.57031,E-City,Ekambarakuppam,Nagari,RC,Exchange,5406.0,"Ekm exge,Ekm.,Chittoor DT.",Tirupati,PUTTUR,517592.0,BSNL,BSNL Infra,CT9002,GBT,40.0,35.0,Dual,MOBI (MB2F&3F-65-17&17DE10&8-2015),NSN,I,6/6/2004,S12K_ID,3.0,4-4-4,30/90/220,1.0,OFC,E1,,,,,,,,67.0,Tirupati,VII,2/24/2014,30/90/220,ID,3.0,35.0,Dual,MOBI (MD2F&3F-65-17&17DE10&8-2015),OFC,FE,,70 Mbps,,,,,,Tiruapti,,553,CT9002,CT9002,,,,,,,,,,070718YES(fe+FE-MADM1-3-4(EKM)+MADM(PTR)+DWDM(PTR)+DWDM(TRP_STR)+PE1(2-2-21),70 Mbps,504.0,210818YES(fe+FE-MADM1-3-4(EKM)+MADM(PTR)+DWDM(PTR)+DWDM(TRP_STR)+PE1(2-2-21),EKM,,
79,CT9005,553_36343_Dravidauniversity_CT9005,505_53421_DravidaUniversity_KUP_CT9005,2G+3G,NSN,12.80146,78.30411,Rural,KUPPAM,kuppam,,Room,5427.0,"Dravidian university,kuppam,Chittoor DT.",Chittoor,KUPPAM,517426.0,NBSNL,BSNL Infra,CT9005,RTP,9.0,15.0,Dual,XAHT,NSN,IV.5,2/16/2010,BTS6K_OD_AC,3.0,2-2-2,100/200/280,2.0,OFC,E1,,,,,,,,70.0,Tirupati,VII +,5/23/2017,100/200/280,RRH,3.0,15.0,Mono,MOBI (MB3F-65-18DE10+MBRET-RCU-003),OFC,FE,,45 Mbps,,,,,,Tiruapti,,553,CT9005,CT9005,,,,,CT9005,,,,,240818YES(FE+MADM(KPM)+MADM(STR)+PE2(2-2-37),45 Mbps,505.0,250818YES(FE+MADM(KPM)+MADM(STR)+PE2(2-2-37),KPM,,
