SR.NO,RPID,SITE_NAME,TECHNOLOGY,3G_TECH,SITE_NAME_3G,LATITUDE,LONGITUDE,DHQ,DHQ_NAME,Mandal,ROUT,SHELTER,Mandal_Code,Address,MP_CONS,SDCA,PIN_CODE,BSNL_IP,IP_NAME,IP_ID,Tower_Type,2G_Tower_HT,2G_ Ant_HT,2G_Ant,2G_Ant_Make,2G_BTS,2G_Phase,2G_Commission,2G_Type,2G_SEC,2G_Conf,2G_Azimuth,2G_E1_NO,2G_Media,2G_OFC_E1,2G_FE_BW,2G_DMW,2G_DMW_Ant_DIA,2G_Far_end_RPID,2G_DMW_E1_FE,2G_DMW_E1_NO,2G_DMW_FE_BW,BSC,2G_MSC,3G_PH,3G_Commission,3G_Azimuth,3G_ID,3G_SEC,3G_ANT_HT,3G_ANT_TYPE,Field52,3G_MEDIA,3G_OFC_FE,3G_E1_NO,3G_FE_BW,3G_DMW,3G_DMW_DIA,3G_FAR_RPID,3G_E1_FE,Field61,3G_MSC,Field62,RNC,NSN_2G,NSN_3G,NSN_NEW_3G,NSN_4G,HUW_REDP,NSN_NEW_2G,NOR_IV5,NOR_IV,3G_HUW_FROM,3G_HUW_FROM_TYPE,DMW_SACFA,WORK_C,BW,BSC_PORT,WORK_2G,TOWN,WORK_2G1,TOWN1
1,CT2005,BSC68-40_Damalacheruvu_CT2005A,2G+3G,HUW,102_0110_Damalacheruvu_CT2005B,13.4803,79.04797,Rural,Damalacheruvu,Pakala,RC,Room,5396.0,"Damalcheruvu (v),pakala(M),Chittoor DT.",Chittoor,PAKALA,517152.0,NBSNL,BSNL Infra,CT2005,GBT,80.0,33.0,Mono,HIGH WAY,Nortel,I,4/8/2005,S8K_ID,3.0,4-4-4,100/140/320,1.0,OFC,E1,,,,,,,,60.0,Tirupati,VII +,3/1/2017,100/140/320,ID,3.0,33.0,Dual,MOBI (MD2F&3F-65-17&17DE10&8-2015),OFC,FE,,100 Mbps,,,,,,Tiruapti,,102.0,,,,,,,,CT2005,,,,,100 Mbps,0.0,,,,
2,CT2011,BSC68-18_NH18_Mahal_CT2011B,2G,,,13.7738,78.79061,Rural,Mahal,Kalakada,NH,Exchange,5371.0,"Mahal exge,kalakada(M),Chittoor DT.",Rajampet,VAYALPADU,517235.0,BSNL,BSNL Infra,CT2011,GBT,80.0,40.0,Mono,HIGH WAY,Nortel,I,6/4/2004,S8K_ID,3.0,4-4-4,20/160/270,2.0,OFC,E1,,,,,,,,68.0,Tirupati,,,,,,,,,,,,,,,,,,,,,,,,,,,,CT2011,,,2017941434@@,,,0.0,,,,
3,CT2018,BSC70-23_Rayalpeta_CT2018B,2G+3G,HUW,102_0171_Rayalpeta_CT2018B,13.32749,78.72491,Rural,Rayalpeta,Peddapanjani,,Exchange,5416.0,"Rayalpeta(V),peddapanjani(M),Chittoor DT.",Rajampet,PUNGANUR,517419.0,BSNL,BSNL Infra,CT2018,GBT,30.0,30.0,Mono,KATHREIN,Nortel,IV,2/21/2006,S12K_OD,3.0,4-4-4,40/200/280,,DMW,,,HUAWEI,0.6m,BSC70-22_Pedapanjani_CT2152B,E1,1.0,,70.0,Tirupati,VII +,5/6/2017,40/200/280,id,3.0,29.0,Mono,MOBI (MB3F-65-18DE10+MBRET-RCU-003),OFC,FE,,20 Mbps,,,,,,Tiruapti,,102.0,,,,,,,,CT2018,,,2017265546@12/9/2017@,,20 Mbps,0.0,,,,
4,CT2026,BSC68-19_Gurramkonda_CT2026A,2G+3G,HUW,102_0153_Gurramkonda_CT2026A,13.78259,78.58524,Rural,Gurramkonda,Gurramkonda,SH,Exchange,5370.0,"Gurramkonda(V&M),Chittoor DT.",Rajampet,VAYALPADU,517297.0,BSNL,BSNL Infra,CT2026,GBT,40.0,40.0,Mono,KATHREIN,Nortel,IV,12/31/2005,S12K_ID,3.0,4-4-4,174/251/336,1.0,OFC,E1,,,,,,,,68.0,Tirupati,VII +,5/8/2017,174/251/336,ID,3.0,39.0,Mono,MOBI (MB3F-65-18DE10+MBRET-RCU-003),OFC,FE,,100 Mbps,,,,,,Tiruapti,,102.0,,,,,,,,CT2026,,,,,100 Mbps,0.0,,,,
5,CT2030,BSC70-21_Ramasamudram_CT2030A,2G+3G,HUW,102_0172_Ramasamudram_CT2030C,13.36484,78.42752,Rural,Ramasamudram,Ramasamudram,,Exchange,5414.0,"Ramsamdram(V&M),Chittoor DT.",Rajampet,PUNGANUR,517417.0,BSNL,BSNL Infra,CT2030,GBT,40.0,40.0,Mono,KATHREIN,Nortel,IV,1/28/2006,S12K_ID,3.0,4-4-4,88/167/280,1.0,OFC,E1,,,,,,,,70.0,Tirupati,VII +,5/6/2017,88/167/280,ID,3.0,39.0,Mono,MOBI (MB3F-65-18DE10+MBRET-RCU-003),OFC,FE,,45 Mbps,,,,,,Tiruapti,,102.0,,,,,,,,CT2030,,,,,45 Mbps,0.0,,,,
6,CT2038,BSC70-11_Aragonda_CT2038A,2G+3G,ZTE,346_4769_Aragonda_CT2038B,13.26844,78.97016,Rural,Aragonda,Thavanampalle,SH,Exchange,5418.0,"Amara Raja Electronics Company, Digavamaghm, Aragonda(V), Thavanampalli (M), Chittoor DT - 517129",Chittoor,BANGARUPALYAM,517129.0,BSNL,BSNL Infra,CT2038,GBT,40.0,40.0,Dual,MOBI (MB2F&3F-65-17&17DE10&8-2015),Nortel,IV,12/30/2005,S12K_ID,3.0,4-4-4,90/230/330,1.0,OFC,E1,,,,,,,,70.0,Tirupati,VII,7/1/2014,90/230/330,ID,3.0,40.0,Dual,MOBI (MD2F&3F-65-17&17DE10&8-2015),OFC,FE,,100 Mbps,,,,,,Tiruapti,,346.0,,,,,,,,CT2038,,,,,100 Mbps,0.0,,,,
7,CT2039,BSC68-12_BKotakotaSDCA_CT2039A,2G+3G,ZTE,346_4767_BKothakotaSDCA_CT2039A,13.65489,78.26188,Rural,B.Kothakota,B.Kothakota,SH,Exchange,5391.0,"BKothakotaSDCA(V&M),Chittoor DT.",Rajampet,B.KOTHAKOTA,517370.0,BSNL,BSNL Infra,CT2039,GBT,60.0,40.0,Dual,MOBI (MB2F&3F-65-17&17DE10&8-2015),Nortel,IV,5/9/2006,BTS18K_ID,3.0,4-4-4,14/102/227,1.0,OFC,E1,,,,,,,,68.0,Tirupati,VII,7/21/2014,14/102/227,ID,3.0,40.0,Dual,MOBI (MD2F&3F-65-17&17DE10&8-2015),OFC,FE,,100 Mbps,,,,,,Tiruapti,,346.0,,,,,,,,CT2039,,,,,100 Mbps,0.0,,,,
8,CT2043,BSC68-14_Burakayalakta_CT2043A,2G+3G,HUW,102_0165_Burrakayalakota_CT2043,13.72976,78.35275,Rural,Burakayalakota,B.Kothakota,SH,Exchange,5391.0,"Burrakayalakota,Bkotakota(M),Chittoor DT.",Rajampet,MADANAPALLI,517351.0,BSNL,BSNL Infra,CT2043,GBT,40.0,35.0,Dual,AGISSON,Nortel,IV,11/17/2005,S12K_ID,3.0,4-4-4,120/230/315,1.0,OFC,E1,,,,,,,,68.0,Tirupati,VIII,,,ID,,,,,OFC,FE,,100 Mbps,,,,,,Tiruapti,,102.0,,,,,CT2043,,,CT2043,BSC68-26_Valasapalle_CT2295B,ID,,,100 Mbps,0.0,,,,
9,CT2046,BSC70-13_GDNellore_CT2046A,2G+3G,ZTE,346_4737_GDNellore_CT2046A,13.23308,79.18182,E-City,GDNellore,Gangadhara Nellore,SH,Exchange,5420.0,"GDNellore(V&M),Chittoor DT.",Chittoor,CHITTOOR,517128.0,BSNL,BSNL Infra,CT2046,GBT,40.0,38.0,Dual,MOBI (MB2F&3F-65-17&17DE10&8-2015),Nortel,IV,4/21/2006,BTS18K_ID,3.0,4-4-4,37/120/255,2.0,OFC,E1,,,,,,,,60.0,Tirupati,VII,4/16/2014,37/120/255,ID,3.0,38.0,Dual,MOBI (MD2F&3F-65-17&17DE10&8-2015),OFC,FE,,45 Mbps,,,,,,Tiruapti,,346.0,,,,,,,,CT2046,,,,,45 Mbps,0.0,,,,
10,CT2048,BSC68-13_Horselyhills_CT2048B,2G+3G,HUW,102_0109_HorselyHills_CT2048B,13.64954,78.39674,Rural,Horsleyhills,B.Kothakota,TS,Room,5391.0,"horselyhills,B.kothakota(M),Chittoor DT.",Rajampet,MADANAPALLI,517352.0,BSNL,BSNL Infra,CT2048,GBT,40.0,36.0,Mono,HIGH WAY,Nortel,III,8/28/2004,S12K_ID,3.0,4-4-4,120/350/40,1.0,OFC,E1,,,,,,,,68.0,Tirupati,VII +,3/7/2017,120/350/40,ID,3.0,36.0,Dual,MOBI (MD2F&3F-65-17&17DE10&8-2015),OFC,FE,,100 Mbps,,,,,,Tiruapti,,102.0,,,,,,,,CT2048,,,,,100 Mbps,0.0,,,,
11,CT2052,BSC70-41_Karvetinagarm_CT2052A,2G+3G,HUW,102_0133_KARVETINAGAR_CT2052A,13.42286,79.44759,Rural,Karvetinagaram,Karvetinagar,NH,Shelter,5408.0,"kavetinagaram exge,&M,Chittoor DT.",Tirupati,PUTTUR,517582.0,BSNL,BSNL Infra,CT2052,GBT,60.0,52.0,Mono,KATHREIN,Nortel,IV,2/25/2006,S12K_ID,3.0,3-3-3,80/220/310,1.0,OFC,E1,,,,,,,,67.0,Tirupati,VII +,3/23/2017,80/220/310,ID,3.0,45.0,Dual,MOBI (MD2F&3F-65-17&17DE10&8-2015),OFC,FE,,45 Mbps,,,,,,Tiruapti,,102.0,,,,,,,,CT2052,,,,,45 Mbps,0.0,,,,
12,CT2056,BSC70-46_Mallunur_CT2056B,2G,,,12.66226,78.40768,Rural,Mallanur,kuppam,RC,Exchange,5427.0,"mallanur(V),kuppam(M),Chittoor DT.",Chittoor,KUPPAM,517425.0,BSNL,BSNL Infra,CT2056,GBT,40.0,40.0,Mono,HIGH WAY,Nortel,I,6/4/2004,S8K_ID,2.0,4-4-0,45/150,1.0,OFC,E1,,,,,,,,70.0,Tirupati,,,,,,,,,,,,,,,,,,,,,,,,,,,,,,,,,,,,STD,,
13,CT2057,BSC68-15_MulakalChervu_CT2057A,2G+3G,HUW,102_0119_Mulakalacheruvu_CT2057B,13.79387,78.27196,Rural,Mulakalacheruvu,Mulakalacheruvu,SH,Room,5367.0,"Mulakalacheruvu exge&(M),Chittoor DT.",Rajampet,MADANAPALLI,517350.0,BSNL,BSNL Infra,CT2057,GBT,40.0,40.0,Mono,KATHREIN,Nortel,III+,8/30/2004,S12K_ID,3.0,4-4-4,140/230/330,1.0,OFC,E1,,,,,,,,68.0,Tirupati,VII +,3/25/2017,140/230/330,ID,3.0,40.0,Mono,MOBI (MB3F-65-18DE10+MBRET-RCU-003),OFC,FE,,100 Mbps,,,,,,Tiruapti,,102.0,,,,,,,,CT2057,,,,,100 Mbps,0.0,,,,
14,CT2058,BSC70-15_NaraharipetTE_CT2058A,2G+3G,HUW,102_0157_NaraharipetTE_CT2058C,13.09352,79.13355,Rural,Naraharipeta,Gudipala,NH,Exchange,5431.0,"Naraharipeta xge,gudipala(M),Chittoor DT.",Chittoor,CHITTOOR,517132.0,BSNL,BSNL Infra,CT2058,GBT,60.0,37.0,Mono,HIGH WAY,Nortel,I,6/4/2004,S8K_ID,3.0,4-4-4,50/150/335,2.0,OFC,E1,,,,,,,,60.0,Tirupati,VII +,5/4/2017,50/150/335,ID,3.0,40.0,Mono,MOBI (MB3F-65-18DE10+MBRET-RCU-003),OFC,FE,,45 Mbps,,,,,,Tiruapti,,102.0,,,,,,,,CT2058,,,,,45 Mbps,0.0,,,,
15,CT2062,BSC70-12_Penumuru_CT2062A,2G+3G,ZTE,346_6369_Penumuru_CT2062,13.36838,79.19577,Rural,penumuru,Penumuru,SH,Exchange,5409.0,"Penumuru(V&M),Chittoor DT.",Chittoor,CHITTOOR,517126.0,BSNL,BSNL Infra,CT2062,GBT,40.0,38.0,Mono,KATHREIN,Nortel,IV,12/31/2005,S12K_ID,3.0,4-4-4,70/190/340,1.0,OFC,E1,,,,,,,,60.0,Tirupati,VII +,5/17/2017,70/190/340,RRH,3.0,36.0,Mono,MOBI (MB3F-65-18DE10+MBRET-RCU-003),OFC,Optical,,45 Mbps,,,,,,Tiruapti,,346.0,,,,,,,,CT2062,,,,,45 Mbps,0.0,,,,
16,CT2066,BSC70-40_RRPuram_CT2066A,2G+3G,NSN,553_36651_RRPuram_CT2066,13.30895,79.35448,Rural,RRPURAM,Srirangarajapuram,NH,Shelter,5419.0,"R R Puram ,Beside indian oil petrol bunk , pulluru cross road , sri rangarajapuram mandal , chittor district,AP--517167",Tirupati,PUTTUR,517167.0,BSNL,BSNL Infra,CT2066,GBT,40.0,38.0,Mono,KATHREIN,Nortel,IV,12/18/2015,S12K_ID,3.0,4-4-4,80/180/260,,OFC,,,,,BSC67-34_ChinaThayyur_CT2230B,E1,1.0,,67.0,Tirupati,VIII.4,12/30/2019,,RRH,,,,,OFC,FE,,30 Mbps,,,,,,,,553.0,,,,,CT2066,,,CT2066,BSC67-84_Vadamalpet_CT2078A,ID,2015133687@G/FXW/HYD/3382106/2016@K-19012/G/FVC/HYD/1982154/2013-CFA DT 19/12/16,,30 Mbps,0.0,,,,
17,CT2068,BSC70-37_Sodam-SDCA_CT2068A,2G+3G,HUW,102_0149_SADUM_CT2068A,13.54582,78.9014,Rural,Sodam,Sodam,SH,Exchange,5394.0,"Sodam-SDCA,Chittoor DT.",Tirupati,SODAM,517123.0,BSNL,BSNL Infra,CT2068,GBT,40.0,35.0,Mono,KATHREIN,Nortel,IV,9/28/2005,S8K_ID,3.0,4-4-4,0/93/230,1.0,OFC,E1,,,,,,,,70.0,Tirupati,VII +,4/26/2017,0/93/230,ID,3.0,34.0,Mono,MOBI (MB3F-65-18DE10+MBRET-RCU-003),OFC,FE,,50 Mbps,,,,,,Tiruapti,,102.0,,,,,,,,CT2068,,,,,50 Mbps,0.0,,,,
18,CT2071,BSC68-11_Thambalapalli_CT2071B,2G+3G,NSN,553_36641_Thambalapalli_CT2071,13.82278,78.44932,Rural,Thamballapalli,Thamballapalle,,Shelter,5368.0,"Thamballapalli(V&M),Chittoor DT.",Rajampet,MADANAPALLI,517418.0,NBSNL,BSNL Infra,CT2071,GBT,40.0,37.0,Dual,XAHT,Nortel,IV,5/6/2006,BTS18K_ID,3.0,4-4-4,0/100/240,1.0,OFC,E1,,,,,,,,68.0,Tirupati,VII +,3/25/2017,0/100/240,RRH,3.0,36.0,Mono,MOBI (MB3F-65-18DE10+MBRET-RCU-003),OFC,FE,,100 Mbps,,,,,,Tiruapti,,553.0,,,,,,,,CT2071,,,,,100 Mbps,0.0,,,,
19,CT2079,BSC70-56_VKota_CT2079A,2G+3G,ZTE,346_5422_Vkota_CT2079A,13.00264,78.48475,E-City,V.Kota,Venkatagirikota,NH,Exchange,5424.0,"Vkota(V&M),Chittoor DT.",Chittoor,V.KOTA,517424.0,BSNL,BSNL Infra,CT2079,GBT,40.0,40.0,Dual,MOBI (MB2F&3F-65-17&17DE10&8-2015),Nortel,III,6/12/2004,S12K_ID,3.0,4-4-4,30/140/220,2.0,OFC,E1,,,,,,,,70.0,Tirupati,VII,7/14/2014,30/140/220,ID,3.0,40.0,Dual,MOBI (MD2F&3F-65-17&17DE10&8-2015),OFC,FE,,50 Mbps,,,,,,Tiruapti,,346.0,,,,,,,,CT2079,,,,,50 Mbps,0.0,,,,
20,CT2080,BSC70-06_Yadamarri_CT2080A,2G+3G,HUW,102_0160_Yadamarri_CT2080B,13.16133,79.03875,Rural,Yadamarri,Yadamarri,SH,Exchange,5430.0,"Yadamarri(V&M),Chittoor DT.",Chittoor,CHITTOOR,517422.0,BSNL,BSNL Infra,CT2080,GBT,40.0,40.0,Mono,HIGH WAY,Nortel,IV,1/25/2006,S8K_ID,3.0,4-4-4,60/205/295,,DMW,,,HUAWEI,0.6m,BSC60-27_CTR_Santhpeta_CT2004B,E1,1.0,,60.0,Tirupati,VII +,5/6/2017,60/205/295,ID,3.0,39.0,Mono,MOBI (MB3F-65-18DE10+MBRET-RCU-003),OFC,FE,,40 Mbps,,,,,,Tiruapti,,102.0,,,,,,,,CT2080,,,,,40 Mbps,0.0,,,,
21,CT2082,BSC70-24_Chowdepalle_CT2082A,2G+3G,HUW,102_0150_CHOWDEPALLE_CT2082B,13.43348,78.68945,Rural,Chowdepalli,Chowdepalle,SH,Exchange,5413.0,"Chowdepalli(V&M),Chittoor DT.",Rajampet,PUNGANUR,517357.0,BSNL,BSNL Infra,CT2082,GBT,40.0,39.0,Dual,XAHT,Nortel,IV,5/22/2007,BTS18K_ID,3.0,4-4-4,10/100/210,2.0,OFC,E1,,,,,,,,70.0,Tirupati,VII +,4/26/2017,10/100/210,ID,3.0,37.0,Mono,MOBI (MB3F-65-18DE10+MBRET-RCU-003),OFC,FE,,100 Mbps,,,,,,Tiruapti,,102.0,,,,,,,,,,,,,100 Mbps,,,,,
22,CT2090,BSC70-07_Ramapuram_CT2090A,2G+3G,HUW,102_0158_Ramapuram_CT2090B,13.09917,79.18397,Rural,197Ramapuram,Gudipala,,Exchange,5431.0,"197 Ramapuram,Chittoor DT.",Chittoor,CHITTOOR,517403.0,BSNL,BSNL Infra,CT2090,GBT,40.0,38.0,Dual,XAHT,Nortel,IV.5,9/18/2008,BTS18K_ID,3.0,4-4-4,50/190/300,1.0,OFC,E1,,,,,,,,60.0,Tirupati,VII +,5/4/2017,50/190/300,ID,3.0,37.0,Mono,MOBI (MB3F-65-18DE10+MBRET-RCU-003),OFC,FE,,45 Mbps,,,,,,Tiruapti,,102.0,,,,,,,,,,,,,45 Mbps,,,,,
23,CT2091,BSC70-31_AllamaduguUSO_CT2091C,2G,,,13.35479,79.30045,Rural,Allamadugu,Vedurukuppam,,OD Plinth,5397.0,"Allamadugu(V),Vedurukuppam(M),Chittoor DT.",Tirupati,PUTTUR,517569.0,NBSNL,BSNL Infra,CT2091,GBT,40.0,34.0,Dual,XAHT,Nortel,USO,1/31/2009,BTS18K_OD,3.0,2-2-2,70/190/245,1.0,OFC,E1,,,,,,,,67.0,Tirupati,,,,,,,,,,,,,,,,,,,,,,,,,,,,,,,,,,,,,,
24,CT2093,BSC68-90_AVaripalliUSO_CT2093C,2G,,,13.67622,78.67212,Rural,Ayyavaripalli,Kalikiri,,OD Plinth,5387.0,"Ayyavaripalli(V),Vayalpadu(M),Chittoor DT.",Rajampet,VAYALPADU,517299.0,NBSNL,BSNL Infra,CT2093,GBT,40.0,37.0,Dual,XAHT,Nortel,USO,12/15/2008,BTS18K_OD,3.0,3-3-3,60/175/320,,DMW,,,OLD NEC,0.6 m,BSC68-17_Vayalapadu_CT2034A,E1,1.0,,68.0,Tirupati,,,,,,,,,,,,,,,,,,,,,,,,,,,,,,,2015814002@G/FXW/HYD/3156771/2016@K-19012-G/FVC/HYD2891034/2015-CFA DTD 9-12-16,,,,,,,
25,CT2094,BSC68-88_Bandrevu-USO_CT2094C,2G,,,13.92646,78.43291,Rural,Bandrevu,Peddamandyam,,OD Plinth,5369.0,"Bandravu(V),Peddamandyam(M),Chittoor DT.",Rajampet,MADANAPALLI,517297.0,NBSNL,BSNL Infra,CT2094,GBT,40.0,34.0,Dual,XAHT,Nortel,USO,11/30/2008,BTS18K_OD,3.0,3-3-3,10/95/225,1.0,OFC,E1,,,,,,,,68.0,Tirupati,,,,,,,,,,,,,,,,,,,,,,,,,,,,,,,,,,,,,,
26,CT2095,BSC70-72_BurgamandaUSO_CT2095B,2G,,,13.51889,78.93891,Rural,Buragamanda,Bangarupalem,,OD Plinth,5429.0,"Buragamanda(V),Sodam(M),Chittoor DT.",Rajampet,PILER,517123.0,NBSNL,BSNL Infra,CT2095,GBT,40.0,34.0,Dual,XAHT,Nortel,USO,11/25/2008,BTS18K_OD,3.0,3-3-3,120/280/320,,DMW,,,OLD NEC,0.6 m,BSC70-37_Sodam-SDCA_CT2068A,E1,1.0,,70.0,Tirupati,,,,,,,,,,,,,,,,,,,,,,,,,,,,,,,2015814097@G/FXW/HYD/3156779/2016@K-19012/G/FXW/HYD/2670760/2016-CFA 9-12-16,,,,,,,
27,CT2096,BSC70-57_Byreddypalli_CT2096A,2G+3G,HUW,102_0173_Byreddypalli_CT2096B,13.09255,78.6142,Rural,Byreddipalle,Baireddipalle,NH,Exchange,5423.0,"Byreddypalli(V&M),Chittoor DT.",Chittoor,PALMANER,517415.0,BSNL,BSNL Infra,CT2096,GBT,40.0,34.0,Mono,HIGH WAY,Nortel,IV,2/12/2007,S8K_ID,3.0,4-4-4,75/250/350,1.0,OFC,E1,,,,,,,,70.0,Tirupati,VII +,5/25/2017,75/250/350,ID,3.0,32.0,Mono,MOBI (MB3F-65-18DE10+MBRET-RCU-003),OFC,FE,,100 Mbps,,,,,,Tiruapti,,102.0,,,,,,,,CT2096,,,,,100 Mbps,0.0,,,,
28,CT2097,BSC70-78_Chembakur-USO_CT2097C,2G,,,13.43421,78.40715,Rural,Chembakur,Ramasamudram,,OD Plinth,5414.0,"Chembakur(V),Ramasamudram(M),Chittoor DT.",Rajampet,PUNGANUR,517417.0,NBSNL,BSNL Infra,CT2097,GBT,40.0,34.0,Dual,XAHT,Nortel,USO,10/30/2008,BTS18K_OD,3.0,3-3-3,60/160/300,1.0,OFC,E1,,,,,,,,70.0,Tirupati,,,,,,,,,,,,,,,,,,,,,,,,,,,,,,,,,,,,,,
29,CT2099,BSC68-21_ChittaturuUSO_CT2099C,2G,,,13.69383,79.74156,Rural,Chittaturu,Thottambedu,SH,OD Plinth,5379.0,"Chittaturu(V), Thottambedu(M), Chittoor Dt,AP-517643",Tirupati,SRI KALAHASTHI,517643.0,NBSNL,BSNL Infra,CT2099,GBT,40.0,34.0,Dual,XAHT,Nortel,USO,10/20/2008,BTS18K_OD,3.0,3-3-3,65/110/180,,DMW,,,OLD NEC,0.6 m,BSC67-08_Alathur_CT2219B,E1,1.0,,67.0,Tirupati,,,,,,,,,,,,,,,,,,,,,,,,,,,,,,,2015813430@G/FXW/HYD/3156715/2016@K-19012/G/FXW/HYD/3156337/201-CFA 26/2/16,,,,,,,
30,CT2100,BSC70-35_CKalepalliUSO_CT2100C,2G,,,13.49823,79.35859,Rural,C.Kalepalle,Ramachandrapuram,,OD Plinth,5398.0,"C-kalepalli,Ramachandrapuram(M),Chittoor DT.",Tirupati,PUTTUR,517561.0,NBSNL,BSNL Infra,CT2100,GBT,40.0,34.0,Dual,XAHT,Nortel,USO,10/31/2008,BTS18K_ID,3.0,4-4-4,0/80/265,1.0,OFC,E1,,,,,,,,67.0,Tirupati,,,,,,,,,,,,,,,,,,,,,,,,,,,,,,,,,,0.0,,,,
31,CT2110,BSC68-73_G_ChinthaUSO_CT2110C,2G,,,13.75895,79.06288,Rural,Ganugachintha,Rompicherla,,OD Plinth,5373.0,"Ganugachinta(V),Rompicherla(M),Chittoor DT.",Rajampet,PILER,517214.0,NBSNL,BSNL Infra,CT2110,GBT,40.0,34.0,Dual,XAHT,Nortel,USO,10/17/2008,BTS18K_OD,3.0,3-3-3,60/270/320,1.0,OFC,E1,,,,,,,,68.0,Tirupati,,,,,,,,,,,,,,,,,,,,,,,,,,,,,,,,,,,,,,
32,CT2112,BSC68-38_Gyarampalle_CT2112B,2G,,,13.73659,78.84389,Rural,Gyarampalle,Kambhamvaripalle,NH,Room,5372.0,"Gyarampalle,Kvpalli (M),Chittoor DT.",Rajampet,PILER,517223.0,NBSNL,BSNL Infra,CT2112,GBT,40.0,38.0,Dual,XAHT,Nortel,IV.5,5/2/2009,S8K_ID,3.0,4-4-4,150/250/300,,DMW,,,Radwin(radia modem),0.6 m,BSC68-18_NH18_Mahal_CT2011B,E1,1.0,,68.0,Tirupati,,,,,,,,,,,,,,,,,,,,,,,,,,,,CT2112,,,,,,0.0,,,,
33,CT2114,BSC70-14_Irala_CT2114B,2G,,,13.38541,78.98479,Rural,Irala,Irala,,Exchange,5411.0,"Irala(V&M),Chittoor DT.",Chittoor,BANGARUPALYAM,517130.0,BSNL,BSNL Infra,CT2114,GBT,40.0,39.0,Dual,XAHT,Nortel,IV.5,8/31/2008,S8K_ID,3.0,4-4-4,30/120/235,1.0,OFC,E1,,,,,,,,70.0,Tirupati,,,,,,,,,,,,,,,,,,,,,,,,,,,,CT2114,,,,,,0.0,,,,
34,CT2115,BSC68-17_KVBPuram_CT2115B,2G+3G,HUW,102_01993_KVB_Puram_CT2115,13.53097,79.7388,Rural,KVBPuram,K.V.B.Puram,SH,Exchange,5382.0,"KVBPuram(V&M),Chittoor DT.",Tirupati,SRI KALAHASTHI,517643.0,BSNL,BSNL Infra,CT2115,GBT,40.0,38.0,Dual,Agisson,Nortel,IV.5,9/12/2008,BTS18K_ID,3.0,4-4-4,10/190/280,1.0,OFC,E1,,,,,,,,67.0,Tirupati,VIII.4,12/31/2019,,RRH,,,,,OFC,FE,,,,,,,,,,102.0,,,,,,,,,,,,,,0.0,,,,
35,CT2116,BSC70-39_Kacharavedu_CT2116B,2G,,,13.3614,79.69931,Rural,Kacharavedu,Nindra,,Room,5404.0,"Kacharavedu(V&M),Chittoor DT.",Tirupati,PUTTUR,517541.0,BSNL,BSNL Infra,CT2116,GBT,40.0,40.0,Mono,HIGH WAY,Nortel,IV.5,10/17/2008,BTS18K_ID,3.0,4-4-4,40/150/250,1.0,OFC,E1,,,,,,,,67.0,Tirupati,,,,,,,,,,,,,,,,,,,,,,,,,,,,CT2116,,,,,,0.0,,,,
36,CT2117,BSC68-54_Kalakada_CT2117B,2G+3G,HUW,102_0155_Kalakada_CT2117B,13.82792,78.79076,Rural,Kalakada,Kalakada,NH,Exchange,5371.0,"Kalakada(V&M),Chittoor DT.",Rajampet,VAYALPADU,517236.0,BSNL,BSNL Infra,CT2117,GBT,40.0,39.0,Dual,XAHT,Nortel,IV.5,9/8/2008,BTS18K_ID,3.0,4-4-4,0/170/230,1.0,OFC,E1,,,,,,,,68.0,Tirupati,VII +,5/12/2017,0/170/230,ID,3.0,37.0,Mono,MOBI (MB3F-65-18DE10+MBRET-RCU-003),OFC,FE,,45 Mbps,,,,,,Tiruapti,,102.0,,,,,,,,,,,,,45 Mbps,,,,,
37,CT2118,BSC68-76_KalvapalleUSO_CT2118B,2G,,,13.91622,78.3328,Rural,Kalavapalli,Mulakalacheruvu,,OD Plinth,5367.0,"Kaluvapalli,mulakalacheruvu(M),Chittoor DT.",Rajampet,B.KOTHAKOTA,517350.0,NBSNL,BSNL Infra,CT2118,GBT,40.0,34.0,Dual,XAHT,Nortel,USO,11/30/2008,BTS18K_OD,3.0,3-3-3,10/180/280,1.0,OFC,E1,,,,,,,,68.0,Tirupati,,,,,,,,,,,,,,,,,,,,,,,,,,,,,,,,,,,,,,
38,CT2119,BSC68-63_Kalicherla_CT2119B,2G,,,13.88728,78.54118,Rural,Kalicherla,Peddamandyam,,Exchange,5369.0,"Kalicherla(V),peddamandyam(M),Chittoor DT.",Rajampet,MADANAPALLI,517297.0,BSNL,BSNL Infra,CT2119,GBT,40.0,40.0,Dual,XAHT,Nortel,IV.5,9/23/2008,BTS18K_ID,3.0,4-4-4,0/115/180,1.0,OFC,E1,,,,,,,,68.0,Tirupati,,,,,,,,,,,,,,,,,,,,,,,,,,,,,,,,,,,,,,
39,CT2121,BSC68-50_Kalluru_CT2121A,2G+3G,HUW,102_0127_Kalluru_CT2121B,13.55863,78.99621,Rural,Kalluru,Pulicherla,NH,Exchange,5395.0,"Kalluru (V),Chittoor dt.",Chittoor,PAKALA,517113.0,NBSNL,BSNL Infra,CT2121,GBT,40.0,37.0,Dual,XAHT,Nortel,IV.5,2/17/2009,BTS18K_OD,3.0,4-4-4,40/140/260,1.0,OFC,E1,,,,,,,,60.0,Tirupati,VII +,3/9/2017,40/140/260,OD,3.0,36.0,Dual,MOBI (MD2F&3F-65-17&17DE10&8-2015),OFC,FE,,100 Mbps,,,,,,Tiruapti,,102.0,,,,,,,,,,,,,100 Mbps,,,,,
40,CT2122,BSC68-59_KBvaripalli_CT2122B,2G,,,13.80798,78.90204,Rural,Kambhamvaripalli,Kambhamvaripalle,,Exchange,5372.0,"Khambhamvaripalli(V&M),Chittoor DT.",Rajampet,VAYALPADU,517223.0,BSNL,BSNL Infra,CT2122,GBT,40.0,39.0,Dual,XAHT,Nortel,IV.5,9/4/2008,S8K_ID,3.0,4-4-4,0/120/240,1.0,OFC,E1,,,,,,,,68.0,Tirupati,,,,,,,,,,,,,,,,,,,,,,,,,,,,CT2122,,,,,,0.0,,,,
41,CT2124,BSC68-80_Kandukuru-USO_CT2124C,2G,,,13.76626,78.15693,Rural,Kandukur,Pedda Thippasamudram,,OD Plinth,5390.0,"Kandukuru(V),Ptsamudram(M),Chittoor DT.",Rajampet,B.KOTHAKOTA,517351.0,NBSNL,BSNL Infra,CT2124,GBT,40.0,34.0,Dual,XAHT,Nortel,USO,11/30/2008,BTS18K_OD,3.0,3-3-3,0/105/245,1.0,OFC,E1,,,,,,,,68.0,Tirupati,,,,,,,,,,,,,,,,,,,,,,,,,,,,,,,,,,,,,,
42,CT2125,BSC70-59_Kanduru-USO_CT2125A,2G+3G,HUW,102_0156_Kanduru_CT2125A,13.56297,78.77432,Rural,Kandur,Somala,,OD Plinth,5412.0,"Kanduru(V),Somla(M),Chittoor DT.",Rajampet,PILER,517224.0,NBSNL,BSNL Infra,CT2125,GBT,40.0,34.0,Dual,XAHT,Nortel,USO,11/25/2008,BTS18K_OD,3.0,3-3-3,50/120/210,1.0,OFC,E1,,,,,,,,70.0,Tirupati,VII +,5/1/2017,50/120/210,RRH,3.0,34.0,Mono,MOBI (MB3F-65-18DE10+MBRET-RCU-003),OFC,FE,,30 Mbps,,,,,,Tiruapti,,102.0,,,,,,,,,,,,,30 Mbps,,,,,
43,CT2126,BSC68-67_KannavaramUSO_CT2126C,2G,,,13.43667,79.87777,Rural,Kannavaram,Satyavedu,,OD Plinth,5402.0,"Kannavaram(V),satyvedu(M),Chittoor DT.",Tirupati,SATYAVEDU,517582.0,NBSNL,BSNL Infra,CT2126,GBT,40.0,34.0,Dual,XAHT,Nortel,USO,1/31/2009,BTS18K_OD,3.0,4-4-4,110/205/305,1.0,OFC,E1,,,,,,,,67.0,Tirupati,,,,,,,,,,,,,,,,,,,,,,,,,,,,,,,,,,,,,,
44,CT2127,BSC68-51_K_GaripaliUSO_CT2127B,2G+3G,HUW,102_0112_Kavetigaripalli_CT2127B,13.53136,79.0834,Rural,Kavetigaripalle,Pulicherla,,OD Plinth,5395.0,"USO Tower, KavetiGaripalli_USO, Pulicherla(M), Chittor dist, AP-517152.",Chittoor,PAKALA,517172.0,NBSNL,BSNL Infra,CT2127,GBT,40.0,34.0,Dual,XAHT,Nortel,USO,8/31/2008,BTS18K_OD,3.0,3-3-3,90/200/330,1.0,OFC,E1,,,,,,,,60.0,Tirupati,VII +,3/1/2017,90/200/330,OD,3.0,34.0,Dual,MOBI (MD2F&3F-65-17&17DE10&8-2015),OFC,FE,,60 Mbps,,,,,,Tiruapti,,102.0,,,,,,,,,,,,,60 Mbps,,,,,
45,CT2128,BSC70-44_Kelapatla-USO_CT2128B,2G,,,13.24046,78.76747,Rural,Keelapatla,Palamaner,,OD Plinth,5422.0,"Keelapatla-USO,palamner(M),Chittoor DT.",Chittoor,PALMANER,517408.0,NBSNL,BSNL Infra,CT2128,GBT,40.0,34.0,Dual,XAHT,Nortel,USO,11/25/2008,BTS18K_OD,3.0,3-3-3,90/180/270,,DMW,,,OLD NEC,0.6 m,BSC70-49_Palamaneeru_CT2060A,E1,1.0,,70.0,Tirupati,,,,,,,,,,,,,,,,,,,,,,,,,,,,,,,2015814055@G/FXW/HYD/3156775/2016@K-19012/G/FXW/HYD/2670760/2016-CFA 9-12-16,,,,,,,
46,CT2129,BSC68-93_K-Nagaram_USO_CT2129C,2G,,,13.24078,79.72547,Rural,Kosalanagaram,Vijayapuram,,OD Plinth,5405.0,"k-nagaram(V),Vijayapuram(M),Chittoor DT.",Tirupati,SATYAVEDU,517589.0,NBSNL,BSNL Infra,CT2129,GBT,40.0,34.0,Dual,XAHT,Nortel,USO,12/23/2008,BTS18K_OD,3.0,4-4-4,120/220/10,1.0,OFC,E1,,,,,,,,67.0,Tirupati,,,,,,,,,,,,,,,,,,,,,,,,,,,,,,,,,,,,,,
47,CT2130,BSC68-89_KSV-palli_USO_CT2130C,2G,,,13.74936,78.43694,Rural,Kosuvaripalli,Thamballapalle,,OD Plinth,5368.0,"Kosuvaripalli,Thamballapalli(M),Chittoor DT.",Rajampet,MADANAPALLI,517418.0,NBSNL,BSNL Infra,CT2130,GBT,40.0,34.0,Dual,XAHT,Nortel,USO,12/8/2008,BTS18K_OD,3.0,3-3-3,5/105/260,1.0,OFC,E1,,,,,,,,68.0,Tirupati,,,,,,,,,,,,,,,,,,,,,,,,,,,,,,,,,,,,,,
48,CT2132,BSC68-62_Kurabalakota_CT2132B,2G+3G,HUW,102_0122_Kurabalakota_CT2132B,13.64649,78.48294,Rural,Kurabalakota,Kurabalakota,SH,Exchange,5389.0,"No 7-3, jangalavari palli , kurabalakota ,Kurabalakota(V&M),Chittoor DT.-517350",Rajampet,MADANAPALLI,517351.0,BSNL,BSNL Infra,CT2132,GBT,40.0,39.0,Dual,XAHT,Nortel,IV.5,9/18/2008,BTS18K_ID,3.0,4-4-4,10/150/270,1.0,OFC,E1,,,,,,,,68.0,Tirupati,VII +,3/7/2017,10/150/270,ID,3.0,38.0,Dual,MOBI (MD2F&3F-65-17&17DE10&8-2015),OFC,FE,,100 Mbps,,,,,,Tiruapti,,102.0,,,,,,,,,,,,,100 Mbps,,,,,
49,CT2133,BSC68-91_MV-Palli-USO_CT2133C,2G,,,13.88554,78.9019,Rural,Mvpalli,Kambhamvaripalle,,OD Plinth,5372.0,"MV-Palli_USO,Kvpalli (M).,Chittoor DT.",Rajampet,PILER,517223.0,NBSNL,BSNL Infra,CT2133,GBT,40.0,34.0,Dual,XAHT,Nortel,USO,11/29/2008,BTS18K_OD,3.0,3-3-3,0/195/285,,DMW,,,OLD NEC,0.6 m,BSC16:48_Gundlapaly_USO_CD2096,E1,1.0,,68.0,Tirupati,,,,,,,,,,,,,,,,,,,,,,,,,,,,,,,2015814027@G/FXW/HYD/3156772/2016@K-19012/G/FXW/HYD/2670760/2016-CFA 9-12-16,,,,,,,
50,CT2138,BSC68-36_MNayanpaliUSO_CT2138C,2G,,,13.50658,79.12968,Rural,Maddinayanipalle,Pakala,,OD Plinth,5396.0,"Maddinayanipalli,pakal(M),Chittoor DT.",Chittoor,PAKALA,517112.0,NBSNL,BSNL Infra,CT2138,GBT,40.0,34.0,Dual,XAHT,Nortel,USO,12/23/2008,BTS18K_OD,3.0,4-4-4,100/190/280,1.0,OFC,E1,,,,,,,,60.0,Tirupati,,,,,,,,,,,,,,,,,,,,,,,,,,,,,,,,,,,,,,
51,CT2139,BSC70-01_MReddypaleUSO_CT2139B,2G+3G,HUW,102_0167_CT_Madireddypalle_USO_CT2139,13.15161,78.99599,Rural,Madireddipalle,Yadamarri,,OD Plinth,5430.0,"USO TOWER, MADIREDDIPALLE, CHITTOOR DIST,AP-517422",Chittoor,CHITTOOR,517422.0,NBSNL,BSNL Infra,CT2139,GBT,40.0,34.0,Dual,XAHT,Nortel,USO,10/20/2008,BTS18K_OD,3.0,2-2-2,25/105/182,,DMW,,,NEW NEC(HFCL),0.6 m,BSC60-06_Yadamarri_CT2080A,E1,1.0,,60.0,Tirupati,VIII,,,RRH,,,,,DMW,E1,,30 Mbps,,,,,,,,102.0,,,,,CT2139,,,,BSC60-14_Kukalple_VIOM_CT5022A,RRH,2015812396@G/FXW/HYD/3156698/2016@K-19012-G/FVC/HYD2891034/2015-CFA DTD 9-12-16,,30 Mbps,,,,,
52,CT2140,BSC68-84_Tarigonda_USO_CT2140B,2G,,,13.69549,78.62768,Rural,Tarigonda,Gurramkonda,,OD Plinth,5370.0,"Tarigonda_USO,Gurramkonda (M),Chittoor DT.",Rajampet,VAYALPADU,517291.0,NBSNL,BSNL Infra,CT2140,GBT,40.0,34.0,Dual,XAHT,Nortel,USO,1/30/2009,BTS18K_OD,3.0,3-3-3,70/210/330,1.0,OFC,E1,,,,,,,,68.0,Tirupati,,,,,,,,,,,,,,,,,,,,,,,,,,,,,,,,,,,,,,
53,CT2142,BSC70-77_Moogavadi-USO_CT2142C,2G,,,13.35185,78.49877,Rural,Moogavadi,Punganur,,OD Plinth,5415.0,"Moogavadi-USO,Pnganu(M),Chittoor DT.",Rajampet,PUNGANUR,517247.0,NBSNL,BSNL Infra,CT2142,GBT,40.0,34.0,Dual,XAHT,Nortel,USO,11/25/2008,BTS18K_OD,3.0,3-3-3,120/230/340,,DMW,,,OLD NEC,0.6 m,BSC70-21_Ramasamudram_CT2030A,E1,1.0,,70.0,Tirupati,,,,,,,,,,,,,,,,,,,,,,,,,,,,,,,2015814108@G/FXW/HYD/3156780/2016@CLEARED ONLINE,,,,,,,
54,CT2143,BSC70-08_Muthukuru_USO_CT2143C,2G,,,13.2869,78.62298,Rural,Muthukuru,Peddapanjani,,OD Plinth,5416.0,"Muthukur(V),Chittoordt,paddapanjani (M),Chittoor DT.",Rajampet,PUNGANUR,517408.0,NBSNL,BSNL Infra,CT2143,GBT,40.0,34.0,Dual,XAHT,Nortel,USO,12/4/2008,BTS18K_OD,3.0,3-3-3,0/120/240,1.0,OFC,E1,,,,,,,,70.0,Tirupati,,,,,,,,,,,,,,,,,,,,,,,,,,,,,,,,,,,,,,
55,CT2144,BSC68-75_N_KandrigaUSO_CT2144C,2G,,,13.8368,78.66754,Rural,Nadimikandriga,Peddamandyam,,OD Plinth,5369.0,"Nadimikandriga-USO,Peddamandam (M),Chittoor DT.",Rajampet,VAYALPADU,517305.0,NBSNL,BSNL Infra,CT2144,GBT,40.0,34.0,Dual,XAHT,Nortel,USO,12/10/2008,BTS18K_OD,3.0,3-3-3,95/180/260,1.0,OFC,E1,,,,,,,,68.0,Tirupati,,,,,,,,,,,,,,,,,,,,,,,,,,,,,,,,,,,,,,
56,CT2145,BSC70-05_Nampalle-USO_CT2145B,2G+3G,HUW,102_0168_CT_Nampalle-USO_CT2145,13.41246,79.00166,Rural,Nampalle,Irala,,OD Plinth,5411.0,"Nampalle_USO,IRALA(M),Chittoor DT.",Chittoor,BANGARUPALYAM,517130.0,NBSNL,BSNL Infra,CT2145,GBT,40.0,34.0,Dual,XAHT,Nortel,USO,10/20/2008,BTS18K_OD,3.0,3-3-3,30/120/220,1.0,OFC,E1,,,,,,,,70.0,Tirupati,VIII,,,RRH,,,,,,,,45 Mbps,,,,,,,,102.0,,,,,CT2145,,,,BSC60-41_ThenepaliVIOM_CT5019B,RRH,,,45 Mbps,0.0,,,,
57,CT2146,BSC68-05_Nerabailu_CT2146B,2G+3G,HUW,102_01341_Nerabailu_CT2146,13.74879,79.16446,Rural,Nerabailu,Chinnagottigallu,,Room,5385.0,"Nerabailu,Bakarapet(M),Chittoor DT.",Rajampet,PILER,517194.0,BSNL,BSNL Infra,CT2146,GBT,40.0,40.0,Dual,Agisson,Nortel,IV,8/18/2006,BTS18K_ID,3.0,4-4-4,0/170/250,1.0,OFC,E1,,,,,,,,68.0,Tirupati,VIII.4,3/7/2020,,ID,,,,,,,,,,,,,,,,,,,,,,,,CT2146,,,,,,0.0,,,,
58,CT2147,BSC68-64_Nimmanapalli_CT2147B,2G,,,13.57203,78.66961,Rural,Nimmanapalli,Nimmanapalle,,OD Plinth,5393.0,"Nimmanapalli(V&M),Chittoor DT.",Rajampet,MADANAPALLI,517280.0,NBSNL,BSNL Infra,CT2147,GBT,40.0,40.0,Dual,XAHT,Nortel,IV.5,9/25/2008,BTS18K_OD,3.0,4-4-4,0/120/240,1.0,OFC,E1,,,,,,,,68.0,Tirupati,,,,,,,,,,,,,,,,,,,,,,,,,,,,,,,,,,,,,,
59,CT2148,BSC70-38_Pachikapallam_CT2148C,2G,,,13.44705,79.36805,Rural,pachikapalem,Vedurukuppam,SH,OD Plinth,5397.0,"Pachikapallam,Vedurukuppam (M).,Chittoor DT.",Tirupati,PUTTUR,517569.0,NBSNL,BSNL Infra,CT2148,GBT,40.0,38.0,Dual,Agisson,Nortel,IV.5,2/28/2009,BTS18K_OD,3.0,4-4-4,90/180/270,1.0,OFC,E1,,,,,,,,67.0,Tirupati,,,,,,,,,,,,,,,,,,,,,,,,,,,,,,,,,,0.0,,,,
60,CT2150,BSC70-50_PG_palli-USO_CT2150B,2G+3G,HUW,102_0169_CT_PG_Palli_USO_CT2150,12.94962,78.4939,Rural,pamuganipalle,Venkatagirikota,,OD Plinth,5424.0,"Pamuganipalli(V),v.kota(M).,Chittoor DT.",Chittoor,V.KOTA,517424.0,NBSNL,BSNL Infra,CT2150,GBT,40.0,34.0,Dual,XAHT,Nortel,USO,11/30/2008,BTS18K_OD,3.0,3-3-3,0/90/240,,DMW,,,NEW NEC(HFCL),0.6 m,BSC70-56_VKota_CT2079A,E1,1.0,,70.0,Tirupati,VIII,,,RRH,,,,,DMW,E1,,6 Mbps,,,,,,,,102.0,,,,,CT2150,,,,BSC70-40_DravidaUniv_CT9005B,RRH,2015814064@G/FXW/HYD/3156776/2016@CLEARED ONLINE,,6 Mbps,,,,,
61,CT2152,BSC70-22_Pedapanjani_CT2152B,2G+3G,HUW,102_0164_Peddapanjani_CT2152B,13.29227,78.6816,Rural,Peddapanjani,Peddapanjani,NH,Shelter,5416.0,"peddapanjani(V&M),Chittoor DT.",Rajampet,PUNGANUR,517408.0,NBSNL,BSNL Infra,CT2152,GBT,40.0,38.0,Mono,HIGH WAY,Nortel,IV,12/2/2006,S8K_ID,3.0,4-4-4,110/200/280,,DMW,,,HUAWEI,0.6m,BSC70-81_Battamdoddi_CT5045B,E1,1.0,,70.0,Tirupati,VII +,5/6/2017,110/200/280,ID,3.0,37.0,Mono,MOBI (MB3F-65-18DE10+MBRET-RCU-003),OFC,FE,,20 Mbps,,,,,,Tiruapti,,102.0,,,,,,,,,,,2017265547@12/9/2017@,,20 Mbps,,,STD,,
62,CT2153,BSC70-18_PUparpalliUSO_CT2153B,2G+3G,HUW,102_0170_CT_Peddaupparapalli_USO_CT2153,13.38617,78.81911,Rural,Peddaupparapalli,Somala,,OD Plinth,5412.0,"Peddaupparapalli,Somala(M),Chittoor DT.",Rajampet,PILER,517257.0,NBSNL,BSNL Infra,CT2153,GBT,40.0,34.0,Dual,XAHT,Nortel,USO,11/30/2008,BTS18K_OD,3.0,3-3-3,0/180/270,1.0,OFC,E1,,,,,,,,70.0,Tirupati,VIII,,,RRH,,,,,OFC,E1,,30 Mbps,,,,,,,,102.0,,,,,CT2153,,,,BSC70-96_NgpalliATC_CT5032A,RRH,,,30 Mbps,,,,,
63,CT2154,BSC68-92_PenumallamUSO_CT2154C,2G,,,13.59037,79.56401,Rural,Penumallam,Yerpedu,,OD Plinth,5377.0,"Penumallam(V),yerpedu(M),Chittoor DT.",Tirupati,SRI KALAHASTHI,517619.0,NBSNL,BSNL Infra,CT2154,GBT,40.0,34.0,Dual,XAHT,Nortel,USO,12/30/2008,BTS18K_OD,3.0,3-3-3,50/210/340,,DMW,,,OLD NEC,0.6 m,BSC58-19_TRP_Renigunta_CT2023A,E1,1.0,,67.0,Tirupati,,,,,,,,,,,,,,,,,,,,,,,,,,,,,,,2015813447@G/FXW/HYD/3156722/2016@K-19012-G/FVC/HYD2891034/2015-CFA DTD 9-12-16,,,,,,,
64,CT2156,BSC68-65_PTsamudram_CT2156B,2G+3G,HUW,102_0182_PTsamudram_CT2156,13.71318,78.2058,Rural,PTSamudram,Pedda Thippasamudram,,Exchange,5390.0,"Ptsamudram(V&M),Chittoor DT.",Rajampet,MADANAPALLI,517391.0,BSNL,BSNL Infra,CT2156,GBT,40.0,40.0,Dual,XAHT,Nortel,IV.5,9/23/2008,BTS18K_ID,3.0,4-4-4,0/95/240,1.0,OFC,E1,,,,,,,,68.0,Tirupati,VIII,,,ID,,,,,OFC,FE,,100 Mbps,,,,,,,,102.0,,,,,CT2156,,,,BSC68-47_Barlapalli_CT5041A,ID,,,100 Mbps,,,,,
65,CT2157,BSC68-52_Pulicherla_CT2157B,2G+3G,HUW,102_0118_Pulicherla_CT2157C,13.60013,79.0398,Rural,Pulicherla,Pulicherla,RC,Exchange,5395.0,"Pulicherla(V&M),Chittoor DT.",Chittoor,PAKALA,517172.0,BSNL,BSNL Infra,CT2157,GBT,40.0,38.0,Dual,XAHT,Nortel,IV.5,8/21/2008,BTS18K_ID,3.0,4-4-4,0/120/240,1.0,OFC,E1,,,,,,,,60.0,Tirupati,VII +,3/3/2017,0/120/240,ID,3.0,38.0,Dual,MOBI (MD2F&3F-65-17&17DE10&8-2015),OFC,FE,,35 Mbps,,,,,,Tiruapti,,102.0,,,,,,,,CT2157,,,,,35 Mbps,0.0,,,,
66,CT2159,BSC70-03_PutramaddiUSO_CT2159B,2G,,,13.32362,78.98909,Rural,Putramaddi,Irala,,OD Plinth,5411.0,"Cherlopalle, Putramaddi(V), Irala(M), Chittoor Dist,AP-517129",Chittoor,BANGARUPALYAM,517130.0,NBSNL,BSNL Infra,CT2159,GBT,40.0,34.0,Dual,XAHT,Nortel,USO,10/31/2008,BTS18K_OD,3.0,3-3-3,45/150/273,1.0,OFC,E1,,,,,,,,70.0,Tirupati,,,,,,,,,,,,,,,,,,,,,,,,,,,,,,,,,,,,,,
67,CT2160,BSC70-53_Ramakuppam_CT2160B,2G,,,12.89922,78.48548,Rural,Ramakuppam,Ramakuppam,SH,Shelter,5428.0,"Ramakuppam(V&M),Chittoor DT.",Chittoor,V.KOTA,517401.0,BSNL,BSNL Infra,CT2160,GBT,40.0,38.0,Mono,HIGH WAY,Nortel,IV.5,9/23/2008,BTS18K_ID,3.0,4-4-4,0/90/195,2.0,OFC,E1,,,,,,,,70.0,Tirupati,,,,,,,,,,,,,,,,,,,,,,,,,,,,,,,,,,,,,,
68,CT2161,BSC68-74_Regallu-USO_CT2161C,2G,,,13.60394,78.88696,Rural,Regallu,Pileru,,OD Plinth,5386.0,"Regallu, Piler(M), Chittoor Dt,Andhrapradesh,pin-517234.",Rajampet,SODAM,517214.0,NBSNL,BSNL Infra,CT2161,GBT,40.0,34.0,Dual,XAHT,Nortel,USO,10/5/2008,BTS18K_OD,3.0,4-4-4,80/195/280,,DMW,,,OLD NEC,0.6 m,BSC70-37_Sodam-SDCA_CT2068A,E1,1.0,,68.0,Tirupati,,,,,,,,,,,,,,,,,,,,,,,,,,,,,,,2015813979@G/FXW/HYD/3156768/2016@K-19012-G/FVC/HYD2891034/2015-CFA DTD 9-12-16,,,,,,,
69,CT2163,BSC68-34_S_Vellore-USO_CT2163B,2G,,,13.68082,79.93552,Rural,Santhavellore,Varadaiahpalem,SH,OD Plinth,5381.0,"Santha Vellore_USO, Chittoor Dist,Andhrapradesh-517640",Tirupati,SATYAVEDU,517640.0,NBSNL,BSNL Infra,CT2163,GBT,40.0,34.0,Dual,XAHT,Nortel,USO,8/31/2008,BTS18K_ID,3.0,2-2-2,80/160/280,1.0,OFC,E1,,,,,,,,67.0,Tirupati,,,,,,,,,,,,,,,,,,,,,,,,,,,,,,,,,,,,,,
70,CT2164,BSC70-55_SanthiPuram_CT2164B,2G+3G,HUW,102_0177_Santhipuram_CT2164B,12.86738,78.40133,Rural,Santhipuram,Santhipuram,NH,OD Plinth,5425.0,"SanthiPuram(V&M),Chittoor DT.",Chittoor,KUPPAM,517423.0,NBSNL,BSNL Infra,CT2164,GBT,60.0,50.0,Mono,HIGH WAY,Nortel,IV.5,1/30/2009,BTS18K_OD,3.0,3-3-3,40/215/310,1.0,OFC,E1,,,,,,,,70.0,Tirupati,VII +,5/24/2017,40/215/310,RRH,3.0,50.0,Mono,MOBI (MB3F-65-18DE10+MBRET-RCU-003),OFC,FE,,45 Mbps,,,,,,Tiruapti,,102.0,,,,,,,,,,,,,45 Mbps,,,,,
71,CT2165,BSC70-16_Somala_CT2165B,2G+3G,HUW,102_0151_SOMALA_CT2165B,13.47745,78.81007,Rural,Somala,Somala,SH,Exchange,5412.0,"Somala(V&M),Chittoor DT.",Rajampet,PILER,517457.0,BSNL,BSNL Infra,CT2165,GBT,40.0,39.0,Dual,XAHT,Nortel,IV.5,8/21/2008,BTS18K_ID,3.0,4-4-4,90/210/300,1.0,OFC,E1,,,,,,,,70.0,Tirupati,VII +,4/26/2017,90/210/300,ID,3.0,36.0,Mono,MOBI (MB3F-65-18DE10+MBRET-RCU-003),OFC,FE,,30 Mbps,,,,,,Tiruapti,,102.0,,,,,,,,CT2165,,,,,30 Mbps,0.0,,,,
72,CT2166,BSC68-57_SKayalapetUSO_CT2166C,2G,,,13.73218,78.89272,Rural,Sorakayalapeta,Kambhamvaripalle,,OD Plinth,5372.0,"Sorakayalapeta-USO,Kvpalli(M),,Chittoor DT.",Rajampet,PILER,517223.0,NBSNL,BSNL Infra,CT2166,GBT,40.0,34.0,Dual,XAHT,Nortel,USO,9/4/2008,BTS18K_OD,3.0,3-3-3,70/150/240,1.0,OFC,E1,,,,,,,,68.0,Tirupati,,,,,,,,,,,,,,,,,,,,,,,,,,,,,,,,,,,,,,
73,CT2169,BSC68-71_Thavalam-USO_CT2169C,2G,,,13.53537,78.6637,Rural,Thavalam,Nimmanapalle,,OD Plinth,5393.0,"TAVALAM VILLAGE,NIMMANAPALLI MANDAL,CHITTOOR(District)....",Rajampet,MADANAPALLI,517280.0,NBSNL,BSNL Infra,CT2169,GBT,40.0,34.0,Dual,XAHT,Nortel,USO,11/30/2008,BTS18K_OD,3.0,3-3-3,0/120/240,,DMW,,,OLD NEC,0.6 m,BSC68-64_Nimmanapalli_CT2147B,E1,1.0,,68.0,Tirupati,,,,,,,,,,,,,,,,,,,,,,,,,,,,,,,2015813976@G/FXW/HYD/3156767/2016@K-19012-G/FVC/HYD2891034/2015-CFA DTD 9-12-16,,,,,,,
74,CT2170,BSC70-58_TheerthamUSO_CT2170B,2G,,,13.10078,78.56798,Rural,Theertham,Baireddipalle,,OD Plinth,5423.0,"Theertham(V),Baireddypalli(M)),Chittoor DT.",Chittoor,PALMANER,517415.0,NBSNL,BSNL Infra,CT2170,GBT,40.0,34.0,Dual,XAHT,Nortel,USO,10/30/2008,BTS18K_OD,3.0,3-3-3,40/120/270,,DMW,,,ZTE-VIOM,0.6 m,BSC70-57_Byreddypalli_CT2096A,E1,1.0,,70.0,Tirupati,,,,,,,,,,,,,,,,,,,,,,,,,,,,,,,2015814075@G/FXW/HYD/3156777/2016@CLEARED ONLINE,,,,,,,
75,CT2171,BSC68-87_Thettu-USO_CT2171C,2G,,,13.62775,78.43463,Rural,Thettu,Kurabalakota,,OD Plinth,5389.0,"Tettu,Kurabalakota(M),Chittoor DT, AP - 517352",Rajampet,MADANAPALLI,517352.0,NBSNL,BSNL Infra,CT2171,GBT,40.0,34.0,Dual,XAHT,Nortel,USO,11/29/2008,BTS18K_OD,3.0,3-3-3,0/120/240,,DMW,,,OLD NEC,0.6 m,BSC68-62_Kurabalakota_CT2132B,E1,1.0,,68.0,Tirupati,,,,,,,,,,,,,,,,,,,,,,,,,,,,,,,2015813991@G/FXW/HYD/3156770/2016@CLEARED ONLINE,,,,,,,
76,CT2174,BSC70-30_ThungundrmUSO_CT2174B,2G+3G,HUW,102_0183_CT_ThungundrmUSO_CT2174,13.18878,79.26383,Rural,Thungundram,Gangadhara Nellore,,OD Plinth,5420.0,"Thungundram,GDNellore(M),Chittoor DT.",Chittoor,CHITTOOR,517421.0,NBSNL,BSNL Infra,CT2174,GBT,40.0,34.0,Dual,XAHT,Nortel,USO,11/25/2008,BTS18K_OD,3.0,3-3-3,85/180/270,1.0,OFC,E1,,,,,,,,60.0,Tirupati,VIII,,,RRH,,,,,OFC,,,30 Mbps,,,,,,,,102.0,,,,,CT2174,,,,BSC60-78_CTR_Estate_CT5098,RRH,,,30 Mbps,,,,,
77,CT2182,BSC70-26_Varathuru-USO_CT2182A,2G+3G,HUW,102_0184_Varathuru_USO_CT2182,13.23054,79.26392,Rural,Varathur,Gangadhara Nellore,,OD Plinth,5420.0,VARATHURUSURVEY NO: 552/1B EAST SIDE OF PACHIGUNTA ROAD AND WEST SIDE OF CHAKALAVARI G PIN-517421,Chittoor,CHITTOOR,517128.0,NBSNL,BSNL Infra,CT2182,GBT,40.0,34.0,Dual,XAHT,Nortel,USO,10/17/2008,BTS18K_OD,3.0,3-3-3,60/140/320,,DMW,,,ZTE-VIOM,0.6 m,BSC60-04_VezzupalleUSO_CT2187B,E1,1.0,,60.0,Tirupati,VIII,,,RRH,3.0,,,,DMW,,,30 Mbps,,,,,,,,102.0,,,,,CT2182,,,,BSC60-34_Anupalli_CT2092A,RRH,2015812407@G/FXW/HYD/3156699/2016@K-19012/G/FXW/HYD/2670760/2016-CFA 9-12-16,,30 Mbps,,,,,
78,CT2183,BSC70-20_Vedurukuppam_CT2183B,2G+3G,HUW,102_0175_Vedurukuppam_CT2183B,13.44093,79.31511,Rural,Vedurukuppam,Vedurukuppam,SH,Shelter,5397.0,"Vedurukuppam(V&M),Chittoor DT.",Tirupati,PUTTUR,517569.0,NBSNL,BSNL Infra,CT2183,GBT,40.0,38.0,Dual,XAHT,Nortel,IV.5,9/30/2008,BTS18K_ID,3.0,4-4-4,130/250/350,1.0,OFC,E1,,,,,,,,67.0,Tirupati,VII +,5/16/2017,130/250/350,RRH,3.0,38.0,Mono,MOBI (MB3F-65-18DE10+MBRET-RCU-003),OFC,FE,,45 Mbps,,,,,,Tiruapti,,102.0,,,,,,,,,,,,,45 Mbps,,,,,
79,CT2185,BSC68-70_Veligallu-USO_CT2185C,2G,,,13.82359,78.53911,Rural,Veligallu,Peddamandyam,,OD Plinth,5369.0,"Veligallu(V),Peddamandyam(M),Chittoor DT.",Rajampet,MADANAPALLI,517297.0,NBSNL,BSNL Infra,CT2185,GBT,40.0,34.0,Dual,XAHT,Nortel,USO,11/8/2008,BTS18K_OD,3.0,3-3-3,80/240/340,,DMW,,,OLD NEC,0.6 m,BSC68-63_Kalicherla_CT2119B,E1,1.0,,68.0,Tirupati,,,,,,,,,,,,,,,,,,,,,,,,,,,,,,,2015813966@G/FXW/HYD/3156766/2016@CLEARED ONLINE,,,,,,,
80,CT2187,BSC70-28_VezzupalleUSO_CT2187B,2G+3G,HUW,102_0141_VezzupalleUSO_CT2187B,13.29353,79.20853,Rural,Vezzupalle,Gangadhara Nellore,,OD Plinth,5420.0,"SY.NO:391/1 2 3 & 4 NEAR LAND LORD HOUSE,Vezzupalle,Chittor Dist,Andhra Pradesh-517167",Chittoor,CHITTOOR,517125.0,NBSNL,BSNL Infra,CT2187,GBT,40.0,34.0,Dual,XAHT,Nortel,USO,9/30/2008,BTS18K_OD,3.0,3-3-3,110/200/270,,DMW,,,NEW NEC(HFCL),0.6 m,BSC60-13_GDNellore_CT2046A,E1,1.0,,60.0,Tirupati,VII +,4/8/2017,110/200/270,RRH,3.0,34.0,Dual,MOBI (MD2F&3F-65-17&17DE10&8-2015),DMW,,,30 Mbps,NEW NEC,0.6 m,CT2046,FE,,Tiruapti,20Mbps,102.0,,,,,,,,,,,2016827307@G/FXW/HYD/3504388/2016@K-19012/G/FVC/HYD/1982154/2013-CFA DT 19/12/16,,30 Mbps,,,,,
81,CT2188,BSC70-43_VRKuppam_CT2188B,2G,,,13.21134,79.38624,Rural,VRKuppam,Palasamudram,,Shelter,5432.0,"VRKuppam(V)pala samudram (M),Chittoor DT.",Tirupati,PUTTUR,517419.0,NBSNL,BSNL Infra,CT2188,GBT,40.0,38.0,Dual,XAHT,Nortel,IV.5,10/17/2008,BTS18K_ID,3.0,4-4-4,120/180/240,1.0,OFC,E1,,,,,,,,67.0,Tirupati,,,,,,,,,,,,,,,,,,,,,,,,,,,,,,,,,,0.0,,,,
82,CT2218,BSC70-83_Adivibaduguru_CT2218A,2G+3G,HUW,102_0178_Adivibaduguru_CT2218B,12.65496,78.43869,Rural,Adavibuduguru,kuppam,,Room,5427.0,"Adivibaduguru,kuppam(M),Chittoor DT.",Tirupati,KUPPAM,517425.0,BSNL,BSNL Infra,CT2218,GBT,40.0,35.0,Dual,Agisson,Nortel,V.1,12/31/2010,S12K_ID,3.0,4-4-4,20/100/290,1.0,OFC,E1,,,,,,,,70.0,Tirupati,VII +,5/23/2017,20/100/290,ID,3.0,35.0,Dual,Agisson,OFC,FE,,45 Mbps,,,,,,Tiruapti,,102.0,,,,,,,,,,,,,45 Mbps,,,STD,,
83,CT2219,BSC68-08_Alathur_CT2219B,2G,,,13.7438,79.82375,Rural,Annur,Buchinaidu Kandriga,,Exchange,5380.0,"Alathur tele.exge,BuchnaiduKandriga,CTR,Chittoor DT.",Tirupati,SRI KALAHASTHI,517640.0,BSNL,BSNL Infra,CT2219,GBT,40.0,37.0,Dual,AGISSON,Nortel,V.1,3/27/2010,S8K_ID,3.0,4-4-4,60/240/330,1.0,OFC,E1,,,,,,,,67.0,Tirupati,,,,,,,,,,,,,,,,,,,,,,,,,,,,CT2219,,,,,,0.0,,,,
84,CT2221,BSC70-04_Annur_CT2221B,2G,,,13.36622,79.41321,Rural,Annur,Karvetinagar,NH,OD Plinth,5408.0,"Annur,karvetinagar mandal,Chittoor DT.",Tirupati,PUTTUR,517582.0,NBSNL,BSNL Infra,CT2221,GBT,40.0,37.0,Dual,AGISSON,Nortel,V.1,7/7/2010,BTS18K_OD,3.0,4-4-4,340/200/270,1.0,OFC,E1,,,,,,,,67.0,Tirupati,,,,,,,,,,,,,,,,,,,,,,,,,,,,,,,,,,,,,,
85,CT2222,BSC68-42_BKpalli_CT2222B,2G,,,13.62144,78.27599,Rural,Badikayalapalli,B.Kothakota,,Room,5391.0,"BSNL Tower, Badikayalapalli Village, Bkothakota(M) Chittoor district,AP-517370.",Chittoor,B.KOTHAKOTA,517370.0,NBSNL,BSNL Infra,CT2222,GBT,40.0,35.0,Dual,Agisson,Nortel,V.1,2/3/2011,BTS18K_ID,3.0,4-4-4,70/190/270,1.0,OFC,E1,,,,,,,,68.0,Tirupati,,,,,,,,,,,,,,,,,,,,,,,,,,,,CT2222,,,,,,0.0,,,,
86,CT2223,BSC68-77_Beerakuppam_CT2223B,2G+3G,HUW,102_0142_Beerakuppam_CT2223A,13.4554,79.8454,Rural,Beerakuppam,Nagalapuram,,Exchange,5403.0,"Beerakuppam(V),nagalapuram(M),Chittoor DT.",Tirupati,SATYAVEDU,517589.0,BSNL,BSNL Infra,CT2223,GBT,40.0,39.0,Dual,Agisson,Nortel,V.1,3/31/2010,S8K_ID,3.0,4-4-4,0/120/240,1.0,OFC,E1,,,,,,,,67.0,Tirupati,VII +,4/24/2017,0/120/240,ID,3.0,39.0,Mono,MOBI (MB3F-65-18DE10+MBRET-RCU-003),OFC,FE,,60 Mbps,,,,,,Tiruapti,,102.0,,,,,,,,CT2223,,,,,60 Mbps,0.0,,,,
87,CT2224,BSC70-81_Thelaralpalli_CT2224B,2G,,,13.08118,78.96036,Rural,Thellarallaplli,Yadamarri,,OD Plinth,5430.0,"155,kammapalli (V),Thellarallapalli,Chittoor DT.",Chittoor,CHITTOOR,517422.0,NBSNL,BSNL Infra,CT2224,GBT,40.0,34.0,Dual,Agisson,Nortel,V.1,12/31/2010,BTS18K_OD,3.0,4-4-4,70/170/250,,DMW,,,Huawei,0.6 m,BSC60-66_BGPalliNGpurm_CT2225B,E1,1.0,,60.0,Tirupati,,,,,,,,,,,,,,,,,,,,,,,,,,,,,,,G/FVC/HYD/1598272/2011,,,,,,,
88,CT2225,BSC70-70_BGPalliNGpurm_CT2225B,2G,,,13.09419,78.97261,Rural,Bgpalli_Ngpuram,Yadamarri,,Room,5430.0,"BGPalli_Ngpurm,yadamarri (M),Chittoor DT.",Chittoor,CHITTOOR,517422.0,NBSNL,BSNL Infra,CT2225,GBT,40.0,37.0,Dual,Agisson,Nortel,V.1,7/30/2010,BTS6K_OD_AC,3.0,4-4-4,30/110/220,,DMW,,,Huawei,1.2 m,BSC60-06_Yadamarri_CT2080A,E1,1.0,,60.0,Tirupati,,,,,,,,,,,,,,,,,,,,,,,,,,,,,,,G/FVC/HYD/1407881/2010,,,,,,,
89,CT2226,BSC68-30_BVpalle_CT2226B,2G,,,13.77364,79.10384,Rural,Bodevandlapalli,Yerravaripalem,,Room,5374.0,"Bodevandlapalle,Yvpalem(M),,Chittoor DT.",Rajampet,PILER,517194.0,NBSNL,BSNL Infra,CT2226,GBT,40.0,32.0,Dual,AGISSON,Nortel,V.1,8/28/2010,S12K_ID,3.0,4-4-4,0/140/210,1.0,OFC,E1,,,,,,,,68.0,Tirupati,,,,,,,,,,,,,,,,,,,,,,,,,,,,CT2226,,,,,,0.0,,,,
90,CT2227,BSC70-32_Diguvapalle_CT2227C,2G,,,13.45399,78.63295,Rural,Diguvapalle,Chowdepalle,,OD Plinth,5413.0,"Diguvapalle,chowdepalli(M),Chittoor DT.",Rajampet,PUNGANUR,517357.0,NBSNL,BSNL Infra,CT2227,GBT,40.0,36.0,Dual,Agisson,Nortel,V.1,9/6/2010,BTS18K_OD,3.0,4-4-4,0/180/270,1.0,OFC,E1,,,,,,,,70.0,Tirupati,,,,,,,,,,,,,,,,,,,,,,,,,,,,,,,,,,,,,,
91,CT2228,BSC68-55_Cherlopalle_CT2228C,2G,,,13.83449,78.64784,Rural,Cherlopalli,Gurramkonda,,Exchange,5370.0,"Cherlopalli(V),Gurramkonda,Chittoor DT.",Tirupati,VAYALPADU,517305.0,BSNL,BSNL Infra,CT2228,GBT,40.0,35.0,Dual,Agisson,Nortel,V.1,6/24/2010,S12K_ID,3.0,4-4-4,0/120/240,1.0,OFC,E1,,,,,,,,68.0,Tirupati,,,,,,,,,,,,,,,,,,,,,,,,,,,,CT2228,,,,,,0.0,,,,
92,CT2230,BSC70-33_ChinaThayyur_CT2230B,2G,,,13.29953,79.28087,Rural,Chinnathayyur,Srirangarajapuram,NH,OD Plinth,5419.0,"Chinnathayyur, Srpuram mandal,Chittoor DT.",Tirupati,PUTTUR,517167.0,NBSNL,BSNL Infra,CT2230,GBT,40.0,37.0,Dual,Agisson,Nortel,V.1,9/30/2010,BTS18K_OD,3.0,4-4-4,70/170/260,,Dmw,,,NEW NEC,0.6 m,BSC60-04_VezzupalleUSO_CT2187B,E1,1.0,,67.0,Tirupati,,,,,,,,,,,,,,,,,,,,,,,,,,,,,,,G/FVC/HYD/1671370/2011,,,0.0,,,,
93,CT2232,BSC68-16_ChintalaPalem_CT2232B,2G+3G,HUW,102_01351_Chintalapalem_CT2232,13.80278,79.5834,Rural,Chinthalapalem,Yerpedu,SH,Exchange,5377.0,"ChintalaPalem,Yerpedu (M),Chittoor DT.",Tirupati,SRI KALAHASTHI,517619.0,BSNL,BSNL Infra,CT2232,GBT,40.0,37.0,Dual,XAHT,Nortel,V.1,3/31/2010,S8K_ID,3.0,4-4-4,30/120/290,1.0,OFC,E1,,,,,,,,67.0,Tirupati,VIII.4,3/2/2020,,ID,3.0,,,,,,,,,,,,,,,,,,,,,,,CT2232,,,,,,0.0,,,,
94,CT2233,BSC68-31_Chitticherla_CT2233B,2G,,,13.68521,79.14988,Rural,Chittecherla,Chinnagottigallu,,Room,5385.0,"Thavvavandlapalli,tettupalli post,chittecherla,Chittoor DT.",Rajampet,PILER,517194.0,NBSNL,BSNL Infra,CT2233,GBT,40.0,37.0,Dual,AGISSON,Nortel,V.1,8/31/2010,S12K_ID,3.0,2-2-2,50/180/320,1.0,OFC,E1,,,,,,,,68.0,Tirupati,,,,,,,,,,,,,,,,,,,,,,,,,,,,CT2233,,,,,,0.0,,,,
95,CT2234,BSC68-24_CR-Kandriga_CT2234B,2G+3G,HUW,102_0185_CT_CR_Kandriga_CT2234,13.36194,79.7669,Rural,CRKandriga,Pichatur,,Exchange,5401.0,"CR-Kandriga,Pitchatur (M),Chittoor DT.",Tirupati,SATYAVEDU,517167.0,BSNL,BSNL Infra,CT2234,GBT,40.0,37.0,Dual,Agisson,Nortel,V.1,4/22/2010,BTS18K_ID,3.0,4-4-4,0/120/240,1.0,OFC,E1,,,,,,,,67.0,Tirupati,VIII,,,ID,,,,,OFC,E1,,6 Mbps,,,,E1,,,,102.0,,,,,CT2234,,,,BSC67-53_Pitchatur_CT2064A,ID,,,6 Mbps,0.0,,,,
96,CT2235,BSC70-69_Dandapalle_CT2235B,2G,,,13.23183,78.69231,Rural,Dandapalle,Gangavaram,,OD Plinth,5417.0,"Dandepalli, Gangavaram Mandal, Chittoor Dist,AP-517408",Chittoor,PALMANER,517408.0,NBSNL,BSNL Infra,CT2235,GBT,40.0,37.0,Dual,AGISSON,Nortel,V.1,9/20/2010,BTS18K_OD,3.0,4-4-4,0/120/240,1.0,OFC,E1,,,,,,,,70.0,Tirupati,,,,,,,,,,,,,,,,,,,,,,,,,,,,,,,,,,,,,,
97,CT2237,BSC70-10_Devalampeta_CT2237B,2G,,,13.32831,79.24786,Rural,Devalampeta,Vedurukuppam,SH,Shelter,5397.0,"Devalampeta(V),Vedurukuppam (M),Chittoor DT.",Tirupati,PUTTUR,517569.0,NBSNL,BSNL Infra,CT2237,GBT,40.0,38.0,Dual,Agisson,Nortel,V.1,6/8/2010,S8K_ID,3.0,4-4-4,0/140/260,1.0,OFC,E1,,,,,,,,67.0,Tirupati,,,,,,,,,,,,,,,,,,,,,,,,,,,,CT2237,,,,,,0.0,,,,
98,CT2238,BSC68-37_Devalacheruvu_CT2238B,2G,,,13.78106,78.34106,Rural,Devalacheruvu,Mulakalacheruvu,RC,Room,5367.0,"BSNL Tower, Devalacheruvu(V), Mulakalacheruvu(M),Madhanapalle; Chittoor Dt-AP-517351",Rajampet,B.KOTHAKOTA,517350.0,NBSNL,BSNL Infra,CT2238,GBT,40.0,37.0,Dual,Agisson,Nortel,V.1,10/22/2010,S12K_ID,3.0,4-4-4,0/120/240,1.0,OFC,E1,,,,,,,,68.0,Tirupati,,,,,,,,,,,,,,,,,,,,,,,,,,,,CT2238,,,,,,0.0,,,,
99,CT2240,BSC68-41_Yallamanda_CT2240C,2G,,,13.79512,79.0433,Rural,Ellamanda,Yerravaripalem,,OD Plinth,5374.0,"Yellamanda,Yvpalem,Chittoor DT.",Rajampet,PILER,517214.0,NBSNL,BSNL Infra,CT2240,GBT,40.0,35.0,Dual,Agisson,Nortel,V.1,3/31/2011,S8K_OD,3.0,4-4-4,40/160/245,1.0,OFC,E1,,,,,,,,68.0,Tirupati,,,,,,,,,,,,,,,,,,,,,,,,,,,,CT2240,,,G/FVC/HYD/1408011/2010,,,0.0,,,,
100,CT2242,BSC68-96_Gattu_CT2242B,2G,,,13.66223,78.32856,Rural,Gattu,B.Kothakota,,Room,5391.0,"Near reliance tower,Gattu,Bkothkota Mandal,Chittoor DT.",Rajampet,B.KOTHAKOTA,517352.0,NBSNL,BSNL Infra,CT2242,GBT,40.0,37.0,Dual,Agisson,Nortel,V.1,7/9/2010,S12K_ID,3.0,4-4-4,0/90/300,1.0,OFC,E1,,,,,,,,68.0,Tirupati,,,,,,,,,,,,,,,,,,,,,,,,,,,,CT2242,,,,,,0.0,,,,
101,CT2243,BSC70-68_A_Gollapalli_CT2243A,2G,,,13.27014,78.94348,Rural,A.Gollapalli,Chittoor,,OD Plinth,5421.0,"A_Gollapalli,sathakuppam,Chittoor(M),Chittoor DT.",Chittoor,BANGARUPALYAM,517129.0,NBSNL,BSNL Infra,CT2243,GBT,40.0,37.0,Dual,AGISSON,Nortel,V.1,9/8/2010,BTS18K_OD,3.0,4-4-4,10/90/250,1.0,OFC,E1,,,,,,,,70.0,Tirupati,,,,,,,,,,,,,,,,,,,,,,,,,,,,,,,,,,0.0,,,,
102,CT2244,BSC70-75_G-T-Palli_CT2244C,2G,,,13.0616,78.61839,Rural,Gownithimmepalli,Baireddipalle,,Room,5423.0,"GowniTimmanapalli,Baireddpalli (M),Chittoor DT.",Rajampet,PALMANER,517415.0,NBSNL,BSNL Infra,CT2244,GBT,40.0,35.0,Dual,AGISSON,Nortel,V.1,11/11/2010,BTS18K_ID,3.0,4-4-4,0/120/240,1.0,OFC,E1,,,,,,,,70.0,Tirupati,,,,,,,,,,,,,,,,,,,,,,,,,,,,,,,,,,,,,,
103,CT2245,BSC68-46_Gundloor_CT2245C,2G,,,13.74622,78.79589,Rural,Gundloor,Kalikiri,,OD Plinth,5387.0,"kornamittapalli,gundloor,kalikiri(M),Chittoor DT.",Rajampet,VAYALPADU,517235.0,NBSNL,BSNL Infra,CT2245,GBT,40.0,35.0,Dual,Agisson,Nortel,V.1,3/10/2011,BTS18K_OD,3.0,4-4-4,60/180/270,,DMW,,,Huawei,0.6 m,BSC68-18_NH18_Mahal_CT2011B,E1,1.0,,68.0,Tirupati,,,,,,,,,,,,,,,,,,,,,,,,,,,,,,,G/FVC/HYD/1466307/2011,,,,,,,
104,CT2246,BSC68-35_Guttapalem_CT2246B,2G+3G,HUW,102_0186_CT_Guttapalem_CT2246,13.60435,78.78455,Rural,Guttapalem,Kalikiri,,Room,5387.0,"Guttapalem,yallampalli,kalikiri(M),Chittoor DT.",Rajampet,VAYALPADU,517224.0,NBSNL,BSNL Infra,CT2246,GBT,40.0,37.0,Dual,Agisson,Nortel,V.1,10/22/2010,BTS18K_OD,3.0,4-4-4,0/90/260,1.0,OFC,E1,,,,,,,,68.0,Tirupati,VIII,,,ID,,,,,E1,E1,2.0,45 Mbps,,,,,,,,102.0,,,,,CT2246,,,,BSC58-34_Ithepalle_GTL_CT5013B,RRH,,,45 Mbps,,,,,
105,CT2247,BSC70-92_KBRPuram_CT2247B,2G+3G,HUW,102_0187_KBRPuram_CT2247,13.35418,79.51555,Rural,KBRPuram,Puttur,,Exchange,5407.0,"2/95-1,KBRPuram,puttur(M),Chittoor DT.",Tirupati,PUTTUR,517571.0,BSNL,BSNL Infra,CT2247,GBT,40.0,37.0,Dual,Agisson,Nortel,V.1,1/30/2010,BTS18K_ID,3.0,4-4-4,110/200/330,1.0,OFC,E1,,,,,,,,67.0,Tirupati,VIII,,,ID,3.0,,,,,,,60 Mbps,,,,,,,,102.0,,,,,CT2247,,,,BSC58-32_Gajulamandyam_CT2241A,ID,,,60 Mbps,0.0,,,,
106,CT2248,BSC70-19_Ugranampalle_CT2248A,2G+3G,HUW,102_0162_Ugranampalle_CT2248B,13.32299,79.18751,Rural,Ugranampalle,Gangadhara Nellore,,Exchange,5420.0,"Ugranampalle(V),Gdnellore(M),Chittoor DT.",Chittoor,CHITTOOR,517126.0,BSNL,BSNL Infra,CT2248,GBT,40.0,37.0,Dual,Agisson,Nortel,V.1,4/16/2010,S12K_ID,3.0,4-4-4,35/100/260,1.0,OFC,E1,,,,,,,,60.0,Tirupati,VII +,5/2/2017,35/100/260,ID,3.0,37.0,Dual,Agisson,OFC,FE,,100 Mbps,,,,,,Tiruapti,,102.0,,,,,,,,CT2248,,,,,100 Mbps,0.0,,,,
107,CT2249,BSC70-63_KCpalle_CT2249C,2G,,,13.37835,79.23046,Rural,Kamachinnaiahpalle,Penumuru,,Room,5409.0,"kamachinnaiahpalli, punumur mandal,Chittoor DT.",Chittoor,CHITTOOR,517126.0,NBSNL,BSNL Infra,CT2249,GBT,40.0,36.0,Dual,Agisson,Nortel,V.1,7/17/2010,S12K_ID,3.0,4-4-4,0/90/265,1.0,OFC,E1,,,,,,,,60.0,Tirupati,,,,,,,,,,,,,,,,,,,,,,,,,,,,CT2249,,,,,,0.0,,,,
108,CT2251,BSC70-82_Kolamasanpali_CT2251B,2G,,,13.14977,78.67157,Rural,Gownithimmepalli,Palamaner,NH,OD Plinth,5422.0,"Kolamasanapalli,palamne (M),Chittoor DT.",Tirupati,PALMANER,517432.0,NBSNL,BSNL Infra,CT2251,GBT,60.0,36.0,Dual,AGISSON,Nortel,V.1,3/31/2011,S12K_OD,3.0,2-2-2,30/160/240,1.0,OFC,E1,,,,,,,,70.0,Tirupati,,,,,,,,,,,,,,,,,,,,,,,,,,,,CT2251,,,,,,0.0,,,,
109,CT2253,BSC68-25_Kona_CT2253C,2G,,,13.83442,78.72652,Rural,Kona,Kalakada,,Room,5371.0,"Kona,kalakada (M),Chittoor DT.",Tirupati,VAYALPADU,517236.0,BSNL,BSNL Infra,CT2253,GBT,40.0,39.0,Dual,Agisson,Nortel,V.1,5/7/2010,S8K_ID,3.0,4-4-4,0/120/240,1.0,OFC,E1,,,,,,,,68.0,Tirupati,,,,,,,,,,,,,,,,,,,,,,,,,,,,CT2253,,,,,,0.0,,,,
110,CT2254,BSC70-76_Kotamngapuram_CT2254C,2G,,,13.44989,79.70165,Rural,Kotamangapuram,Pichatur,,OD Plinth,5401.0,"Kotamangapuram(V),Pichatur(M),Chittoor DT.",Tirupati,PUTTUR,517588.0,NBSNL,BSNL Infra,CT2254,GBT,40.0,37.0,Dual,AGISSON,Nortel,V.1,12/20/2010,BTS18K_OD,3.0,4-4-4,30/120/210,,DMW,,,Huawei,0.6 m,BSC67-53_Pitchatur_CT2064A,E1,1.0,,67.0,Tirupati,,,,,,,,,,,,,,,,,,,,,,,,,,,,,,,G/FVC/HYD/1466300/2011,,,0.0,,,,
111,CT2256,BSC70-91_KrishnaPuram_CT2256B,2G+3G,HUW,102_0179_Krishnapuram_CT2256C,13.02236,78.51434,E-City,krishnapuram,Venkatagirikota,NH,Room,5424.0,"KrishnaPuram,V.Kota (M),Chittoor DT.",Chittoor,V.KOTA,517424.0,BSNL,BSNL Infra,CT2256,GBT,80.0,40.0,Dual,Agisson,Nortel,V.1,6/29/2011,S12K_ID,3.0,4-4-4,0/120/240,1.0,OFC,E1,,,,,,,,70.0,Tirupati,VII +,5/29/2017,0/120/240,ID,2.0,40.0,Dual,Agisson,OFC,FE,,45 Mbps,,,,,,Tiruapti,,102.0,,,,,,,,CT2256,,,,,45 Mbps,0.0,,,,
112,CT2257,BSC68-48_Malepadu_CT2257,2G,,,,,Rural,,,,,,,,MADANAPALLI,,NBSNL,BSNL Infra,CT2257,GBT,,,,,Nortel,,,,,,,,,,,,,,,,,,,,,,,,,,,,,,,,,,,,,,,,,,,,,,,,,,,,,,,,
113,CT2258,BSC68-32_Mangalampeta_CT2258B,2G+3G,HUW,102_0117_Mangalampeta_CT2258C,13.57829,79.09571,Rural,Mangalampeta,Pulicherla,,Exchange,5395.0,"Mangalampeta,pulicherla(M),Chittoor DT.",Tirupati,PAKALA,517172.0,BSNL,BSNL Infra,CT2258,GBT,40.0,37.0,Dual,Agisson,Nortel,V.1,3/27/2010,S12K_ID,3.0,4-4-4,10/120/260,1.0,OFC,E1,,,,,,,,60.0,Tirupati,VII +,3/3/2017,10/120/260,ID,3.0,37.0,Dual,MOBI (MD2F&3F-65-17&17DE10&8-2015),OFC,FE,,35 Mbps,,,,,,Tiruapti,,102.0,,,,,,,,CT2258,,,,,35 Mbps,0.0,,,,
114,CT2259,BSC68-97_Musturu_CT2259C,2G,,,13.55922,78.63675,Rural,Musturu,Nimmanapalle,,OD Plinth,5393.0,"Musturu,Nimmanapalli mandal,Chittoor DT.",Rajampet,MADANAPALLI,517280.0,NBSNL,BSNL Infra,CT2259,GBT,40.0,37.0,Dual,Agisson,Nortel,V.1,8/5/2010,BTS18K_ID,3.0,4-4-4,0/120/240,1.0,OFC,E1,,,,,,,,68.0,Tirupati,,,,,,,,,,,,,,,,,,,,,,,,,,,,,,,,,,,,,,
115,CT2260,BSC68-68_Medikurthi_CT2260B,2G+3G,HUW,102_0188_CT_MEDIKURTHY_CT2260,13.70779,78.77265,Rural,Medikurthi,Kalikiri,,Exchange,5387.0,"Medikurti, Kalikiri(M), Chittoor DT,AP-517237",Chittoor,VAYALPADU,517237.0,BSNL,BSNL Infra,CT2260,GBT,40.0,37.0,Dual,Agisson,Nortel,V.1,5/29/2010,S8K_ID,3.0,4-4-4,140/250/320,1.0,OFC,E1,,,,,,,,68.0,Tirupati,VIII,,,ID,,,,,,E1,2.0,45 Mbps,,,,,,,,102.0,,,,,CT2260,,,CT2260,BSC70-33_Talupulapalli_CT2281B,ID,,,45 Mbps,0.0,,,,
116,CT2262,BSC70-90_Mudaramdoddi_CT2262C,2G,,,12.97435,78.5583,Rural,Mudaramdoddi,Venkatagirikota,,Room,5424.0,"Mudaramdoddi,vkota (M),Chittoor DT.",Chittoor,V.KOTA,517424.0,NBSNL,BSNL Infra,CT2262,GBT,40.0,36.0,Dual,AGISSON,Nortel,V.1,10/21/2011,S12K_OD,3.0,3-3-3,0/120/240,1.0,OFC,E1,,,,,,,,70.0,Tirupati,,,,,,,,,,,,,,,,,,,,,,,,,,,,CT2262,,,,,,0.0,,,,
117,CT2263,BSC70-86_Mudigolam_CT2263B,2G,,,13.32635,79.04145,Rural,Mudigolam,Irala,,Room,5411.0,"Mudigolam,IRALA(M),Chittoor DT.",Rajampet,BANGARUPALYAM,517130.0,NBSNL,BSNL Infra,CT2263,GBT,40.0,38.0,Dual,AGISSON,Nortel,V.1,3/10/2011,S8K_ID,3.0,4-4-4,0/90/270,1.0,OFC,E1,,,,,,,,70.0,Tirupati,,,,,,,,,,,,,,,,,,,,,,,,,,,,CT2263,,,,,,0.0,,,,
118,CT2264,BSC68-66_Mudivedu_CT2264C,2G,,,13.70631,78.50922,Rural,Mudivedu,Kurabalakota,,Exchange,5389.0,"Mudivedu(V),kurabalakota(M),Chittoor DT.",Tirupati,MADANAPALLI,517351.0,BSNL,BSNL Infra,CT2264,GBT,40.0,38.0,Dual,AGISSON,Nortel,V.1,10/9/2010,S12K_ID,3.0,4-4-4,80/170/270,1.0,OFC,E1,,,,,,,,68.0,Tirupati,,,,,,,,,,,,,,,,,,,,,,,,,,,,CT2264,,,,,,0.0,,,,
119,CT2265,BSC70-94_NVPalle_CT2265C,2G,,,13.42219,79.26825,Rural,Nvpalle,Vedurukuppam,SH,Shelter,5397.0,"NVPalle,Vedurukuppam (M),Chittoor DT.",Tirupati,PUTTUR,517569.0,NBSNL,BSNL Infra,CT2265,GBT,40.0,38.0,Dual,Agisson,Nortel,V.1,3/31/2010,S8K_ID,3.0,4-4-4,30/150/270,1.0,OFC,E1,,,,,,,,67.0,Tirupati,,,,,,,,,,,,,,,,,,,,,,,,,,,,CT2265,,,,,,0.0,,,,
120,CT2266,BSC70-74_Nangamangalam_CT2266B,2G,,,13.05253,79.17442,Rural,Nangamangalam,Gudipala,NH,OD Plinth,5431.0,"Nangamangalam,Gidipala(M),Chittoor DT.",Chittoor,CHITTOOR,517132.0,NBSNL,BSNL Infra,CT2266,GBT,40.0,38.0,Dual,Agisson,Nortel,V.1,10/9/2010,BTS18K_OD,3.0,4-4-4,0/120/240,,DMW,,,Huawei,0.6 m,BSC60-07_Ramapuram_CT2090A,E1,1.0,,60.0,Tirupati,,,,,,,,,,,,,,,,,,,,,,,,,,,,,,,G/FVC/HYD/1407882/2010,,,0.0,,,,
121,CT2267,BSC70-17_Nanjampet_CT2267C,2G,,,13.45851,78.85344,Rural,Nanjampeta,Somala,,OD Plinth,5412.0,"Nanjampet(V),somala(M),Chittoor DT.",Rajampet,PILER,517257.0,NBSNL,BSNL Infra,CT2267,GBT,40.0,32.0,Dual,AGISSON,Nortel,V.1,9/6/2010,BTS18K_OD,3.0,4-4-4,30/90/270,1.0,OFC,E1,,,,,,,,70.0,Tirupati,,,,,,,,,,,,,,,,,,,,,,,,,,,,,,,,,,0.0,,,,
122,CT2268,BSC70-79_Nellipatla_CT2268C,2G,,,13.07032,78.67321,Rural,Nellipatla,Baireddipalle,,Room,5423.0,"Nellipatla,Baireddypalli (M),Chittoor DT.",Rajampet,PALMANER,517415.0,NBSNL,BSNL Infra,CT2268,GBT,40.0,38.0,Dual,AGISSON,Nortel,V.1,12/22/2010,S12K_ID,3.0,4-4-4,30/130/270,1.0,OFC,E1,,,,,,,,70.0,Tirupati,,,,,,,,,,,,,,,,,,,,,,,,,,,,CT2268,,,,,,0.0,,,,
123,CT2269,BSC68-43_Noothanakalva_CT2269C,2G,,,13.86967,78.93137,Rural,Nuthanakalva,Pileru,,OD Plinth,5386.0,"Peddakhambireddy,Noothanakalva(V),piler(M).,Chittoor DT.",Rajampet,PILER,517214.0,NBSNL,BSNL Infra,CT2269,GBT,40.0,35.0,Dual,Agisson,Nortel,V.1,2/3/2011,BTS18K_OD,3.0,4-4-4,0/120/240,,DMW,,,Huawei,0.6 m,BSC68-91_MV-Palli-USO_CT2133C,E1,1.0,,68.0,Tirupati,,,,,,,,,,,,,,,,,,,,,,,,,,,,,,,G/FVC/HYD/1602506/2011,,,,,,,
124,CT2270,BSC70-29_KVPuram_CT2270B,2G,,,13.29481,79.6521,Rural,KVPuram,Vijayapuram,,Room,5405.0,"kvpuram,vijaya puram mandal,Chittoor DT.",Tirupati,PUTTUR,517561.0,NBSNL,BSNL Infra,CT2270,GBT,40.0,37.0,Dual,AGISSON,Nortel,V.1,4/13/2012,BTS18K_ID,3.0,4-4-4,120/320/40,,DMW,,,Huawei,0.6 m,BSC67-09_Pannur-SS_CT2274B,E1,1.0,,67.0,Tirupati,,,,,,,,,,,,,,,,,,,,,,,,,,,,,,,,,,0.0,,,,
125,CT2272,BSC70-84_Panatoor_CT2272B,2G+3G,HUW,102_0189_CT_Panatoor_CT2272B,13.05485,79.13702,Rural,panatoor,Gudipala,NH,Room,5431.0,"Panatoor,Gudipala(M).,Chittoor DT.",Chittoor,CHITTOOR,517132.0,NBSNL,BSNL Infra,CT2272,GBT,40.0,38.0,Dual,Agisson,Nortel,V.1,12/31/2010,S12K_ID,3.0,4-4-4,0/180/270,,DMW,,,Huawei,0.6 m,BSC60-72_Nangamangalam_CT2266B,E1,1.0,,60.0,Tirupati,VIII,,,ID,,,,,,,,6 Mbps,,,,,,,,102.0,,,,,CT2272,,,CT2272,BSC60-60_PakalaBS_VIOM_CT5021A,ID,G/FVC/HYD/1466304/2011,,6 Mbps,0.0,,,,
126,CT2274,BSC70-09_Pannur-SS_CT2274B,2G,,,13.32746,79.69829,Rural,Pannursubstation,Vijayapuram,SH,OD Plinth,5405.0,"Pannur ss,Vijayapuram mandal.,Chittoor DT.",Tirupati,PUTTUR,517589.0,NBSNL,BSNL Infra,CT2274,GBT,40.0,37.0,Dual,AGISSON,Nortel,V.1,3/3/2011,BTS18K_OD,3.0,4-4-4,0/150/280,1.0,OFC,E1,,,,,,,,67.0,Tirupati,,,,,,,,,,,,,,,,,,,,,,,,,,,,,,,,,,0.0,,,,
127,CT2276,BSC68-86_Peddamandyam_CT2276C,2G+3G,ZTE,346_4772_Peddamandyam_CT2276A,13.9247,78.5401,Rural,Peddamandyam,Peddamandyam,,Room,5369.0,"Peddamandyam(VM),Chittoor DT.",Rajampet,MADANAPALLI,517297.0,NBSNL,BSNL Infra,CT2276,GBT,40.0,37.0,Dual,AGISSON,Nortel,V.1,10/26/2010,S12K_ID,3.0,4-4-4,110/240/330,1.0,OFC,E1,,,,,,,,68.0,Tirupati,VII,7/23/2014,110/240/330,ID,3.0,37.0,Dual,Agisson,OFC,FE,,100 Mbps,,,,,,Tiruapti,,346.0,,,,,,,,CT2276,,,,,100 Mbps,0.0,,,,
128,CT2277,BSC70-66_Peddur_CT2277C,2G,,,12.80974,78.56456,Rural,Peddur,Ramakuppam,,OD Plinth,5428.0,"BSNL Tower Peddur-Peddur, Ramakuppam Mandal, Chittoor Dist,AP-517401",Chittoor,KUPPAM,517401.0,NBSNL,BSNL Infra,CT2277,GBT,40.0,36.0,Dual,AGISSON,Nortel,V.1,10/21/2011,BTS18K_OD,3.0,4-4-4,0/100/230,1.0,OFC,E1,,,,,,,,70.0,Tirupati,,,,,,,,,,,,,,,,,,,,,,,,,,,,,,,,,,,,,,
129,CT2278,BSC70-47_Pengarakunta_CT2278A,2G+3G,HUW,102_0190_Pengarakunta_CT2278,13.16906,78.75671,Rural,Pengarakunta,Palamaner,,Room,5422.0,"pengaragunta ,palamaner mandal,Chittoor DT.",Chittoor,PALMANER,517408.0,NBSNL,BSNL Infra,CT2278,GBT,40.0,35.0,Dual,AGISSON,Nortel,V.1,9/23/2010,S12K_ID,3.0,4-4-4,330/120/240,1.0,OFC,E1,,,,,,,,70.0,Tirupati,viii,,,ID,,,,,,,,45 Mbps,,,,,,,,102.0,,,,,CT2278,,,CT2278,BSC70-19_Bangarupalem_CT2001A,ID,,,45 Mbps,0.0,,,,
130,CT2280,BSC70-62_SSSKonda_CT2280A,2G+3G,HUW,102_0163_SSSKonda_CT2280B,13.25771,79.26932,Rural,SSSkonda,Gangadhara Nellore,,Exchange,5420.0,"petamitta(V),SSSKonda(M),gd nallore (M),Chittoor DT.",Chittoor,CHITTOOR,517126.0,BSNL,BSNL Infra,CT2280,GBT,40.0,37.0,Dual,Agisson,Nortel,V.1,5/5/2010,BTS6K_OD_AC,3.0,4-4-4,0/120/240,1.0,OFC,E1,,,,,,,,60.0,Tirupati,VII +,5/2/2017,0/120/240,OD,3.0,37.0,Dual,Agisson,OFC,FE,,45 Mbps,,,,,,Tiruapti,,102.0,,,,,,,,,,,,,45 Mbps,,,,,
131,CT2283,BSC70-73_Ragimanupenta_CT2283C,2G,,,13.13596,78.91196,Rural,Ragimanupenta,Bangarupalem,,Room,5429.0,"Ragimanu penta, bangarupalem mandal,Chittoor DT;AP-517429.",Chittoor,BANGARUPALYAM,517419.0,NBSNL,BSNL Infra,CT2283,GBT,40.0,37.0,Dual,AGISSON,Nortel,V.1,10/22/2010,S12K_ID,3.0,4-4-4,50/130/260,,DMW,,,Huawei,0.6 m,BSC60-01_MReddypaleUSO_CT2139B,E1,1.0,,70.0,Tirupati,,,,,,,,,,,,,,,,,,,,,,,,,,,,CT2283,,,G/FVC/HYD/1466301/2011,,,0.0,,,,
132,CT2284,BSC70-61_Rallabudugur_CT2284B,2G,,,12.85812,78.34297,Rural,Rallabuduguru,Santhipuram,,OD Plinth,5425.0,"Rallabudugur,Santhipuram (M),Chittoor DT.",Chittoor,KUPPAM,517423.0,NBSNL,BSNL Infra,CT2284,GBT,40.0,33.0,Dual,AGISSON,Nortel,V.1,6/27/2010,BTS18K_OD,3.0,4-4-4,46/144/259,1.0,OFC,E1,,,,,,,,70.0,Tirupati,,,,,,,,,,,,,,,,,,,,,,,,,,,,,,,,,,,,,,
133,CT2285,BSC68-44_RangaSamudram_CT2285C,2G,,,13.71369,78.26337,Rural,Rangasamudram,Pedda Thippasamudram,,OD Plinth,5390.0,"BSNL Tower, Rangasamudram(V), Peddathippa Samudram (M), Chittoor Dist,AP-517370",Rajampet,B.KOTHAKOTA,517370.0,NBSNL,BSNL Infra,CT2285,GBT,40.0,35.0,Dual,Agisson,Nortel,V.1,3/10/2011,BTS18K_OD,3.0,4-4-4,0/120/240,1.0,OFC,E1,,,,,,,,68.0,Tirupati,,,,,,,,,,,,,,,,,,,,,,,,,,,,,,,,,,,,,,
134,CT2286,BSC68-39_Sompalle_CT2286B,2G,,,13.84539,78.27344,Rural,Sompalli,Mulakalacheruvu,,OD Plinth,5367.0,"Sompalle,Mulakalacheruvu Mandal,Chittoor DT.",Chittoor,B.KOTHAKOTA,517350.0,NBSNL,BSNL Infra,CT2286,GBT,40.0,37.0,Dual,Agisson,Nortel,V.1,10/28/2010,BTS18K_OD,3.0,4-4-4,40/120/230,1.0,OFC,E1,,,,,,,,68.0,Tirupati,,,,,,,,,,,,,,,,,,,,,,,,,,,,,,,,,,,,,,
135,CT2287,BSC68-99_T_C_Samudram_CT2287B,2G+3G,HUW,102_0191_TC_Samudram_CT2287,13.86063,78.33599,Rural,Chowdasamudram,Mulakalacheruvu,,Exchange,5367.0,"T-Chowdasamudram,Mulakalacheruvu(M),Chittoor DT.",Rajampet,MADANAPALLI,517350.0,BSNL,BSNL Infra,CT2287,GBT,40.0,39.0,Dual,Agisson,Nortel,V.1,3/31/2010,S12K_ID,3.0,4-4-4,0/120/240,1.0,OFC,E1,,,,,,,,68.0,Tirupati,viii,,,ID,,,,,OFC,FE,,100 Mbps,,,,,,,,102.0,,,,,CT2287,,,CT2287,BSC68-52_CT-Samudram_CT2107A,ID,,,100 Mbps,0.0,,,,
136,CT2288,BSC68-45_Vengamvarpali_CT2288C,2G,,,13.55491,78.71522,Rural,Vengamvaripalli,Madanapalle,,OD Plinth,5392.0,"Vengamvaripalli ,madnapalli(M),Chittoor DT.",Rajampet,MADANAPALLI,517325.0,NBSNL,BSNL Infra,CT2288,GBT,40.0,35.0,Dual,Agisson,Nortel,V.1,3/19/2011,BTS18K_OD,3.0,4-4-4,20/110/270,1.0,OFC,E1,,,,,,,,68.0,Tirupati,,,,,,,,,,,,,,,,,,,,,,,,,,,,,,,,,,,,,,
137,CT2289,BSC68-00_Talapula_CT2289B,2G,,,13.74517,78.99938,Rural,Talapula,Pileru,,Exchange,5386.0,"Talapula,piler(M),Chittoor DT.",Chittoor,PILER,517214.0,BSNL,BSNL Infra,CT2289,GBT,40.0,38.0,Dual,Agisson,Nortel,V.1,4/7/2010,S8K_ID,3.0,4-4-4,50/210/320,1.0,OFC,E1,,,,,,,,68.0,Tirupati,,,,,,,,,,,,,,,,,,,,,,,,,,,,CT2289,,,,,,0.0,,,,
138,CT2290,BSC68-26_Timmasamudram_CT2290C,2G,,,13.64045,79.73249,Rural,Thimmasamudram,K.V.B.Puram,SH,OD Plinth,5382.0,"Thimmasamudram(V),CTR,kVB puram(M),Chittoor DT, AP-517643",Tirupati,SRI KALAHASTHI,517588.0,NBSNL,BSNL Infra,CT2290,GBT,40.0,36.0,Dual,Agisson,Nortel,V.1,10/3/2010,BTS18K_OD,3.0,4-4-4,0/90/210,1.0,OFC,E1,,,,,,,,67.0,Tirupati,,,,,,,,,,,,,,,,,,,,,,,,,,,,,,,,,,0.0,,,,
139,CT2292,BSC70-67_Thumbakuppam_CT2292B,2G,,,13.25586,78.89725,Rural,Thumbakuppam,Bangarupalem,,OD Plinth,5429.0,"BSNL Tower, Thumbakuppam, Bangarupalem(M), Chittoor Dist-AP-517416",Chittoor,BANGARUPALYAM,517416.0,NBSNL,BSNL Infra,CT2292,GBT,40.0,35.0,Dual,AGISSON,Nortel,V.1,8/30/2010,BTS18K_OD,3.0,4-4-4,34/119/273,1.0,OFC,E1,,,,,,,,70.0,Tirupati,,,,,,,,,,,,,,,,,,,,,,,,,,,,,,,,,,,,,,
140,CT2293,BSC68-49_Tumarakunta_CT2293C,2G,,,13.68197,78.17022,Rural,Thummarakunta,B.Kothakota,,OD Plinth,5391.0,"BSNL TOWER, THUMMARAKUNTA ,CHITTOOR DIST,AP-517391.",Chittoor,B.KOTHAKOTA,517370.0,NBSNL,BSNL Infra,CT2293,GBT,40.0,35.0,Dual,Agisson,Nortel,V.1,5/26/2012,BTS18K_OD,3.0,4-4-4,40/160/290,1.0,DMW,E1,,Huawei,0.6 m,BSC68-65_PTsamudram_CT2156B,E1,,,68.0,Tirupati,,,,,,,,,,,,,,,,,,,,,,,,,,,,,,,,,,,,,,
141,CT2294,BSC70-65_Tummindapalem_CT2294B,2G,,,13.08774,79.06029,Rural,Tummindapalem,Gudipala,,OD Plinth,5431.0,"Tummindapalem,GUdipala (M),Chittoor DT,AP-517132.",Chittoor,CHITTOOR,517002.0,NBSNL,BSNL Infra,CT2294,GBT,40.0,36.0,Dual,Agisson,Nortel,V.1,6/18/2010,S8K_OD,3.0,4-4-4,0/120/270,1.0,OFC,E1,,,,,,,,60.0,Tirupati,,,,,,,,,,,,,,,,,,,,,,,,,,,,CT2294,,,,,,0.0,,,,
142,CT2296,BSC70-27_Vanamaladinne_CT2296B,2G,,,13.31768,78.51529,Rural,Vanamaladinne,Punganur,,OD Plinth,5415.0,"Vanamaladinne(v), Punganur(M), Chittoor Dt,Andhrapradesh,Pin-517247",Chittoor,PUNGANUR,517247.0,NBSNL,BSNL Infra,CT2296,GBT,40.0,38.0,Dual,AGISSON,Nortel,V.1,6/21/2010,BTS18K_OD,3.0,4-4-4,30/120/240,1.0,OFC,E1,,,,,,,,70.0,Tirupati,,,,,,,,,,,,,,,,,,,,,,,,,,,,,,,,,,0.0,,,,
143,CT2297,BSC70-87_VavilThota_CT2297B,2G,,,13.28479,79.09551,Rural,Vavilthota,Puthalapattu,,Room,5410.0,"VavilThota,Puthalapattu(M),Chittoor DT.",Chittoor,CHITTOOR,517124.0,NBSNL,BSNL Infra,CT2297,GBT,40.0,36.0,Dual,Agisson,Nortel,V.1,2/1/2011,S8K_ID,3.0,4-4-4,40/140/250,,DMW,,,Huawei,1.2 m,BSC60-04_VezzupalleUSO_CT2187B,E1,1.0,,60.0,Tirupati,,,,,,,,,,,,,,,,,,,,,,,,,,,,CT2297,,,G/FVC/HYD/1466303/2011,,,0.0,,,,
144,CT2299,BSC68-82_Vijayapuram_CT2299C,2G,,,13.26627,79.69709,Rural,Vijayapuram,Vijayapuram,,OD Plinth,5405.0,Vijayapuram(V&M),Tirupati,SATYAVEDU,517586.0,NBSNL,BSNL Infra,CT2299,GBT,40.0,38.0,Dual,XAHT,Nortel,IV.5,6/10/2009,BTS18K_OD,3.0,4-4-4,0/90/180,1.0,OFC,E1,,,,,,,,67.0,Tirupati,,,,,,,,,,,,,,,,,,,,,,,,,,,,,,,,,,,,,,
145,CT2303,BSC68-60_Yeravaripalem_CT2303B,2G+3G,HUW,102_0192_CT_Yerravaripalem_CT2303,13.70581,79.13107,Rural,Yerravaripalem,Yerravaripalem,,Shelter,5374.0,"Yerravaripalem(V&M),Chittoor DT.",Tirupati,PILER,517194.0,NBSNL,BSNL Infra,CT2303,GBT,40.0,37.0,Dual,XAHT,Nortel,V.1,9/20/2010,BTS6K_OD_AC,3.0,4-4-4,0/100/280,1.0,OFC,E1,,,,,,,,68.0,Tirupati,VIII,,,ID,,,,,E1,E1,,100 Mbps,,,,,,,,102.0,,,,,CT2303,,,,BSC68-01_Bakarapeta_CT2041A,ID,,,100 Mbps,,,,,
146,CT2304,BSC68-53_Ret-PTC_CT2304C,2G+3G,HUW,102_01981_Rangampeta_PTC_CT230,13.64814,79.26938,DHQ,Rangampeta,Chandragiri,NH,Room,5384.0,"Rangampet_PTC,Rangampet,Chittoor DT.",Tirupati,CHANDRAGIRI,517102.0,NBSNL,BSNL Infra,CT2304,RTP,9.0,15.0,Dual,KATHREIN,Nortel,V.1,12/20/2010,BTS6K_OD_AC,3.0,4-4-4,25/155/230,1.0,OFC,E1,,,,,,,,58.0,Tirupati,,12/30/2020,,,3.0,,,,OFC,,,,,,,,,,,,,,,,,,,,,,,,,,,,,
147,CT2307,BSC70-93_NRPeta_CT2307A,2G+3G,HUW,102_0193_NRPeta_CT2307,13.17527,79.2078,Rural,NRPeta,Gudipala,SH,Exchange,5431.0,"Nrpeta exge,Chittoor rural.,Chittoor DT.",Chittoor,CHITTOOR,517419.0,BSNL,BSNL Infra,CT2307,GBT,40.0,35.0,Dual,XAHT,Nortel,V.1,8/28/2011,BTS18K_ID,3.0,4-4-4,50/180/280,1.0,OFC,E1,,,,,,,,70.0,Tirupati,VIII,,,ID,3.0,,,,OFC,FE,,100 Mbps,,,,,,Tiruapti,,102.0,,,,,CT2307,,,CT2307,BSC60-17_Putalapattu_CT2029A,ID,,,100 Mbps,0.0,,,,
148,CT2310,BSC68-20_Angallu_CT2310A,2G+3G,ZTE,346_3505_Angallu_CT2310A,13.62996,78.48533,Rural,Angallu,Kurabalakota,SH,Room,5389.0,"Angallu, Chittoor Dt",Tirupati,MADANAPALLI,517325.0,NBSNL,BSNL Infra,CT2310,RTP,9.0,21.0,Dual,MOBI (MB2F&3F-65-17&17DE10&8-2015),Nortel,V.1,1/22/2013,S8K_ID,3.0,4-4-4,50/180/300,1.0,OFC,E1,,,,,,,,68.0,Tirupati,VII,7/23/2014,50/180/300,ID,3.0,21.0,Dual,MOBI (MD2F&3F-65-17&17DE10&8-2015),OFC,FE,,100 Mbps,,,,,,Tiruapti,,346.0,,,,,,,,CT2310,,,,,100 Mbps,0.0,,,,
149,CT5006,BSC70-64_PGopnpaliVIOM_CT5006B,2G,,,12.70794,78.37782,Rural,Peddagopannapalle,kuppam,,Shelter,5427.0,"Sy.No:182-2F,Settiganigutta Village, Kuppam Mandal, Chittur-517425",Chittoor,KUPPAM,517425.0,IP-VIOM,VIOM Networks,ANPCHI289,GBT,40.0,30.0,Dual,MOBI (MB2F&3F-65-17&17DE10&8-2015),Nortel,VII,11/6/2013,BTS18K_ID,3.0,4-4-4,0/100/260,,DMW,,,NEW NEC(HFCL),0.6 m,BSC70-45_Kuppam_CT2053A,E1,1.0,,70.0,Tirupati,,,,,,,,,,,,,,,,,,,,,,,,,,,CT5006,,,,2015814084@G/FXW/HYD/3156778/2016@CLEARED ONLINE,,,,,STD,,
150,CT5023,BSC68-61_Gvaripalle_CT5023B,2G,,,13.7815,78.70779,Rural,Guvvalavaripalle,Kalakada,,Shelter,5371.0,"M.Venkateswara Rao, Sr.No:963-2Guvvalavandlapalli(V) KalakadaMandal.",rajampet,PILER,517235.0,NBSNL,BSNL Infra,CT5023,GBT,40.0,37.0,Dual,MOBI (MB2F&3F-65-17&17DE10&8-2015),Nortel,VII,9/6/2014,S12K_ID,3.0,4-4-4,20/130/250,,DMW,,,Radwin(radia modem),0.6 m,BSC68-18_NH18_Mahal_CT2011B,E1,1.0,,68.0,Tirupati,,,,,,,,,,,,,,,,,,,,,,,,,,,,CT5023,,,,,,0.0,,,,
151,CT5025,BSC68-58_Mudupulvemula_CT5025B,2G+3G,HUW,102_0194_Mudupulvemula_CT5025,13.6992,78.91842,Rural,Mudupulavemula,Pileru,NH,Shelter,5386.0,"M.Gourisankaraiah, S/oKrishna Murthy Sy.No404, Mudupulavemula(V), Piler",Rajampet,PILER,517214.0,NBSNL,BSNL Infra,CT5025,GBT,40.0,38.0,Dual,MOBI (MB2F&3F-65-17&17DE10&8-2015),Nortel,VII,3/15/2014,S12K_ID,3.0,4-4-4,30/115/270,,,,,OFC,,,,,,68.0,Tirupati,VIII,,,ID,3.0,,,,,,,70 Mbps,,,,,,,,102.0,,,,,CT5025,,,CT5025,BSC68-06_Rompicherla_CT2162A,ID,2015813451@G/FXW/HYD/3156725/2016@K-19012-G/FVC/HYD2891034/2015-CFA DTD 9-12-16,,70 Mbps,0.0,,,,
152,CT5028,BSC70-97_Gandrajupalle_CT5028B,2G+3G,HUW,102_0195_CT_Gandrajupalli_CT5028,13.18812,78.5855,Rural,Gandrajupalle,Baireddipalle,NH,Shelter,5423.0,"Gandrajupalle_5682,G.Ramana Reddy, Thatireddygaripalli (V),Gandrajupalli (P), Baireddypalli (M)517432",Chittoor,PALMANER,517432.0,NBSNL,BSNL Infra,CT5028,GBT,40.0,38.0,Dual,MOBI (MB2F&3F-65-17&17DE10&8-2015),Nortel,VII,3/11/2014,S12K_ID,3.0,4-4-4,0/140/310,,DMW,,,NEW NEC(HFCL),0.6m,BSC70-69_Dandapalle_CT2235B,E1,1.0,,70.0,Tirupati,VIII,,,,,,,,E1,E1,,45 Mbps,,,,E1,,,,102.0,,,,,CT5028,,,CT5028,BSC70-12_G_K_Manchi_CT2111B,ID,,,45 Mbps,0.0,,,,
153,CT5029,BSC68-83_Gollapalli_CT5029B,2G,,,13.69812,78.39717,Rural,GOLLAPALLI,B.Kothakota,NH,Shelter,5391.0,"M.Srinivas Reddy, Gollapalli (V), B.Kothakota Mandal",Rajampet,MADANAPALLI,517351.0,NBSNL,BSNL Infra,CT5029,GBT,40.0,37.0,Dual,MOBI (MB2F&3F-65-17&17DE10&8-2015),Nortel,VII,6/9/2014,BTS18K_ID,3.0,4-4-4,100/200/300,1.0,OFC,E1,,,,,,,,68.0,Tirupati,,,,,,,,,,,,,,,,,,,,,,,,,,,,,,,,,,,,,,
154,CT5031,BSC68-56_Kantevaripali_CT5031B,2G+3G,HUW,102_0196_Kantevaripali_CT5031,13.66332,78.44965,Rural,Kantevaripalle,Madanapalle,NH,Room,5392.0,"BSNL Tower, Kantevaripalle",Rajampet,MADANAPALLI,517325.0,NBSNL,BSNL Infra,CT5031,GBT,40.0,37.0,Dual,MOBI (MB2F&3F-65-17&17DE10&8-2015),Nortel,VII,2/15/2014,BTS18K_ID,3.0,4-4-4,0/110/290,1.0,OFC,E1,,,,,,,,68.0,Tirupati,VIII,,,ID,,,,,,,,100 Mbps,,,,,,,,102.0,,,,,CT5031,,,,BSC68-40_Arogyavaram_CT2255B,ID,,,100 Mbps,0.0,,,,
155,CT5039,BSC68-48_KVaddipalli_CT5039C,2G,,,13.41262,79.16805,Rural,Kvaddipalli,Pakala,,Shelter,5396.0,"P.MUNIRATNAM,S.NO:474/1,KVADDIPALLI VILLAGE,PAKALA (M),CHITTOR DT",Chittoor,PAKALA,517247.0,NBSNL,BSNL Infra,CT5039,GBT,40.0,40.0,Dual,MOBI (MB2F&3F-65-17&17DE10&8-2015),Nortel,VII,8/5/2014,S12K_ID,3.0,4-4-4,90/200/340,,DMW,,,NEW NEC,0.6 m,BSC60-18_PKothakota_CT2035B,E1,1.0,,60.0,Tirupati,,,,,,,,,,,,,,,,,,,,,,,,,,,,CT5039,,,2015813406@G/FXW/HYD/3156709/2016@K-19012/G/FXW/HYD/2670760/2016-CFA 9-12-16,,,0.0,,,,
156,CT5044,BSC70-80_Pudipatla_CT5044B,2G,,,13.39725,78.63656,Rural,Pudipatla,Chowdepalle,SH,Shelter,5413.0,"pudipatla,1-143, beside telephone exchange , pudipatla village ,chowdepalli mandal, 517257",Chittoor,PUNGANUR,517247.0,BSNL,BSNL Infra,CT5044,GBT,40.0,38.0,Mono,MOBI (MB2F&3F-65-17&17DE10&8-2015),Nortel,VII,2/26/2015,S12K_ID,3.0,2-2-2,60/135/270,1.0,OFC,E1,,,,,,,,70.0,Tirupati,,,,,,,,,,,,,,,,,,,,,,,,,,,,CT5044,,,,,,0.0,,,,
157,CT5047,BSC70-42_M-Kothur_CT5047C,2G,,,13.10955,78.76078,Rural,M.Kothur,Peddapanjani,,Exchange,5416.0,"A.Jagadeesh Naidu, 9494100909 Near Exchange,M.Kothur (V",Chittoor,PALMANER,517590.0,BSNL,BSNL Infra,CT5047,GBT,40.0,38.0,Dual,MOBI (MB2F&3F-65-17&17DE10&8-2015),Nortel,VII,3/28/2014,BTS18K_ID,3.0,4-4-4,0/100/255,1.0,OFC,E1,,,,,,,,70.0,Tirupati,,,,,,,,,,,,,,,,,,,,,,,,,,,,,,,,,,,,,,
158,CT5049,BSC70-71_Cheldiganpali_CT5049B,2G,,,12.93364,78.45302,Rural,Cheldiganipalli,Ramakuppam,NH,Shelter,5428.0,"T.G.MOHAN,Survey.No:46-8,Cheldiganipalli,Ramakuppam (M).",Chittoor,KUPPAM,517424.0,NBSNL,BSNL Infra,CT5049,GBT,40.0,37.0,Dual,MOBI (MB2F&3F-65-17&17DE10&8-2015),Nortel,VII,5/21/2014,S12K_ID,3.0,4-4-4,0/120/240,1.0,OFC,E1,,,,,,,,70.0,Tirupati,,,,,,,,,,,,,,,,,,,,,,,,,,,,CT5049,,,,,,0.0,,,,
159,CT5053,BSC70-02_Cherukupalli_CT5053C,2G,,,13.47976,78.90306,Rural,Cherukuvaripalli,Sodam,,Shelter,5394.0,"J.Indravathi, W/o J.Ramalinga Reddy, Cherakuvaripalli (V) Sodam (M)",rajampet,PILER,517123.0,NBSNL,BSNL Infra,CT5053,GBT,40.0,40.0,Dual,MOBI (MB2F&3F-65-17&17DE10&8-2015),Nortel,VII,12/6/2014,BTS18K_ID,3.0,4-4-4,130/230/350,,DMW,,,HUAWEI,0.6 m,BSC70-17_Nanjampet_CT2267C,E1,1.0,,70.0,Tirupati,,,,,,,,,,,,,,,,,,,,,,,,,,,,,,,2015814035@G/FXW/HYD/3156773/2016@K-19012-G/FVC/HYD2891034/2015-CFA DTD 9-12-16,,,,,,,
160,CT5059,BSC68-69_Avanthi_CT5059B,2G,,,13.61844,79.877,Rural,AVANTHI,Varadaiahpalem,,Exchange,5381.0,"Backside of Exchange Avanthi, Varadaiahpalem (M)",Tirupati,SATYAVEDU,517541.0,BSNL,BSNL Infra,CT5059,GBT,40.0,38.0,Dual,MOBI (MB2F&3F-65-17&17DE10&8-2015),Nortel,VII,3/27/2014,S12K_ID,3.0,4-4-4,30/100/220,1.0,OFC,E1,,,,,,,,67.0,Tirupati,,,,,,,,,,,,,,,,,,,,,,,,,,,,CT5059,,,,,,0.0,,,,
161,CT5061,BSC68-94_Mannavaram_CT5061C,2G+3G,HUW,102_0132_MANNAVARAM_CT5061B,13.89391,79.52686,Rural,Mannavaram,Yerpedu,,Room,5377.0,"BHEL project,via Yerpedu,Mannavarm(post).",Tirupati,SRI KALAHASTHI,517620.0,BSNL,BSNL Infra,CT5061,GBT,40.0,35.0,Dual,Agisson,Nortel,VII,6/27/2013,S12K_ID,3.0,4-4-4,70/200/290,,DMW,,,ZTE-VIOM(Huawei),1.2 m,BSC67-18_ChintalaPalem_CT2232B,E1,1.0,,67.0,Tirupati,VII +,3/16/2017,70/200/290,ID,3.0,35.0,Dual,Agisson,DMW,,,20 Mbps,ZTE-VIOM(Huawei),0.6 m,CT2232,FE,,Tiruapti,8Mbps,102.0,,,,,,,,CT5061,,,2015813449@G/FXW/HYD/3156723/2016@K-19012/G/FXW/HYD/3156337/201-CFA 26/2/16,,20 Mbps,0.0,,,,
162,CT5063,BSC68-85_Brahmanapalli_CT5063C,2G,,,13.614,79.76872,Rural,Brahmanapalli,Srikalahasti,,Room,5378.0,"TELEPHONE EXCHANGE,Kv puram mandal,Brahmanapalli",Tirupati,SRI KALAHASTHI,517643.0,BSNL,BSNL Infra,CT5063,GBT,40.0,40.0,Dual,MOBI (MB2F&3F-65-17&17DE10&8-2015),Nortel,VII,1/14/2015,S12K_ID,3.0,4-4-4,90/180/300,1.0,Radio Modem,E1,,HUAWEI,0.6 m,BSC67-20_ChittaturuUSO_CT2099C,E1,,,67.0,Tirupati,,,,,,,,,,,,,,,,,,,,,,,,,,,,CT5063,,,,,,0.0,,,,
163,CT5070,BSC68-47_Damalcherv2nd_CT5070B,2G,,,13.4803,79.04797,Rural,Damalacheruvu,Pakala,RC,Room,5396.0,"Damalcheruvu (v),pakala(M),Chittoor DT.",Chittoor,PAKALA,517152.0,NBSNL,BSNL Infra,CT2005,GBT,80.0,33.0,Dual,MOBI (MB2F&3F-65-17&17DE10&8-2015),Nortel,VII,7/22/2014,S12K_ID,3.0,4-4-4,50/140/330,1.0,OFC,E1,,,,,,,,60.0,Tirupati,,,,,,,,,,,,,,,,,,,,,,,,,,,,CT5070,,,2015812385@G/FXW/HYD/3156697/2016@K-19012-G/FVC/HYD2891034/2015-CFA DTD 9-12-16,,,0.0,,,,
164,CT5081,BSC70-88_S-Bandapalli_CT5081C,2G,,,12.94698,78.54466,Rural,S-Bandapalli,Venkatagirikota,,OD Plinth,5424.0,"S.Bandapalli,Rekkamumanu Road,S.Bandapalli(V),V.Kota(M),Chittor Dt-517424",Chittoor,KUPPAM,517424.0,NBSNL,BSNL Infra,CT5081,GBT,40.0,40.0,Dual,MOBI (MB2F&3F-65-17&17DE10&8-2015),Nortel,VII,9/12/2014,BTS6K_OD_AC,3.0,2-2-2,30/150/270,1.0,OFC,E1,,,,,,,,70.0,Tirupati,,,,,,,,,,,,,,,,,,,,,,,,,,,,,,,,,,,,,,
165,CT5085,BSC70-25_TVNRPuram_CT5085A,2G+3G,ZTE,346_6371_TVNRPURAM_CT5085,13.16057,79.33272,Rural,TVNR PURAM,Palasamudram,,Shelter,5432.0,"TVNR PURAM,SY.No:31-1. main road , TVNR PURAM , PALASAMUDRAM MANDAL , CHITOOR Dt-517419",Chittoor,PUTTUR,517419.0,NBSNL,BSNL Infra,CT5085,GBT,40.0,37.0,Dual,MOBI (MB2F&3F-65-17&17DE10&8-2015),Nortel,VII+,8/22/2016,S12K_ID,3.0,4-4-4,80/120/200,1.0,OFC,E1,,,,,,,,67.0,Tirupati,VIII,,,ID,3.0,,,,OFC,FE,,45 Mbps,,,,,,,,346.0,,,,,CT5085,,,CT5085,BSC70-15_Kanipakam_CT2050A,ID,,,45 Mbps,0.0,,,,
166,CT5104,BSC70-36_B_AgraharamTE_CT5104C,2G,,,13.33119,79.62359,Rural,Bugga agraharam,Nagari,,Exchange,,"Telephone exchange, Bugga agraharam,Nagari Mandal,Chittoor District, Pincode-517590",Tirupati,PUTTUR,517592.0,BSNL,BSNL Infra,CT5104,GBT,15.0,15.0,Dual,KATHREIN,Nortel,VII+,12/6/2017,S12K_ID,3.0,4-4-4,80/170/270,1.0,OFC,E1,,,,,,,,67.0,Tirupati,,,,,,,,,,,,,,,,,,,,,,,,,,,,,,,,,,,,,,
167,CT5105,BSC70-34_Gutharlapalli_CT5105,2G,,,12.76086,78.32795,Rural,KUPPAM,KUPPAM,,Exchange,,,Chittoor,KUPPAM,517426.0,BSNL,BSNL Infra,CT5105,GBT,,,,,Nortel,,6/9/2018,,3.0,3-3-3,,,OFC,E1,,,,,,,,70.0,Tirupati,,,,,,,,,,,,,,,,,,,,,,,,,,,,,,,,,,0.0,,,,
168,CT5515,BSC70-51_Pathikonda_ATC_CT5515,2G+3G,NSN,553_36671_Pathikonda_ATC_CT5515,13.18298,78.63658,Rural,Pathikonda,Palamaner,,OD Plinth,5422.0,"Pathikonda,palamner (M),Chittoor DT.",Chittoor,PALMANER,517432.0,IP-ATC,ATC,AP3092,GBT,40.0,37.0,Mono,HIGH WAY,Nortel,IV,5/3/2006,S8K_OD,3.0,4-4-4,174/251/336,,DMW,,,NEW NEC,0.6m,BSC70-69_Dandapalle_CT2235B,E1,1.0,,70.0,Tirupati,VIII.4,12/28/2019,,RRH,,,,,DMW,,,,,,,,,,,553.0,,,,,,,,CT2061,,,,,,0.0,,,,
