SR.NO,RPID,SITE_NAME_3G,SITE_NAME_2G,TECHNOLOGY,3G_TECH,LATITUDE,LONGITUDE,DHQ,DHQ_NAME,Mandal,ROUT,SHELTER,Mandal_Code,Address,MP_CONS,SDCA,PIN_CODE,BSNL_IP,IP_NAME,IP_ID,Tower_Type,2G_Tower_HT,2G_ Ant_HT,2G_Ant,2G_Ant_Make,2G_BTS,2G_Phase,2G_Commission,2G_Type,2G_SEC,2G_Conf,2G_Azimuth,2G_E1_NO,2G_Media,2G_OFC_E1,2G_FE_BW,2G_DMW,2G_DMW_Ant_DIA,2G_Far_end_RPID,2G_DMW_E1_FE,2G_DMW_E1_NO,2G_DMW_FE_BW,BSC,2G_MSC,3G_PH,3G_Commission,3G_Azimuth,3G_ID,3G_SEC,3G_ANT_HT,3G_ANT_TYPE,Field52,3G_MEDIA,3G_OFC_FE,3G_E1_NO,3G_FE_BW,3G_DMW,3G_DMW_DIA,3G_FAR_RPID,3G_E1_FE,Field61,3G_MSC,Field62,RNC,NSN_2G,NSN_3G,NSN_NEW_3G,NSN_4G,HUW_REDP,NSN_NEW_2G,NOR_IV5,NOR_IV,3G_HUW_FROM,3G_HUW_FROM_TYPE,DMW_SACFA,WORK_C,BW,BSC_PORT,WORK_2G,TOWN,WORK_2G1,TOWN1
1,CT2019,346_5905_TPT_TirumalaResidency_CT2019A,504_40031_TirumalaResidency_CT2019,2G+3G,ZTE,13.62744,79.42889,DHQ,Tirupati,Tirupati (Urban),NH,Room,5383.0,"TRP_TirumalaResidency,tirupati,,Chittoor DT.",Tirupati,CHANDRAGIRI,517501.0,NBSNL,BSNL Infra,CT2019,MARR,18.0,30.0,Dual,XAHT,NSN,IV,1/20/2006,BTS18K_ID,3.0,4-4-4,0/120/240,2.0,OFC,E1,,,,,,,,58.0,Tirupati,V.1,3/18/2010,0/120/240,RRH,3.0,26.0,Mono,AGISSON,OFC,FE,,100 Mbps,,,,,,Tiruapti,,346.0,CT2019,,,,,,CT2019,,,,,,100 Mbps,504,190718-YES-(E1+TRP-MADM+CAR-STM),TRP,,
2,CT2020,346_5906_TPT_TiruchaNoor_CT2020A,504_40041_Tiruchanoor_CT2020,2G+3G,ZTE,13.60804,79.45194,DHQ,Tirupati,Tirupati (Rural),,Room,5375.0,"TRP_Tiruchanoor,near tirupati,,Chittoor DT.",Tirupati,CHANDRAGIRI,517503.0,NBSNL,BSNL Infra,CT2020,MARR,21.0,26.0,Dual,KATHREIN,NSN,IV,5/26/2006,S12K_OD,3.0,4-4-4,120/240/320,,DMW,,,NEW NEC,0.6 m,BSC58-30_TRPCottonMill_CT2198B,E1,1.0,,58.0,Tirupati,V.1,3/18/2010,120/240/320,ID,3.0,26.0,Mono,Agisson,DMW,,,50 Mbps,NEW NEC,0.6 m,CT2198,FE,,Tiruapti,100 Mbps,346.0,CT2020,,,,,,,,,,2015812114@G/FVC/HYD/3156690/2016@CLEARED ONLINE,,50 Mbps,504,"120718-YES-(DMW,FE+TRP-MADM+PE2(2-2-31))",TRP,,
3,CT2021,346_5907_TPT_Bhavaningr_CT2021A,504_40051_Bhavaninagar_CT2021,2G+3G,ZTE,13.64056,79.42027,DHQ,Tirupati,Tirupati (Urban),,OD Plinth,5383.0,"TRP_Bhavaninagar,Chittoor DT.",Tirupati,CHANDRAGIRI,517501.0,BSNL,BSNL Infra,CT2021,MARR,15.0,27.0,Mono,KATHREIN,NSN,IV,9/28/2005,S12K_ID,3.0,4-4-4,0/120/240,1.0,OFC,E1,,,,,,,,58.0,Tirupati,V.1,3/18/2010,0/120/240,OD,3.0,27.0,Mono,Agisson,OFC,Optical,,100 Mbps,,,,,,Tiruapti,,346.0,CT2021,,,,,,,,,,,,100 Mbps,504,240718-YES-(E1+TRP-MADM+CAR-STM),TRP,,
4,CT2022,346_5908_TPT_PadmavathiPuram_CT2022A,504_40061_Padmavatipuram_CT2022,2G+3G,ZTE,13.61646,79.43544,DHQ,Tirupati,Tirupati (Rural),NH,Exchange,5375.0,"TRP_Padmavatipuram,Chittoor DT.",Tirupati,CHANDRAGIRI,517503.0,BSNL,BSNL Infra,CT2022,MARR,21.0,27.0,Dual,KATHREIN,NSN,IV,6/4/2005,S12K_ID,3.0,4-4-4,130/240/350,2.0,OFC,E1,,,,,,,,58.0,Tirupati,V.1,3/18/2010,130/240/350,RRH,3.0,27.0,Mono,Agisson,OFC,Optical,,100 Mbps,,,,,,Tiruapti,,346.0,CT2022,,,,,,,,,,,,100 Mbps,504,230718-YES-(FE+TRP-MADM+PE2(2-2-31)),TRP,,
5,CT2023,346_5909_TPT_Renigunta_CT2023A,504_40071_Renigunta_CT2023,2G+3G,ZTE,13.63683,79.49588,DHQ,Renigunta,Renigunta,RC,Exchange,5376.0,"Renigunta Exchange,Beside Govt high school,Renigunta,Tirupati,Chittoor District, Pin-517520",Tirupati,CHANDRAGIRI,517520.0,BSNL,BSNL Infra,CT2023,GBT,40.0,34.0,Dual,Agisson,NSN,II+,6/4/2004,S12K_ID,3.0,4-4-4,80/110/260,1.0,OFC,E1,,,,,,,,58.0,Tirupati,V.1,3/18/2010,80/110/260,RRH,3.0,34.0,Dual,Agisson,OFC,FE,,100 Mbps,,,,,,Tiruapti,,346.0,CT2023,,,,,,,,,,,,100 Mbps,504,230718-YES-(GE+RENI_PTN+NIB-4/5+PE-GE1(2-2-19)),TRP,,
6,CT2037,346_5913_TPT_SVU_CT2037A,504_40111_SVUGuestHouse_CT2037,2G+3G,ZTE,13.62389,79.39261,DHQ,Tirupati,Tirupati (Rural),RC,Shelter,5375.0,"S.V UNIVERSITY;Tirupati, Andhra Pradesh",Tirupati,CHANDRAGIRI,517501.0,NBSNL,BSNL Infra,CT2037,GBT,40.0,30.0,Dual,MOBI (MB2F&3F-65-17&17DE10&8-2015),NSN,II+,6/4/2004,BTS18K_ID,3.0,4-4-4,50/160/240,2.0,OFC,E1,,,,,,,,58.0,Tirupati,V.1,3/18/2010,50/160/240,RRH,3.0,30.0,Mono,Agisson,OFC,FE,,100 Mbps,,,,,,Tiruapti,,346.0,CT2037,,,,,,CT2037,,,,,,100 Mbps,504,"220718-YES-(DMW,E1+TRP-MADM+CAR-STM)",TRP,,
7,CT2038,346_4769_Aragonda_CT2038B,BSC70-11_Aragonda_CT2038A,2G+3G,ZTE,13.26844,78.97016,Rural,Aragonda,Thavanampalle,SH,Exchange,5418.0,"Amara Raja Electronics Company, Digavamaghm, Aragonda(V), Thavanampalli (M), Chittoor DT - 517129",Chittoor,BANGARUPALYAM,517129.0,BSNL,BSNL Infra,CT2038,GBT,40.0,40.0,Dual,MOBI (MB2F&3F-65-17&17DE10&8-2015),Nortel,IV,12/30/2005,S12K_ID,3.0,4-4-4,90/230/330,1.0,OFC,E1,,,,,,,,70.0,Tirupati,VII,7/1/2014,90/230/330,ID,3.0,40.0,Dual,MOBI (MD2F&3F-65-17&17DE10&8-2015),OFC,FE,,100 Mbps,,,,,,Tiruapti,,346.0,,,,,,,,CT2038,,,,,100 Mbps,0,,,,
8,CT2039,346_4767_BKothakotaSDCA_CT2039A,BSC68-12_BKotakotaSDCA_CT2039A,2G+3G,ZTE,13.65489,78.26188,Rural,B.Kothakota,B.Kothakota,SH,Exchange,5391.0,"BKothakotaSDCA(V&M),Chittoor DT.",Rajampet,B.KOTHAKOTA,517370.0,BSNL,BSNL Infra,CT2039,GBT,60.0,40.0,Dual,MOBI (MB2F&3F-65-17&17DE10&8-2015),Nortel,IV,5/9/2006,BTS18K_ID,3.0,4-4-4,14/102/227,1.0,OFC,E1,,,,,,,,68.0,Tirupati,VII,7/21/2014,14/102/227,ID,3.0,40.0,Dual,MOBI (MD2F&3F-65-17&17DE10&8-2015),OFC,FE,,100 Mbps,,,,,,Tiruapti,,346.0,,,,,,,,CT2039,,,,,100 Mbps,0,,,,
9,CT2040,346_5914_Bairagipatteda_CT2040A,504_40121_Bairagipatteda_CT2040,2G+3G,ZTE,13.62006,79.42385,DHQ,Tirupati,Tirupati (Urban),,Room,5383.0,"TRP-Bairagipatteda,Chittoor DT.",Tirupati,CHANDRAGIRI,517501.0,NBSNL,BSNL Infra,CT2040,RTT,15.0,18.0,Mono,KATHREIN,NSN,IV,9/27/2007,S12K_ID,3.0,4-4-4,150/240/310,2.0,OFC,E1,,,,,,,,58.0,Tirupati,V.1,3/18/2010,150/240/310,RRH,3.0,18.0,Mono,Agisson,OFC,Optical,,100 Mbps,,,,,,Tiruapti,,346.0,CT2040,,,,,,,,,,,,100 Mbps,504,"130718-YES-(CPE,FE+TRP-MADM+PE2(2-2-31))",TRP,,
10,CT2046,346_4737_GDNellore_CT2046A,BSC70-13_GDNellore_CT2046A,2G+3G,ZTE,13.23308,79.18182,E-City,GDNellore,Gangadhara Nellore,SH,Exchange,5420.0,"GDNellore(V&M),Chittoor DT.",Chittoor,CHITTOOR,517128.0,BSNL,BSNL Infra,CT2046,GBT,40.0,38.0,Dual,MOBI (MB2F&3F-65-17&17DE10&8-2015),Nortel,IV,4/21/2006,BTS18K_ID,3.0,4-4-4,37/120/255,2.0,OFC,E1,,,,,,,,60.0,Tirupati,VII,4/16/2014,37/120/255,ID,3.0,38.0,Dual,MOBI (MD2F&3F-65-17&17DE10&8-2015),OFC,FE,,45 Mbps,,,,,,Tiruapti,,346.0,,,,,,,,CT2046,,,,,45 Mbps,0,,,,
11,CT2051,346_5917_Karakampadi-TE_CT2051A,504_40141_Karakambadi_CT2051,2G+3G,ZTE,13.67521,79.51188,DHQ,Karakambadi,Tirupati (Rural),,Exchange,5375.0,"karakambadi,tirupati,Chittoor DT.",Tirupati,CHANDRAGIRI,517520.0,BSNL,BSNL Infra,CT2051,GBT,40.0,40.0,Mono,KATHREIN,NSN,IV,12/30/2005,S12K_ID,3.0,4-4-4,0/160/320,1.0,OFC,E1,,,,,,,,58.0,Tirupati,V.1,3/20/2011,0/160/320,RRH,3.0,40.0,Mono,Agisson,OFC,Optical,,100 Mbps,,,,,,Tiruapti,,346.0,CT2051,,,,,,,,,,,,100 Mbps,504,250718-YES-(E1+STR-MADM+STR-STM),TRP,,
12,CT2062,346_6369_Penumuru_CT2062,BSC70-12_Penumuru_CT2062A,2G+3G,ZTE,13.36838,79.19577,Rural,penumuru,Penumuru,SH,Exchange,5409.0,"Penumuru(V&M),Chittoor DT.",Chittoor,CHITTOOR,517126.0,BSNL,BSNL Infra,CT2062,GBT,40.0,38.0,Mono,KATHREIN,Nortel,IV,12/31/2005,S12K_ID,3.0,4-4-4,70/190/340,1.0,OFC,E1,,,,,,,,60.0,Tirupati,VII +,5/17/2017,70/190/340,RRH,3.0,36.0,Mono,MOBI (MB3F-65-18DE10+MBRET-RCU-003),OFC,Optical,,45 Mbps,,,,,,Tiruapti,,346.0,,,,,,,,CT2062,,,,,45 Mbps,0,,,,
13,CT2072,346_5919_TPT_MainExge_CT2072A,504_40201_TirupatiMainEx_CT2072,2G+3G,ZTE,13.63252,79.42218,DHQ,Tirupati,Tirupati (Urban),,Exchange,5383.0,"TRP_TirupatiMainExge,Tirupati,Chittoor DT.",Tirupati,CHANDRAGIRI,517501.0,BSNL,BSNL Infra,CT2072,RTT,21.0,27.0,Dual,XAHT,NSN,II+,6/4/2004,BTS18K_ID,3.0,6-6-6,180/230/320,2.0,OFC,E1,,,,,,,,58.0,Tirupati,V.1,3/18/2010,180/230/320,OD,3.0,27.0,Mono,Agisson,OFC,Optical,,100 Mbps,,,,,,Tiruapti,,346.0,CT2072,,,,,,,,,,,,100 Mbps,504,240718-YES-(E1+TRP-MADM+CAR-STM),TRP,,
14,CT2073,346_5920_TPT_Alipiri_CT2073A,504_40211_TRT_Alipiri_CT2073,2G+3G,ZTE,13.64124,79.4101,DHQ,Tirupati,Tirupati (Urban),SH,Exchange,5383.0,"TRP_Alipiri,Chittoor DT.",Tirupati,CHANDRAGIRI,517507.0,BSNL,BSNL Infra,CT2073,GBT,30.0,30.0,Mono,KATHREIN,NSN,II+,6/4/2004,S12K_ID,3.0,4-4-4,40/120/190,2.0,OFC,E1,,,,,,,,58.0,Tirupati,V.1,3/18/2010,40/120/190,RRH,3.0,30.0,Mono,Agisson,OFC,FE,,100 Mbps,,,,,,Tiruapti,,346.0,CT2073,,,,,,,,,,,,100 Mbps,504,180718-YES-(E1+TRP-MADM+CAR-STM),TRP,,
15,CT2074,346_5921_TPT_BalajiColony_CT2074A,504_40221_BalajiColony_CT2074,2G+3G,ZTE,13.63361,79.4105,DHQ,Tirupati,Tirupati (Urban),,Exchange,5383.0,"TRP_BalajiColony,Tirupati,Chittoor DT.",Tirupati,CHANDRAGIRI,517502.0,BSNL,BSNL Infra,CT2074,MARR-1,18.0,24.0,Mono,KATHREIN,NSN,IV,9/28/2005,S12K_ID,3.0,4-4-4,0/120/240,2.0,OFC,E1,,,,,,,,58.0,Tirupati,V.1,3/18/2010,0/120/240,RRH,3.0,24.0,Mono,Agisson,OFC,Optical,,100 Mbps,,,,,,Tiruapti,,346.0,CT2074,,,,,,,,,,,,100 Mbps,504,220718-YES-(FE+TRP-MADM+PE2(2-2-31)),TRP,,
16,CT2075,346_5922_Korlagunta_CT2075A,504_40231_Korlagunta_CT2075,2G+3G,ZTE,13.63832,79.42799,DHQ,Tirupati,Tirupati (Urban),SH,Exchange,5383.0,"TRP_Korlagunta,Chittoor DT.",Tirupati,CHANDRAGIRI,517501.0,BSNL,BSNL Infra,CT2075,MARR,24.0,18.0,Mono,KATHREIN,NSN,III,7/27/2004,S12K_ID,3.0,4-4-4,60/110/270,2.0,OFC,E1,,,,,,,,58.0,Tirupati,V.1,3/18/2010,60/110/270,RRH,3.0,18.0,Dual,Agisson,OFC,FE,,100 Mbps,,,,,,Tiruapti,,346.0,CT2075,,,,,,,,,,,,100 Mbps,504,170718-YES-(E1+TRP-MADM+CAR-STM),TRP,,
17,CT2076,346_5923_TPT_Tuda_CT2076A,504_40241_TUDA_CT2076,2G+3G,ZTE,13.62506,79.41523,DHQ,Tirupati,Tirupati (Urban),,Exchange,5383.0,"TRP_TUDA,TUDA EXGE,Tirupati,Chittoor DT.",Tirupati,CHANDRAGIRI,517501.0,BSNL,BSNL Infra,CT2076,GBT,40.0,30.0,Dual,XAHT,NSN,III,6/4/2004,BTS18K_ID,3.0,6-6-6,0/60/120,2.0,OFC,E1,,,,,,,,58.0,Tirupati,V.1,3/18/2010,0/60/120,OD,3.0,30.0,Mono,Agisson,OFC,Optical,,100 Mbps,,,,,,Tiruapti,,346.0,CT2076,,,,,,,,,,,,100 Mbps,504,180718-YES-(FE+TRP-MADM+PE2(2-2-31)),TRP,,
18,CT2079,346_5422_Vkota_CT2079A,BSC70-56_VKota_CT2079A,2G+3G,ZTE,13.00264,78.48475,E-City,V.Kota,Venkatagirikota,NH,Exchange,5424.0,"Vkota(V&M),Chittoor DT.",Chittoor,V.KOTA,517424.0,BSNL,BSNL Infra,CT2079,GBT,40.0,40.0,Dual,MOBI (MB2F&3F-65-17&17DE10&8-2015),Nortel,III,6/12/2004,S12K_ID,3.0,4-4-4,30/140/220,2.0,OFC,E1,,,,,,,,70.0,Tirupati,VII,7/14/2014,30/140/220,ID,3.0,40.0,Dual,MOBI (MD2F&3F-65-17&17DE10&8-2015),OFC,FE,,50 Mbps,,,,,,Tiruapti,,346.0,,,,,,,,CT2079,,,,,50 Mbps,0,,,,
19,CT2103,346_35422_BalmurganDairy_CT2103,BSC70-99__CTR_BalamuruganDairy_CT2103,2G+3G,ZTE,13.18911,79.08806,E-City,Chittoor,Chittoor,NH,Room,5421.0,"Balamurugan dairy,Chittoor,Chittoor DT.",Chittoor,CHITTOOR,517001.0,NBSNL,BSNL Infra,CT2103,MARR,15.0,24.0,Dual,MOBI (MB2F&3F-65-17&17DE10&8-2015),Nortel,IV.5,2/6/2009,BTS18K_ID,3.0,4-4-4,0/160/300,1.0,OFC,E1,,,,,,,,60.0,Tirupati,VII,1/6/2014,0/160/300,RRH,3.0,24.0,Dual,MOBI (MD2F&3F-65-17&17DE10&8-2015),OFC,FE,,100 Mbps,,,,,,Tiruapti,,346.0,CT2103,CT2103,,,,,CT2103,,,,,,100 Mbps,505,090718-YES(fe+CPE+CTR(CAR)-MADM)+CTR-DWDM+TRP(DWDM)+PE1(2-2-23),CTR,,
20,CT2172,346_5930_KhadiColony_CT2172A,504_40321_KhadiColony_CT2172,2G+3G,ZTE,13.64905,79.42012,DHQ,Tirupati,Tirupati (Urban),,OD Plinth,5383.0,"18-1-27A Venkatasai Apartments,Dwarakanagar,KT road,Tirupati,Chittoor DT.",Tirupati,CHANDRAGIRI,517507.0,NBSNL,BSNL Infra,CT2172,RTP,9.0,21.0,Tri,Agisson,NSN,IV,6/18/2008,S12K_OD,3.0,3-4-3,60/150/230,1.0,OFC,E1,,,,,,,,58.0,Tirupati,V.1,3/18/2010,60/150/230,RRH,3.0,21.0,TRI,Agisson,OFC,Optical,,100 Mbps,,,,,,Tiruapti,,346.0,CT2172,,,,,,,,,,,,100 Mbps,504,"220718-YES-(DMW,E1+TRP-MADM+CAR-STM)",TRP,,
21,CT2175,346_5931_Jeevakona_CT2175A,504_40341_JeevaKona_CT2175,2G+3G,ZTE,13.64799,79.43078,DHQ,Tirupati,Tirupati (Urban),,Shelter,5383.0,"TRP_JeevaKona,Tirupati,Chittoor DT.",Tirupati,CHANDRAGIRI,517507.0,NBSNL,BSNL Infra,CT2175,MARR,12.0,18.0,Dual,XAHT,NSN,IV.5,2/16/2009,BTS18K_ID,3.0,4-4-4,0/140/240,1.0,OFC,E1,,,,,,,,58.0,Tirupati,V.1,3/18/2010,0/140/240,RRH,3.0,18.0,Dual,Agisson,OFC,FE,,100 Mbps,,,,,,Tiruapti,,346.0,CT2175,,,,,,,,,,,,100 Mbps,504,"200718-YES-(DMW,E1+TRP-MADM+CAR-STM)",TRP,,
22,CT2176,346_5932_TPT_ChinnaBazar_CT2176A,504_40351_Bazarstreet_CT2176,2G+3G,ZTE,13.63207,79.41764,DHQ,Tirupati,Tirupati (Urban),,Shelter,5383.0,"9-1-43,Gangundram mandpam st,behind rajesh rest home building,tpt,Chittoor DT.",Tirupati,CHANDRAGIRI,517501.0,NBSNL,BSNL Infra,CT2176,RTP,9.0,21.0,Tri,Agisson,NSN,IV.5,2/5/2009,BTS18K_ID,3.0,4-4-4,40/190/280,,DMW,,,NEW NEC,0.6 m,BSC58-18_TirpatiMainEx_CT2072A,E1,1.0,,58.0,Tirupati,V.1,3/18/2010,40/190/280,RRH,3.0,21.0,TRI,Agisson,DMW,,,100 Mbps,NEW NEC,0.6 m,CT2072,FE,,Tiruapti,100 Mbps,346.0,CT2176,,,,,,CT2176,,,,G/FVC/HYD/1171288/2010,,100 Mbps,504,240718-YES-(E1+TRP-MADM+CAR-STM),TRP,,
23,CT2177,346_5933_TPT_AutoNagar_CT2177A,504_40361_Autonagar_CT2177,2G+3G,ZTE,13.62633,79.44037,DHQ,Tirupati,Tirupati (Rural),SH,Shelter,5375.0,"TRP_Autonagar,tirupati,Chittoor DT.",Tirupati,CHANDRAGIRI,517501.0,NBSNL,BSNL Infra,CT2177,MARR-G,24.0,24.0,Dual,XAHT,NSN,IV.5,3/31/2009,BTS18K_ID,3.0,4-4-4,70/210/320,,DMW,,,NEW NEC,0.6 m,BSC58-18_TirpatiMainEx_CT2072A,E1,1.0,,58.0,Tirupati,V.1,3/18/2010,70/210/320,RRH,3.0,24.0,Mono,Agisson,OFC,FE,,100 Mbps,,,,,,Tiruapti,,346.0,CT2177,,,,,,CT2177,,,,,,100 Mbps,504,"160718-YES-(DMW,E1+TRP-MADM+CAR-STM)",TRP,,
24,CT2178,346_5934_MRPalli_CT2178A,504_40371_MRPalli_CT2178,2G+3G,ZTE,13.6212,79.40853,DHQ,Tirupati,Tirupati (Rural),SH,Room,5375.0,"TRP-MRPalli,Tirupati,Chittoor DT.",Tirupati,CHANDRAGIRI,517502.0,NBSNL,BSNL Infra,CT2178,RTP,9.0,21.0,Tri,Agisson,NSN,IV.5,1/22/2009,BTS18K_ID,3.0,4-4-4,50/150/320,2.0,OFC,E1,,,,,,,,58.0,Tirupati,V.1,4/13/2012,50/150/320,RRH,3.0,21.0,TRI,Agisson,OFC,FE,,100 Mbps,,,,,,Tiruapti,,346.0,CT2178,,,,,,CT2178,,,,,,100 Mbps,504,170718-YES-(E1+TRP-MADM+CAR-STM),TRP,,
25,CT2179,346_5935_TPT_PadmavathiNagar_CT2179A,504_40381_Padmavathinagar_CT2179,2G+3G,ZTE,13.61922,79.40257,DHQ,Tirupati,Tirupati (Rural),RC,Room,5375.0,"Mahalaxmi apartments,opp padmavati mahila university,Tiupati,Chittoor DT.",Tirupati,CHANDRAGIRI,517502.0,NBSNL,BSNL Infra,CT2179,RTP,6.0,21.0,Dual,XAHT,NSN,IV.5,1/17/2009,BTS18K_ID,3.0,4-4-4,90/170/300,1.0,OFC,E1,,,,,,,,58.0,Tirupati,V.1,3/18/2010,90/170/300,RRH,3.0,21.0,Mono,Agisson,OFC,FE,,100 Mbps,,,,,,Tiruapti,,346.0,CT2179,,,,,,CT2179,,,,,,100 Mbps,504,"220718-YES-(DMW,E1+TRP-MADM+CAR-STM)",TRP,,
26,CT2180,346_5936_TPT_Srinivasam_CT2180A,504_40391_Srinivasam_CT2180,2G+3G,ZTE,13.63282,79.42857,DHQ,Tirupati,Tirupati (Urban),SH,Room,5383.0,"srinivasam complex,near RTC bus stand,tpt,Chittoor DT.",Tirupati,CHANDRAGIRI,517501.0,NBSNL,BSNL Infra,CT2180,RTP,3.0,24.0,Tri,Agisson,NSN,IV.5,5/27/2009,BTS18K_ID,3.0,4-4-4,0/125/250,,DMW,,,NEW NEC,0.6 m,BSC58-07_TRP_Korlagnta_CT2075A,E1,2.0,,58.0,Tirupati,V.1,3/18/2010,0/125/250,RRH,3.0,24.0,TRI,Agisson,DMW,,,100 Mbps,NEW NEC,0.6 m,CT2075,FE,,Tiruapti,100 Mbps,346.0,CT2180,,,,,,CT2180,,,,G/FVC/HYD/1170935/2010,,100 Mbps,504,"170718-YES-(DMW,E1+TRP-MADM+CAR-STM)",TRP,,
27,CT2181,346_5937_TPT_Madhuranagar_CT2181A,504_40401_TRPMadhuranr_CT2181,2G+3G,ZTE,13.64348,79.42526,DHQ,Tirupati,Tirupati (Urban),,Room,5383.0,"TRP_Madhuranagar,tirupati,Chittoor DT.",Tirupati,CHANDRAGIRI,517501.0,NBSNL,BSNL Infra,CT2181,RTP,9.0,18.0,Tri,Agisson,NSN,IV.5,12/31/2008,BTS18K_ID,3.0,4-4-4,0/105/235,1.0,OFC,E1,,,,,,,,58.0,Tirupati,V.1,3/18/2010,0/105/235,RRH,3.0,18.0,TRI,Agisson,OFC,FE,,100 Mbps,,,,,,Tiruapti,,346.0,CT2181,,,,,,CT2181,,,,,,100 Mbps,504,"210718-YES-(DMW,E1+TRP-MADM+CAR-STM)",TRP,,
28,CT2196,346_5938_TPT_VaradarajaNagar_ATC_CT2196A,504_40411_VaradarajaNgr_ATC_CT2196,2G+3G,ZTE,13.64423,79.41856,DHQ,TIRUPATI,Tirupati (Urban),NH,Shelter,5383.0,"#2-9-1089,N.G.O COLONY,K.T.ROAD,TIRUPATHI,CHITTOOR(DIST) ;Andhra pradesh-517501",Tirupati,CHANDRAGIRI,517501.0,IP-ATC,ATC,AP/CH/AT/10761,RTP,9.0,21.0,Dual,MOBI (MB2F&3F-65-17&17DE10&8-2015),NSN,V.1,8/13/2013,BTS18K_ID,3.0,4-4-4,40/220/320,1.0,OFC,E1,,,,,,,,58.0,Tirupati,V.1,8/31/2013,40/220/320,OD,3.0,21.0,Dual,MOBI (MD2F&3F-65-17&17DE10&8-2015),OFC,FE,,100 Mbps,,,,,,Tiruapti,,346.0,CT2196,,,,,,,,,,,,100 Mbps,504,"210718-YES-(DMW,E1+TRP-MADM+CAR-STM)",TRP,,
29,CT2197,346_6017_TRP_Kothapalli_CT2197A,504_40421_Kothapalli_CT2197,2G+3G,ZTE,13.63611,79.44408,DHQ,Tirupati,Tirupati (Rural),RC,Shelter,5375.0,"TRPKothapalli_CT2197B,S.Y.No 17/2,18, flot no 28 , F block,padmavati nagar , renigunta road , chitoor dt.-517502",Tirupati,CHANDRAGIRI,517507.0,NBSNL,BSNL Infra,CT2197,GBT,30.0,27.0,Dual,Agisson,NSN,V.1,5/6/2011,S12K_ID,3.0,4-4-4,30/220/290,,DMW,,,NEW NEC,0.6 m,BSC58-18_TirpatiMainEx_CT2072A,E1,1.0,,58.0,Tirupati,V.1,7/13/2016,30/220/290,RRH,3.0,27.0,Dual,Agisson,DMW,,,100 Mbps,NEW NEC,0.6 m,CT2072,FE,,Tiruapti,100 Mbps,346.0,CT2197,,,,,,,,,,G/FVC/HYD/1602502/2011,,100 Mbps,504,310818-YES-(E1+TRP-MADM+CAR-STM),TRP,,
30,CT2198,346_5939_CottonMills_CT2198A,504_40431_CottonMills_CT2198,2G+3G,ZTE,13.63447,79.45294,DHQ,Tirupati,Tirupati (Rural),SH,Shelter,5375.0,"TRP_CottonMills,Chittoor DT.",Tirupati,CHANDRAGIRI,517506.0,NBSNL,BSNL Infra,CT2198,GBT,30.0,27.0,Dual,Agisson,NSN,V.1,3/10/2011,S8K_ID,3.0,4-4-4,80/150/250,,DMW,,,NEW NEC(HFCL),0.6 m,BSC58-45_Padmavatipurm_CT2022A,E1,1.0,,58.0,Tirupati,V.1,7/23/2013,80/150/250,RRH,3.0,27.0,Dual,Agisson,DMW,,,50 Mbps,NEW NEC,0.6 m,CT2022,FE,,Tiruapti,100 Mbps,346.0,CT2198,,,,,,,,,,G/FVC/HYD/1369232/2010,,50 Mbps,504,"110718-YES-(DMW,FE+TRP-MADM+PE2(2-2-31))",TRP,,
31,CT2199,346_5940_Avilala_CT2199A,504_40441_Avilala_CT2199,2G+3G,ZTE,13.61409,79.41584,DHQ,Tirupati,Tirupati (Rural),SH,Shelter,5375.0,"H-NO:6-171/A,C/O MUNIRATHNAM,BESIDE RRAL REGISTER OFFICE,DHANALAXMI NAGAR,AVILALA,TPt,Chittoor DT..",Tirupati,CHANDRAGIRI,517507.0,NBSNL,BSNL Infra,CT2199,RTT,15.0,20.0,Dual,Agisson,NSN,V.1,12/13/2010,S12K_ID,3.0,4-4-4,0/120/270,,OFC,,,,,,,,,58.0,Tirupati,V.1,12/12/2010,0/120/270,ID,3.0,20.0,Dual,Agisson,OFC,,,100 Mbps,,,,,,Tiruapti,100 Mbps,346.0,CT2199,,,,,,,,,,G/FVC/HYD/1369233/2010,,100 Mbps,504,"130718-YES-(DMW,FE+TRP-MADM+PE2(2-2-31))",TRP,,
32,CT2200,346_5941_TPT_PrakasamRoad_CT2200A,504_40451_PrakasamRd_CT2200,2G+3G,ZTE,13.6296,79.4094,DHQ,Tirupati,Tirupati (Urban),NH,Room,5383.0,"CCE Building, Prakasam road, Tirupati",Tirupati,CHANDRAGIRI,517501.0,NBSNL,BSNL Infra,CT2200,RTP,9.0,23.0,Tri,Agisson,NSN,V.1,5/24/2012,BTS18K_ID,3.0,4-4-4,50/160/280,2.0,OFC,E1,,,,,,,,58.0,Tirupati,V.1,5/25/2012,50/160/280,RRH,3.0,23.0,TRI,Agisson,OFC,FE,,100 Mbps,,,,,,Tiruapti,,346.0,CT2200,,,,,,,,,,,,100 Mbps,504,"220718-YES-(DMW,E1+TRP-MADM+CAR-STM)",TRP,,
33,CT2202,346_5943_Yogimallavaram_CT2202A,504_40461_Yogimallavaram_CT2202,2G+3G,ZTE,13.60672,79.43894,DHQ,Tirupati,Tirupati (Rural),NH,Shelter,5375.0,"PLOT NO:10,TELECOMCOLONY,YOGIMALLAVARAM,TPT,Chittoor DT.",Tirupati,CHANDRAGIRI,517503.0,NBSNL,BSNL Infra,CT2202,RTT,15.0,19.0,Dual,Agisson,NSN,V.1,12/8/2012,S12K_ID,3.0,4-4-4,25/100/270,,DMW,,,NEW NEC,0.6 m,BSC58-45_Padmavatipurm_CT2022A,E1,1.0,,58.0,Tirupati,V.1,7/25/2013,25/100/270,RRH,3.0,19.0,Dual,Agisson,DMW,,,100 Mbps,NEW NEC,0.6 m,CT2022,FE,,Tiruapti,100 Mbps,346.0,CT2202,,,,,,,,,,G/FVC/HYD/1466308/2011,,100 Mbps,504,"120718-YES-(DMW,FE+TRP-MADM+PE2(2-2-31))",TRP,,
34,CT2203,346_5944_KarakambadiRoad_ATC_CT2203A,504_40471_KarakambadiRd_ATC_CT2203,2G+3G,ZTE,13.64835,79.45063,DHQ,Tirupati,Tirupati (Rural),SH,Shelter,5375.0,K. NADAMUNI NAIDU; S/O. LATE GANGUKA NAIDU; H.NO.1-49; TIMMINAIDUPALEM; AKKARAMPALLI; TPT;,Tirupati,CHANDRAGIRI,517520.0,IP-ATC,ATC,AP/CH/BS/0180,GBT,40.0,30.0,Dual,Agisson,NSN,V.1,10/21/2011,S12K_ID,3.0,4-4-4,60/200/270,,DMW,,,NEW NEC,0.6 m,BSC58-18_TirpatiMainEx_CT2072A,E1,1.0,,58.0,Tirupati,V.1,11/6/2013,60/200/270,RRH,3.0,30.0,Dual,Agisson,DMW,,,100 Mbps,NEW NEC,0.6 m,CT2072,FE,,Tiruapti,100 Mbps,346.0,CT2203,,,,,,,,,,G/FVC/HYD/1598185/2011,,100 Mbps,504,"210718-YES-(DMW,E1+TRP-MADM+CAR-STM)",TRP,,
35,CT2204,346_5945_TPT_SVIMS_CT2204A,504_40481_SVIMS-2_CT2204,2G+3G,ZTE,13.63761,79.40414,DHQ,Tirupati,Tirupati (Urban),,Room,5383.0,"TRP-SVIMS-2,room no:18,SvIMS Hospital,tirupati,Chittoor DT.",Tirupati,CHANDRAGIRI,517507.0,NBSNL,BSNL Infra,CT2204,RTT,15.0,22.0,Tri,Agisson,NSN,V.1,10/31/2010,BTS18K_ID,3.0,4-4-4,320/140/220,,OFC,,,,,,,,,58.0,Tirupati,V.1,12/11/2010,320/140/220,RRH,3.0,22.0,TRI,Agisson,,,,100 Mbps,,,,FE,,Tiruapti,100 Mbps,346.0,CT2204,,,,,,CT2204,,,,G/FVC/HYD/1466302/2011,,100 Mbps,504,180718-YES-(E1+TRP-MADM+CAR-STM),TRP,,
36,CT2205,346_6018_Tumalgunta_ATC_CT2205A,504_40491_Tummalagunta_ATC_CT2205,2G+3G,ZTE,13.61427,79.38858,DHQ,Tirupati,Tirupati (Rural),RC,Shelter,5375.0,"Nalanda Nagar, Tummalagunta Perur Rd, Tummalagunta, Tirupati, Chittoor, Andhra Pradesh 517502",Tirupati,CHANDRAGIRI,517502.0,IP-ATC,ATC,AP2036,RTP,9.0,21.0,Dual,Agisson,NSN,V.1,12/15/2011,S12K_ID,3.0,4-4-4,90/270/335,,DMW,,,NEW NEC,0.6 m,BSC58-14_Pudipatla_CT2302A,E1,1.0,,58.0,Tirupati,V.1,9/23/2016,90/270/335,RRH,3.0,21.0,Dual,Agisson,DMW,,,100 Mbps,NEW NEC,0.6 m,CT2302,FE,,Tiruapti,70 Mbps,346.0,CT2205,,,,,,,,,,2015812085@G/FXW/HYD/3156688/2016@K-19012-G/FVC/HYD2891034/2015-CFA DTD 9-12-16,,100 Mbps,504,240718-YES-(E1+TRP-MADM+CAR-STM),TRP,,
37,CT2252,346_5952_CTR_MaruthiNagar_TV_CT2252A,504_40591_MarutiNgr_TV_CT2252,2G+3G,ZTE,13.63689,79.43121,DHQ,Tirupati,Tirupati (Urban),,Shelter,5383.0,Korlakunta Tirupati Chittoor Dist,Tirupati,CHANDRAGIRI,517501.0,IP-TV,Tower Vision,TAAPCHI0211,RTT,15.0,24.0,Dual,MOBI (MB2F&3F-65-17&17DE10&8-2015),NSN,V.1,4/19/2012,S12K_ID,3.0,4-4-4,40/140/240,,DMW,,,NEW NEC,0.6 m,BSC58-18_TirpatiMainEx_CT2072A,E1,1.0,,58.0,Tirupati,V.1,12/2/2013,40/140/240,RRH,3.0,24.0,Dual,MOBI (MD2F&3F-65-17&17DE10&8-2015),DMW,,,100 Mbps,NEW NEC,0.6 m,CT2072,FE,,Tiruapti,100 Mbps,346.0,CT2252,,,,,,,,,,2015812068@G/FVC/HYD/3156687/2016@CLEARED ONLINE,,100 Mbps,504,"170718-YES-(DMW,E1+TRP-MADM+CAR-STM)",TRP,,
38,CT2276,346_4772_Peddamandyam_CT2276A,BSC68-86_Peddamandyam_CT2276C,2G+3G,ZTE,13.9247,78.5401,Rural,Peddamandyam,Peddamandyam,,Room,5369.0,"Peddamandyam(VM),Chittoor DT.",Rajampet,MADANAPALLI,517297.0,NBSNL,BSNL Infra,CT2276,GBT,40.0,37.0,Dual,AGISSON,Nortel,V.1,10/26/2010,S12K_ID,3.0,4-4-4,110/240/330,1.0,OFC,E1,,,,,,,,68.0,Tirupati,VII,7/23/2014,110/240/330,ID,3.0,37.0,Dual,Agisson,OFC,FE,,100 Mbps,,,,,,Tiruapti,,346.0,,,,,,,,CT2276,,,,,100 Mbps,0,,,,
39,CT2300,346_5953_Ruya_CT2300B,504_40661_Ruya_CT2300,2G+3G,ZTE,13.64433,79.40616,DHQ,Tirupati,Tirupati (Urban),SH,Room,5383.0,"TRP_Ruya,Tirupati,Chittoor DT.",Tirupati,CHANDRAGIRI,517507.0,NBSNL,BSNL Infra,CT2300,RTP,6.0,16.0,Dual,MOBI (MB2F&3F-65-17&17DE10&8-2015),NSN,IV.5,4/30/2009,BTS6K_OD_AC,3.0,2-2-2,100/220/330,1.0,OFC,E1,,,,,,,,58.0,Tirupati,VII,7/4/2014,100/220/330,RRH,3.0,16.0,Dual,MOBI (MD2F&3F-65-17&17DE10&8-2015),OFC,Optical,,100 Mbps,,,,,,Tiruapti,,346.0,CT2300,,,,,,CT2300,,,,,,100 Mbps,504,190718-YES-(E1+TRP-MADM+CAR-STM),TRP,,
40,CT2302,346_5955_Pudipatla_CT2302A,504_40671_Pudipatla_CT2302,2G+3G,ZTE,13.613879,79.3615,DHQ,Pudipatla,Tirupati (Rural),RC,Shelter,5375.0,"Pudipatla,Tirupati Rural.",Tirupati,CHANDRAGIRI,517505.0,NBSNL,BSNL Infra,CT2302,GBT,40.0,37.0,Dual,Agisson,NSN,V.1,10/21/2011,BTS18K_ID,3.0,4-4-4,20/180/240,1.0,OFC,E1,,,,,,,,58.0,Tirupati,V.1,11/6/2013,20/180/240,RRH,3.0,37.0,Dual,Agisson,OFC,FE,,100 Mbps,,,,,,Tiruapti,,346.0,CT2302,,,,,,CT2302,,,,,,100 Mbps,504,"220718-YES-(DMW,E1+TRP-MADM+CAR-STM)",TRP,,
41,CT2310,346_3505_Angallu_CT2310A,BSC68-20_Angallu_CT2310A,2G+3G,ZTE,13.62996,78.48533,Rural,Angallu,Kurabalakota,SH,Room,5389.0,"Angallu, Chittoor Dt",Tirupati,MADANAPALLI,517325.0,NBSNL,BSNL Infra,CT2310,RTP,9.0,21.0,Dual,MOBI (MB2F&3F-65-17&17DE10&8-2015),Nortel,V.1,1/22/2013,S8K_ID,3.0,4-4-4,50/180/300,1.0,OFC,E1,,,,,,,,68.0,Tirupati,VII,7/23/2014,50/180/300,ID,3.0,21.0,Dual,MOBI (MD2F&3F-65-17&17DE10&8-2015),OFC,FE,,100 Mbps,,,,,,Tiruapti,,346.0,,,,,,,,CT2310,,,,,100 Mbps,0,,,,
42,CT2312,346_5956_Sivajyothingr_CT2312A,504_40691_ShivaJyothiNgr_CT2312,2G+3G,ZTE,13.65113,79.42678,DHQ,Tirupati,Tirupati (Urban),SH,Room,5383.0,"Sivajyothi nagar, Tirupati",Tirupati,CHANDRAGIRI,517501.0,NBSNL,BSNL Infra,CT2312,RTP,9.0,18.0,Dual,MOBI (MB2F&3F-65-17&17DE10&8-2015),NSN,V.1,6/27/2012,S8K_ID,3.0,4-4-4,60/210/290,1.0,OFC,E1,,,,,,,,58.0,Tirupati,V.1,6/2/2014,60/210/290,RRH,3.0,18.0,Dual,MOBI (MD2F&3F-65-17&17DE10&8-2015),OFC,FE,,100 Mbps,,,,,,Tiruapti,,346.0,CT2312,,,,,,,,,,,,100 Mbps,504,"200718-YES-(DMW,E1+TRP-MADM+CAR-STM)",TRP,,
43,CT5003,346_5958_KapilaTheertham_GTL_CT5003A,504_40711_Kapilatheertham_GTL_CT5003,2G+3G,ZTE,13.64933,79.42298,DHQ,Tirupati,Tirupati (Urban),SH,Shelter,5383.0,"H.No:18-3-60/D1, SANTHI NAGAR, YALAMURI BUILDING, KD ROAD, TIRUPATHI, CHITTOOR DIST, ANDHRA PRADESH-517501",Tirupati,CHANDRAGIRI,517501.0,IP-GTL,GTL,APR/RTP/B/09379,RTP,9.0,21.0,Dual,MOBI (MB2F&3F-65-17&17DE10&8-2015),NSN,VII,8/22/2014,BTS18K_ID,3.0,4-4-4,0/140/280,1.0,OFC,E1,,,,,,,,58.0,Tirupati,VII,8/25/2014,0/140/280,RRH,3.0,21.0,Dual,MOBI (MD2F&3F-65-17&17DE10&8-2015),OFC,FE,,100 Mbps,,,,,,Tiruapti,,346.0,CT5003,,,,,,,,,,,,100 Mbps,504,"210718-YES-(DMW,E1+TRP-MADM+CAR-STM)",TRP,,
44,CT5008,346_5961_CTR_Jeevakona_VIOM_CT5008A,504_40731_Jeevakona2_VIOM_CT5008,2G+3G,ZTE,13.65152,79.43088,DHQ,Tirupati,Tirupati (Urban),,Shelter,5383.0,"B. Gangadharam, S/O Pichanna, H.NO 8-377A Sai Nagar, Satyanarayanapuram, Tirupati.",Tirupati,CHANDRAGIRI,517501.0,IP-VIOM,VIOM Networks,ANPQRL0050,RTT,18.0,24.0,Dual,MOBI (MB2F&3F-65-17&17DE10&8-2015),NSN,VII,4/1/2013,S12K_ID,3.0,4-4-4,45/140/280,1.0,OFC,E1,,,,,,,,58.0,Tirupati,VII,12/18/2013,45/140/280,RRH,3.0,24.0,Dual,MOBI (MD2F&3F-65-17&17DE10&8-2015),OFC,FE,,100 Mbps,,,,,,Tiruapti,,346.0,CT5008,,,,,,,,,,,,100 Mbps,504,"200718-YES-(DMW,E1+TRP-MADM+CAR-STM)",TRP,,
45,CT5009,346_5962_RDO_Office_CT5009A,504_40741_RDO-Office_CT5009,2G+3G,ZTE,13.62209,79.41636,DHQ,TIRUPATI,Tirupati (Urban),SH,Shelter,5383.0,"RDO OFFICE,AIRBYPASS ROAD,TIRUPATI",Tirupati,CHANDRAGIRI,517501.0,NBSNL,BSNL Infra,CT5009,RTT,12.0,18.0,Dual,MOBI (MB2F&3F-65-17&17DE10&8-2015),NSN,VII,7/10/2014,S12K_ID,3.0,4-4-4,60/180/260,2.0,OFC,E1,,,,,,,,58.0,Tirupati,VII,7/15/2014,60/180/260,RRH,3.0,18.0,Dual,MOBI (MD2F&3F-65-17&17DE10&8-2015),OFC,FE,,65 Mbps,,,,,,Tiruapti,,346.0,CT5009,,,,,,,,,,,,65 Mbps,504,170718-YES-(E1+TRP-MADM+CAR-STM),TRP,,
46,CT5011,346_5963_Dasarimatam_ASD_CT5011A,504_40751_DasariMatam_ITIL_CT5011,2G+3G,ZTE,13.62699,79.42408,DHQ,Tiruapti,Tirupati (Urban),RC,Shelter,5383.0,drr lodge; beside D.R.mahal; tirupathi.;address;D.R.mahal,Tirupati,CHANDRAGIRI,517501.0,IP-ITIL,Ascend Telecom Infrastructure PVT LTD,5580,RTT,12.0,21.0,Dual,Agisson,NSN,VII,2/19/2013,S12K_ID,3.0,4-4-4,160/240/340,,DMW,,,NEW NEC,0.6 m,BSC58-21_TRP_TUDA_CT2076A,E1,1.0,,58.0,Tirupati,VII,2/24/2014,160/240/340,RRH,3.0,21.0,Dual,Agisson,DMW,,,100 Mbps,NEW NEC,0.6 m,CT2076,FE,,Tiruapti,80 Mbps,346.0,CT5011,,,,,,,,,,2015812054@G/FXW/HYD/3156686/2016@K-19012-G/FVC/HYD2891034/2015-CFA DTD 9-12-16,,100 Mbps,504,"140718-YES-(CPE,FE+TRP-MADM+PE2(2-2-31))",TRP,,
47,CT5014,346_5965_TPT_HotelChakri_GTL_CT5014A,504_40781_Hotelchakri_GTL_CT5014,2G+3G,ZTE,13.62313,79.42973,DHQ,Tirupati,Tirupati (Urban),SH,Room,5383.0,"CHAKRIE REIDENCY HOTEL #19-9-29/A,TIRUCHANUR ROAD,SANKARAMBADI CIRCLE, TIRUPATHI PIN:517501",Tirupati,CHANDRAGIRI,517503.0,IP-GTL,GTL,APR/RTP/K/15058,RTP,6.0,24.0,Dual,MOBI (MB2F&3F-65-17&17DE10&8-2015),NSN,VII,4/5/2013,BTS18K_ID,3.0,4-4-4,340/90/260,2.0,OFC,E1,,,,,,,,58.0,Tirupati,VII,8/22/2013,340/90/260,RRH,3.0,24.0,Dual,MOBI (MD2F&3F-65-17&17DE10&8-2015),OFC,FE,,100 Mbps,,,,,,Tiruapti,,346.0,CT5014,,,,,,,,,,,,100 Mbps,504,"140718-YES-(CPE,FE+TRP-MADM+PE2(2-2-31))",TRP,,
48,CT5024,346_6026_Renigunta3_CT5024A,504_40831_Renigunta3_CT5024,2G+3G,ZTE,13.63615,79.50425,E-City,Renigunta,Renigunta,RC,Room,5376.0,"Renigunta3,sq no;794near saibaba temple ,gm street,renigunta.517520",Tirupati,CHANDRAGIRI,517520.0,NBSNL,BSNL Infra,CT5024,RTP,6.0,21.0,Dual,XAHT,NSN,VII,2/17/2015,S12K_ID,3.0,4-4-4,60/220/310,,DMW,,,NEW NEC,0.6 m,BSC58-19_TRP_Renigunta_CT2023A,E1,1.0,,58.0,Tirupati,VII,7/13/2016,60/220/310,OD,3.0,21.0,Mono,MOBI (MD2F&3F-65-17&17DE10&8-2015),DMW,,,100 Mbps,NEW NEC,0.6 m,CT2023,FE,,Tiruapti,60 Mbps,346.0,CT5024,,,,,,,,,,2016949264@G/FXW/HYD/3548127/2016@K-19012/G/FVC/HYD/1982154/2013-CFA DT 19/12/16,,100 Mbps,504,"090718-YES-(DMW,FE+RENI_PTN-FX3/6+NIB-4/5+PE-GE1(2-2-19))",TRP,,
49,CT5033,346_5966_SVEnggcollege_CT5033A,504_40861_SVEnggcollege_CT5033,2G+3G,ZTE,13.65756,79.48644,DHQ,Tirupati,Tirupati (Rural),SH,Shelter,5375.0,"SV ENGG COLLEGE,KarakambadiRoad,Mangalam,Tirupati",Tirupati,CHANDRAGIRI,517501.0,NBSNL,BSNL Infra,CT5033,RTP,9.0,21.0,Dual,MOBI (MB2F&3F-65-17&17DE10&8-2015),NSN,VII,7/30/2014,BTS18K_ID,3.0,4-4-4,10/230/290,,DMW,,,NEW NEC(HFCL),0.6 m,BSC58-19_TRP_Renigunta_CT2023A,E1,1.0,,58.0,Tirupati,VII,7/28/2014,10/230/290,RRH,3.0,21.0,Dual,MOBI (MD2F&3F-65-17&17DE10&8-2015),DMW,,,100 Mbps,NEW NEC,0.6 m,CT2023,FE,,Tiruapti,60Mbps,346.0,CT5033,,,,,,CT5033,,,,2015812341@G/FXW/HYD/3156693/2016@K-19012-G/FVC/HYD2891034/2015-CFA DTD 9-12-16,,100 Mbps,504,"110718-YES-(DMW,FE+RENI_PTN-FX3/11+NIB-4/5+PE-GE1(2-2-19))",TRP,,
50,CT5034,346_6027_PVgunta_VIOM_CT5034A,504_40871_Pulivanigunta_VIOM_CT5034,2G+3G,ZTE,13.62719,79.45037,DHQ,Tirupati,Tirupati (Rural),SH,Shelter,5375.0,near h.no. 11-96/opp s.v. cotton mills road; gollavanigunta; panchsyath; area; tirupathi;address;pulivanigunta;517501,Tirupati,CHANDRAGIRI,517501.0,IP-VIOM,VIOM Networks,ANPCHI1176,GBT,40.0,40.0,Dual,MOBI (MB2F&3F-65-17&17DE10&8-2015),NSN,VII,7/25/2014,S12K_ID,3.0,4-4-4,60/170/270,,DMW,,,NEW NEC,0.6 m,BSC58-19_TRP_Renigunta_CT2023A,E1,1.0,,58.0,Tirupati,VII,8/23/2016,60/170/270,RRH,3.0,40.0,Dual,MOBI (MD2F&3F-65-17&17DE10&8-2015),DMW,,,100 Mbps,NEW NEC,0.6 m,CT2023,FE,,Tiruapti,60 Mbps,346.0,CT5034,,,,,,,,,,2015812324@G/FVC/HYD/3156692/2016@CLEARED ONLINE,,100 Mbps,504,110718-YES-(DMW+GE+CDR_PTN-FX3/7+NIB-4/5+PE-GE1(2-2-19)),TRP,,
51,CT5035,346_6012_K-Gunata_CT5035A,504_40881_Keshavayanagunta_CT5035,2G+3G,ZTE,13.61738,79.42978,DHQ,TIRUPATI,Tirupati (Rural),,Room,5375.0,"APSPDCL Corporate Office, Tiruchanur Road, Tirupati",tirupati,CHANDRAGIRI,517501.0,NBSNL,BSNL Infra,CT5035,RTP,9.0,21.0,Dual,MOBI (MB2F&3F-65-17&17DE10&8-2015),NSN,VII,12/11/2014,S12K_ID,3.0,4-4-4,40/140/260,1.0,OFC,E1,,,,,,,,58.0,Tirupati,VII,9/4/2015,40/140/260,RRH,3.0,21.0,Dual,MOBI (MD2F&3F-65-17&17DE10&8-2015),OFC,Optical,,100 Mbps,,,,,,Tiruapti,,346.0,CT5035,,,,,,,,,,,,100 Mbps,504,120718-YES-(FE+TRP-MADM+PE2(2-2-31)),TRP,,
52,CT5037,346_5967_VidhayaNagarColony_CT5037A,504_40891_VidyaNagarCly_CT5037,2G+3G,ZTE,13.61953,79.37929,DHQ,TIRUPATI,Tirupati (Rural),NH,OD Plinth,5375.0,"SRINIVASA ENCLAVE,OPP TO AGRICULTURECOLLEGE,PERURU ROAD,TIRUPATI,PIN:517505",tirupati,CHANDRAGIRI,517505.0,NBSNL,BSNL Infra,CT5037,RTP,9.0,27.0,Dual,MOBI (MB2F&3F-65-17&17DE10&8-2015),NSN,VII,9/6/2014,S12K_OD,3.0,4-4-4,100/240/340,,DMW,,,NEW NEC,0.6 m,BSC58-15_SVUGuestHouse_CT2037A,E1,1.0,,58.0,Tirupati,VII,8/25/2014,100/240/340,OD,3.0,27.0,Dual,MOBI (MD2F&3F-65-17&17DE10&8-2015),DMW,,,100 Mbps,NEW NEC,0.6 m,CT2037,FE,,Tiruapti,60Mbps,346.0,CT5037,,,,,,,,,,2015812350@G/FXW/HYD/3156694/2016@K-19012-G/FVC/HYD2891034/2015-CFA DTD 9-12-16,,100 Mbps,504,"220718-YES-(DMW,E1+TRP-MADM+CAR-STM)",TRP,,
53,CT5067,346_6033_Reservoir-Colony_VIOM_CT5067A,504_40991_Reserviorcolony_VIOM_CT5067,2G+3G,ZTE,13.63763,79.41022,DHQ,TIRUPATI,Tirupati (Urban),SH,Shelter,5383.0,"4-4-468,nehru street , reservior colony , tirupati,chitoor district",tirupati,CHANDRAGIRI,517501.0,IP-VIOM,VIOM Networks,ANPCHI1527,RTT,15.0,28.0,Dual,MOBI (MB2F&3F-65-17&17DE10&8-2015),NSN,VII,7/18/2014,S12K_ID,3.0,4-4-4,75/170/285,1.0,OFC,E1,,,,,,,,58.0,Tirupati,VII,9/23/2016,75/170/285,RRH,3.0,28.0,Dual,MOBI (MD2F&3F-65-17&17DE10&8-2015),OFC,FE,,100 Mbps,,,,,,Tiruapti,,346.0,CT5067,,,,,,,,,,,,100 Mbps,504,180718-YES-(E1+TRP-MADM+CAR-STM),TRP,,
54,CT5079,346_6039_YSRD-Colny_ATC_CT5079A,504_41021_YSR-Dcolony_ATC_CT5079,2G+3G,ZTE,13.61373,79.46383,DHQ,Tirupati,Tirupati (Rural),NH,OD Plinth,5375.0,"SY.NO.188/1, DAMINEDU VILLAGE, TIRUCHUNUR POST, TIRUPATHI, CHITTOOR DIST-517520.",Tirupati,CHANDRAGIRI,517504.0,IP-ATC,ATC,AP/CH/BS/11111,GBT,40.0,40.0,Dual,MOBI (MB2F&3F-65-17&17DE10&8-2015),NSN,VII,12/4/2013,S12K_OD,3.0,4-4-4,50/110/240,,DMW,,,NEW NEC,0.6 m,BSC58-19_TRP_Renigunta_CT2023A,E1,1.0,,58.0,Tirupati,VII,8/17/2016,50/110/240,OD,3.0,40.0,Dual,MOBI (MD2F&3F-65-17&17DE10&8-2015),DMW,,,100 Mbps,NEW NEC,0.6 m,CT2023,FE,,Tiruapti,60Mbps,346.0,CT5079,,,,,,,,,,2015812361@G/FXW/HYD/3156695/2016@K-19012/G/FXW/HYD/2670760/2016-CFA 9-12-16,,100 Mbps,504,110718-YES-(DMW+GE+CDR_PTN-FX3/9+NIB-4/5+PE-GE1(2-2-19)),TRP,,
55,CT5085,346_6371_TVNRPURAM_CT5085,BSC70-25_TVNRPuram_CT5085A,2G+3G,ZTE,13.16057,79.33272,Rural,TVNR PURAM,Palasamudram,,Shelter,5432.0,"TVNR PURAM,SY.No:31-1. main road , TVNR PURAM , PALASAMUDRAM MANDAL , CHITOOR Dt-517419",Chittoor,PUTTUR,517419.0,NBSNL,BSNL Infra,CT5085,GBT,40.0,37.0,Dual,MOBI (MB2F&3F-65-17&17DE10&8-2015),Nortel,VII+,8/22/2016,S12K_ID,3.0,4-4-4,80/120/200,1.0,OFC,E1,,,,,,,,67.0,Tirupati,VIII,,,ID,3.0,,,,OFC,FE,,45 Mbps,,,,,,,,346.0,,,,,CT5085,,,CT5085,BSC70-15_Kanipakam_CT2050A,ID,,,45 Mbps,0,,,,
56,CT5092,346_5853_TRP_SPMCollege_CT5092A,504_41051_SPMCollege_CT5092,2G+3G,ZTE,13.63931,79.40045,DHQ,TIRUPATI,Tirupati (Urban),,Room,5383.0,"Padmavati Medical College,Beside BIRRD Hospital,Tirupati.517501",Tirupati,CHANDRAGIRI,517501.0,NBSNL,BSNL Infra,CT5092,RTP,9.0,29.0,Dual,MOBI (MB2F&3F-65-17&17DE10&8-2015),NSN,VII+,1/2/2017,BTS18K_ID,3.0,4-4-4,20/150/240,,DMW,,,NEW NEC,0.6 m,BSC58-16_TRT_Alipiri_CT2073A,E1,1.0,,58.0,Tirupati,VII +,1/2/2017,20/150/240,RRH,3.0,29.0,Dual,MOBI (MD2F&3F-65-17&17DE10&8-2015),DMW,,,100 Mbps,NEW NEC,0.6 m,CT2073,FE,,Tiruapti,100 Mbps,346.0,CT5092,,,,,,CT5092,,,,2016408019@G/FXW/HYD/3755780/2017@K-19012/G/FVC/HYD/23642939/2014-CFA DT9-5-17,,100 Mbps,504,190718-YES-(E1+TRP-MADM+CAR-STM),TRP,,
57,CT5097,346_6363_TRP_RRColony_CT5097,504_41061_RRColony_CT5097,2G+3G,ZTE,13.63541,79.42022,DHQ,Tirupati,Tirupati (Urban),,Room,5383.0,"Reddy&Reddy colony,D.No. 526/527,Reddy&Reddy Colony , Tirupati517501",Tirupati,CHANDRAGIRI,517501.0,NBSNL,BSNL Infra,CT5097,RTP,9.0,21.0,Dual,MOBI (MB2F&3F-65-17&17DE10&8-2015),NSN,VII+,7/1/2017,BTS18K_ID,3.0,4-4-4,30/230/300,1.0,OFC,E1,,,,,,,,58.0,Tirupati,VII +,9/4/2017,30/230/300,RRH,3.0,21.0,Dual,MOBI (MD2F&3F-65-17&17DE10&8-2015),OFC,Optical,,100 Mbps,,,,,,Tiruapti,,346.0,CT5097,,,,,,,,,,,,100 Mbps,504,230718-YES-(E1+TRP-MADM+CAR-STM),TRP,,
58,CT5106,346_6367_TRP_SP_Office_CT5106,504_41091_TRP-SP Office_CT5106,2G+3G,ZTE,13.62999,79.41255,DHQ,TIRUPATI,Tirupati (Urban),,Room,5383.0,"SP Office ,Near NTR Circle, Tirupati-517501",Tirupati,CHANDRAGIRI,517501.0,NBSNL,BSNL Infra,CT5106,RTP,9.0,18.0,Dual,MOBI (MB2F&3F-65-17&17DE10&8-2015),NSN,VII+,,,3.0,4-4-4,60/180/310,1.0,OFC,E1,,,,,,,,58.0,Tirupati,VII +,8/29/2019,60/180/300,RRH,3.0,18.0,Dual,MOBI (MD2F&3F-65-17&17DE10&8-2015),OFC,FE,,100 Mbps,,,,,,Tiruapti,,346.0,CT5106,,,,,,,,,,,,100 Mbps,504,220718-YES-(FE+TRP-MADM+PE2(2-2-31)),TRP,,
59,CT5109,346_6366_TRP_Kalyani-2_VIOM_CT5109,504_41071_KALYANI2_VIOM_CT5109,2G+3G,ZTE,13.63689,79.41451,DHQ,Tirupati,Tirupati (Urban),,OD Plinth,5383.0,"D-NO:101,OPPOSITE TO SHYAMALA NURSING HOME,SD ROAD,GAJU VEDHI,TIRUPATI,Chittoor DT.",Tirupati,CHANDRAGIRI,517501.0,IP,VIOM,ANPCHI0071,RTP,9.0,18.0,Dual,Agisson,NSN,V.1,8/29/2019,BTS18K_OD,3.0,4-4-4,60/150/250,,DMW,,,NEW NEC,0.6 m,BSC58-16_TRT_Alipiri_CT2073A,E1,1.0,,58.0,Tirupati,V.1,8/29/2019,60/150/250,OD,3.0,18.0,Dual,Agisson,DMW,,,100 Mbps,NEW NEC,0.6 m,CT2073,FE,,Tiruapti,100 Mbps,346.0,CT5109,,,,,,CT5109,,,,,,100 Mbps,504,"240818-YES-(DMW,E1+TRP-MADM+CAR-STM)",TRP,,
60,CT5519,346_59731_TRP_Karnal street_SR_CT5519,Karnal_Street_SR_CT5519,3G,ZTE,13.629259,79.415144,,,,,,,"H.NO.16-1-207, Marrimanu Street, TIRUPATHI TOWN, CHITTOOR DIST-517501",,CHANDRAGIRI,,IP,SR TOWERs,SRT67,RTP,9.0,,,,,,,,,,,,DMW,,,NSN,,TUDA,,,,,,VIII,,,RRH,,,,,DMW,FE,,100 Mbps,NSN,,,,,,,346.0,,,,,,,,,,,,,100 Mbps,0,,,,
61,CT5520,346_5974_SIRIPURAM_CT5520,Siripuram colony_IND_CT5520,3G,ZTE,13.647256,79.41626,,Tirupati,Tirupati,,Shelter,,H.NO.6/7/554A; SHRIPURAM COLONY;TIRUPATI NEAR H.H.K. ROAD; CHITOR DISTT.-517501,TirupatI,CHANDRAGIRI,517501.0,IP,INDUS,IN-1004552,RTP,9.0,,,,,,,,,,,,DMW,,,NSN,,ALIPIRI,,,,,,VIII,1/1/2019,110/260/330,RRH,3.0,,DUAL,MOBI,DMW,FE,,100 Mbps,NSN,,CT2073,FE,,,,346.0,,,,,,,,,,,,,100 Mbps,0,,,,
62,CT5521,346_SRINAGAR_CLNY_IND_CT5521,SRINAGAR COLONY_IND_CT5521,3G,ZTE,13.613214,79.40545,,Tirupati,Tirupati,,,,Building In Sy.No.15 Srinagar Colony Avilala Village Tirupathi Rural Chittoor Dist-A.P-517501,,CHANDRAGIRI,,IP,INDUS,IN-1005439,RTP,9.0,,,,,,,,,,,,DMW,,,NSN,,SV GUEST HIOUSE,,,,,,VIII,,,ID,,,,,DMW,FE,,100 Mbps,NSN,,,,,,,346.0,,,,,,,,,,,,,100 Mbps,0,,,,
63,CT5522,346_5976_Bairagipatteda_IND_CT5522,Bairagipetteda_IND_CT5522,3G,ZTE,13.619412,79.420204,,,,,,,"PLOT NO.-283,BAIRAGIPETA,TIRUPATH TOWN,CHITTOOR DIST Andhra Pradesh 517501",,CHANDRAGIRI,,IP,INDUS,IN-1005629,RTT,18.0,,,,,,,,,,,,DMW,,,NSN,,TUDA,,,,,,VIII,,,ID,,,,,DMW,FE,,100 Mbps,NSN,,,,,,,346.0,,,,,,,,,,,,,100 Mbps,0,,,,
64,CT5526,346_6022_TRP_Leelamahal_IND_CT5526,504_4072_TRP_Leelamahal_IND_CT5526,2G+3G,ZTE,13.64154,79.42739,DHQ,TIRUPATI,TIRUPATI(URBAN),OD,OD,,"H.No.18-2-268/16, LEELA MAHAL JUNCTION,Ashok nagar, Tirumala Thirupathi By Pass Road, Tirupathi, Chittoor Dist.AP, PIN CODE : 517501",Tirupati,CHANDRAGIRI,517501.0,IP-INDUS,INDUS NETWORKS,IN-1131389,RTP,22.0,21.0,DUAL,MOBI,NSN,VIII.4,,,,4-4-4,40/150/220,,DMW,,,NEW NEC,0.6,KOLAGUNTA_CT2075,,,,,TIRUPATI,,,,RRH,,,,,DMW,,,100 Mbps,NEW NEC,,,,,,,346.0,CT5526,,,,,,,,,,,,100 Mbps,504,,,,
65,CT5527,346_63681_Kelavati_CT5527,KELAVATI_CT5527,3G,ZTE,13.349503,78.692515,Rural,KELAVATI,PUNGANUR,,OD,,"Kelavati,pedda panjani mandal,punganur",Chittoor,chittoor,,NBSNL,BSNL INFRA,CT5527,MARR,21.0,27.0,DUAL,MOBI,,,,,,,,,,,,,,,,,,,,VII Addon,12/28/2018,30/140,MICRO,2.0,27.0,DUAL,MOBI,OFC,FE,,20 Mbps,,,,,,TIRUPATI,,346.0,,,,,,,,,,,,,20 Mbps,0,,,,
66,CT5528,346_CHANDRAGIRI_CT5528,Chandragiri_IND_CT5528,3G,ZTE,13.59268,79.31972,,,,,,,"DNO.4-125,Chandragiri village, Srinivasa Mangapuram Rd, Tirupati, Chittoor, Andra Pradesh ,517101",,CHANDRAGIRI,,IP-INDUS,INDUS,IN-1043442,RTT,18.0,,,,,,,,,,,,DMW,,,NSN,,CHANDRAGIRI_EXG,,,,,,VIII,,,ID,,,,,DMW,FE,,100 Mbps,NSN,,,,,,,346.0,,,,,,,,,,,,,100 Mbps,0,,,,
67,CT5529,346_5978_TRP_SBI Colony_IND_CT5529,SBI COLONY_IND_CT5529,3G,ZTE,13.623959,79.421368,,,,,,,"H.NO.19-8-70/G, SBI COLONY, TIRUPATHI TOWN, CHITTOOR DIST-517501",,CHANDRAGIRI,,IP,INDUS,IN-1107420,RTT,15.0,,,,,,,,,,,,DMW,,,NSN,,TUDA,,,,,,VIII,,,RRH,,,,,DMW,FE,,100 Mbps,NSN,,,,,,,346.0,,,,,,,,,,,,,100 Mbps,0,,,,
68,CT5530,346_59791_Vedanthapuram_IND_CT5530,Vedanthapuram Agraharam_IND_CT5530,3G,ZTE,13.601409,79.414042,,,,,,,"Sy.no.:212/5, Vedanthapuram Agraharam, Tirupati Rural, Chittor Dist., AP 517505",,CHANDRAGIRI,,IP,INDUS,IN-1252525,GBT,40.0,,,,,,,,,,,,DMW,,,NSN,,TUDA,,,,,,VIII,,,RRH,,,,,DMW,FE,,100 Mbps,NSN,,,,,,,346.0,,,,,,,,,,,,,100 Mbps,0,,,,
69,CT5536,346_60191_RenguntaCheckpost_ATC_CT5536,504_40521_ReniguntaCheckpost_ATC_CT5536,2G+3G,ZTE,13.64102,79.50896,DHQ,Tirupati,Renigunta,NH,OD Plinth,5376.0,"H.No. 19-431/1 in Sy.No.s 442/4 & 442/5 in Ward No. 17 Near Rajamata Kalyana Mandapam, Balaji Nagar New Checkpost Street, Renigunta Mandal, Chittor-517520",Tirupati,CHANDRAGIRI,517520.0,IP-ATC,ATC,ANPCHI3947,RTT,18.0,25.0,Dual,Agisson,NSN,V.1,3/7/2020,S12K_ID,3.0,4-4-4,80/140/220,,DMW,,,NEW NEC,0.6 m,BSC58-19_TRP_Renigunta_CT2023A,E1,1.0,,58.0,Tirupati,V.1,3/7/2020,80/140/220,RRH,3.0,25.0,Dual,Agisson,DMW,,,100 Mbps,NEW NEC,0.6 m,CT2023,FE,,Tiruapti,60 Mbps,346.0,CT2210,,,,,,,,,,2015812100@G/FVC/HYD/3156689/2016@CLEARED ONLINE,,100 Mbps,504,"090718-YES-(DMW,GE+RENI_PTN-FX3/5+NIB-4/5+PE-GE1(2-2-19))",TRP,,
70,CT5540,346_5964_TPT_ManasaKidnyCentre_IND_CT5540A,504_40761_ManasaKC_IND_CT5540,2G+3G,ZTE,13.65286,79.42004,E-City,Tirupati,Tirupati (Urban),,OD,5383.0,"H NO-6-8-1119 NGO'S COLANY K.T.ROAD OPP-SRI KAPILESWARA SWAMI TEMPLE,TIRUPATHI, CHITTOOR DIST AP-517501",Tirupati,CHANDRAGIRI,517501.0,IP-INDUS,INDUS,IN-1297161,RTT,15.0,24.0,DUAL,MOBI,NSN,VII,,,3.0,4-4-4,0/120/240,,OFC,,,,,,,,,,TIRUPATI,,,,RRH,,24.0,DUAL,MOBI,OFC,,,100 Mbps,,,,,,TIRUPATI,,346.0,CT5540,CT5540,,,,,,,,,,,100 Mbps,504,,,,
71,CT5546,346_6031_Rengunta_RCF_IND_CT5546,504_40961_Renigunta-RCF_IND_CT5546,2G+3G,ZTE,13.63657,79.47558,E-City,Renigunta,Renigunta,RC,Shelter,5376.0,,tirupati,CHANDRAGIRI,517520.0,IP-INDUS,INDUS,IN-1278570,GBT,40.0,40.0,Dual,MOBI (MB2F&3F-65-17&17DE10&8-2015),NSN,VII,5/17/2020,S12K_ID,3.0,4-4-4,60/260/310,,DMW,,,NEW NEC,0.6 m,BSC58-19_TRP_Renigunta_CT2023A,E1,1.0,,58.0,Tirupati,VII,5/18/2020,60/260/310,RRH,3.0,40.0,Dual,MOBI (MD2F&3F-65-17&17DE10&8-2015),DMW,,,100 Mbps,NEW NEC,0.6 m,CT2023,FE,,Tiruapti,50Mbps,346.0,CT5546,,,,,,,,,,2015812385@G/FXW/HYD/3156697/2016]@dated9/2/2016,,100 Mbps,504,"090718-YES-(DMW,FE+RENI_PTN-FX3/8+NIB-4/5+PE-GE1(2-2-19))",TRP,,
72,CT5547,346_TRP_Bhavani Nagar_IND_CT5547,504_41271_TRP_Bhavani Nagar_IND_CT5547,2G+3G,ZTE,13.63837,79.41882,DHQ,Tirupati,Tirupati,,OD Plinth,,"Kamala Residency, H.No.18-1-501A,Tirupati,Chittoor Dist Ap 517501",tirupati,CHANDRAGIRI,,IP-INDUS,INDUS,IN-1321225,RTT,31.0,31.0,Dual,MOBI,NSN,VIII+,6/25/2020,OD,3.0,4-4-4,,,DMW,,,NSN,0.6 m,TirpatiMainEx_CT2072,,,,,,VIII+,6/25/2020,,RRH,3.0,31.0,DUAL,MOBI,DMW,FE,,100,NSN,0.6 m,CT2072,FE,,,,346.0,,,,,,,,,,,,,,0,,,,
73,CT5548,346_59161_TRP_NCB Colony_IND_CT5548,TRP_NCB Colony_IND_CT5548,3G,ZTE,13.64333,79.43159,DHQ,Tirupati,Tirupati,,OD Plinth,,"H.no.:4-3, Govinda nagar, Akkarampalle Rd, Tirupati (Town) & (M), CHITTOOR Dist , AP-517507",tirupati,CHANDRAGIRI,,IP-INDUS,INDUS,IN-1120684,RTT,15.0,24.0,Dual,MOBI,,,,,,,,,,,,,,,,,,,,,5/1/2020,,RRH,,,,,OFC,,,,,,,,,,,346.0,,,,,,,,,,,,,,0,,,,
74,CT5549,346_59181_TRP_Tata Nagar_IND_CT5549,TRP_Tata Nagar_IND_CT5549,3G,ZTE,13.63462,79.42622,DHQ,Tirupati,Tirupati,,OD Plinth,,"H.No.13-5-531/B11, Sy.No.413/2, Tatanagar, Tirupathi, Chittoor Dist, Andhra Pradesh-517501",tirupati,CHANDRAGIRI,,IP-INDUS,INDUS,IN-1248648,RTP,9.0,30.0,Dual,MOBI,,,,,,,,,,,,DMW,0.6 m,TirpatiMainEx_CT2072,,,,,,,5/9/2020,,RRH,,,,,DMW,FX,,100,NSN,0.6 m,CT2072,FX,,,,346.0,,,,,,,,,,,,,,0,,,,
75,CT5553,346_TRP_Andhra Bank Cly_SR_CT5553,TRP_Andhra Bank Cly_SR_CT5553,3G,ZTE,13.61244,79.42458,DHQ,TIRUPATI,TIRUPATI,,OD Plinth,,D.No.9 68; Andhra Bank Colony; Avilala; Tirupathi Rural; Chittor Dist; Andhra Pradesh-517506,,,,IP,SR TOWERs,SRT068,RTP,9.0,22.0,,,,,,,,,,,,,,,,,,,,,,,5/23/2020,,RRH,,,,,,,,,,,,,,,,,,,,,,,,,,,,,,0,,,,
76,CT5554,346_6372_Alimelumangapuram_CT5554,Alimelumangapuram_CT5554,3G,ZTE,,,RURAL,SATYAVEDU,SATYAVEDU,,ROOM,,,,SATYAVEDU,,NBSNL,BSNL INFRA,CT5554,MARR,,,,,,,,,,,,,,,,,,,,,,,,,,,,,,,,,,,,,,,,,,,,,,,,,,,,,,,,,0,,,,
